"","number","name","address","lat","lon","lon2"
"1",903,"00903 - QUAI MAURIAC  / PONT DE BERCY","FETE DE L'OH (BERCY) - QUAI MAURIAC ANG PONT DE BERCY - 75013 PARIS",48.8371336894515,2.37434055460561,1.5620973889382
"2",905,"00905 - CONCORDE/BERGES DE SEINE (STATION MOBILE)","QUAI D'ORSAY - CONCORDE - 75007 PARIS",48.86314,2.31669,1.52416863409064
"3",906,"00906 - GARE DE L'EST","GARE DE L'EST-PARVIS GARE DE L'EST - 75010 PARIS",48.8764198136411,2.3586300645446,1.55176133354141
"4",908,"00908 - PORT DU GROS CAILLOU (STATION MOBILE)","QUAI D'ORSAY - PORT DU GROS CAILLOU - 75007 PARIS",48.86288,2.30652,1.51747771083
"5",1001,"01001 - ILE DE LA CITE PONT NEUF","41 QUAI DE L'HORLOGE - 75001 PARIS",48.8570916352182,2.34174799515786,1.54065448686024
"6",1002,"01002 - PLACE DU CHATELET","14 AVENUE VICTORIA - 75001 PARIS",48.857940092963,2.34701005811449,1.54411643960709
"7",1003,"01003 - RIVOLI SAINT DENIS","7 RUE SAINT DENIS - 75001 PARIS",48.8591502872556,2.34762008768451,1.5445177828755
"8",1004,"01004 - MARGUERITE DE NAVARRE","12 RUE DES HALLES - 75001 PARIS",48.8598963144415,2.34675666754872,1.54394973195414
"9",1005,"01005 - LES HALLES - SEBASTOPOL","3 RUE DE LA COSSONNERIE - 75001 PARIS",48.8612620697647,2.34939999975017,1.54568880107039
"10",1006,"01006 - GRANDE TRUANDERIE","2-4 rue DE LA GRANDE TRUANDERIE 75001 PARIS",48.8626318041594,2.34973214483098,1.54590732194031
"11",1007,"01007 - ETIENNE MARCEL","2 RUE DE TURBIGO - 75001 PARIS",48.8635670471195,2.3477020211411,1.5445716875432
"12",1009,"01009 - PONT NEUF - 14","14 RUE DU PONT NEUF - 75001 PARIS",48.8602451945326,2.34433354527384,1.54235554068645
"13",1010,"01010 - PONT NEUF","10 RUE BOUCHER - 75001 PARIS",48.8594623892453,2.34436612844611,1.54237697741263
"14",1012,"01012 - BOURSE DU COMMERCE","FACE 29 RUE JEAN JACQUES ROUSSEAU - 75001 PARIS",48.8629981667678,2.34155507782723,1.54052756502593
"15",1013,"01013 - SAINT HONORE","186 RUE SAINT HONORE - 75001 PARIS",48.862430234764,2.33852013115178,1.53853084965665
"16",1014,"01014 - RIVOLI MUSEE DU LOUVRE","5 RUE DE L'ECHELLE - 75001 PARIS",48.8636722553657,2.33405760804708,1.53559492048828
"17",1015,"01015 - PLACE ANDRE MALRAUX","2 PLACE ANDRE MALRAUX - 75001 PARIS",48.8639796551511,2.33559960389384,1.53660941172514
"18",1016,"01016 - OPERA PYRAMIDES","27 RUE THERESE - 75001 PARIS",48.8664835145089,2.33443342122379,1.53584217094311
"19",1017,"01017 - SAINT HONORE","215 RUE SAINT HONORE - 75001 PARIS",48.8655711428242,2.33056741757715,1.53329869663387
"20",1018,"01018 - RIVOLI TUILERIE","2 RUE D'ALGER - 75001 PARIS",48.8647936661262,2.32943142194585,1.53255131614287
"21",1019,"01019 - SAINT HONORE VENDOME","237 RUE SAINT HONORE - 75001 PARIS",48.8666980084735,2.32828818571664,1.53179917200537
"22",1020,"01020 - RIVOLI CONCORDE","2 RUE CAMBON - 75001 PARIS",48.8662852211561,2.32524904508358,1.52979969739827
"23",1022,"01022 - RUE DE LA PAIX","37 RUE CASANOVA - 75001 PARIS",48.8682170167744,2.33049351139917,1.53325007317612
"24",1023,"01023 - ANDRE MALRAUX MUSEE DU LOUVRE","165 RUE SAINT HONORE - 75001 PARIS",48.8634970199637,2.33484632755027,1.53611382527392
"25",1024,"01024 - LOUVRE COQ HERON","20 RUE COQUILLIERE - 75001 PARIS",48.8637728320262,2.34270756197831,1.54128579344422
"26",1025,"01025 - TEMPLE DE L'ORATOIRE","2 RUE DE L'ORATOIRE - 75001 PARIS",48.8613894682984,2.34005523281748,1.53954080515739
"27",1026,"01026 - COLONEL DRIANT","PLACE DU LIEUTENANT HENRI KARCHER - 75001 PARIS",48.8634305019412,2.34016976701762,1.53961615811156
"28",1102,"01102 - FRANCAISE","6 RUE FRANCAISE - 75001 PARIS",48.8640650469499,2.34759791271647,1.54450319378902
"29",1116,"01116 - OPÉRA PYRAMIDES","4 RUE DE VENTADOUR - 75001 PARIS",48.866810653323,2.33438844825187,1.53581258286997
"30",2001,"02001 - SEBASTOPOL-GRENATA","12 RUE GRENETA - 75002 PARIS",48.865240621695,2.35166987368994,1.54718216904899
"31",2002,"02002 - MONTORGUEIL ETIENNE MARCEL","32 RUE ETIENNE MARCEL - 75002 PARIS",48.8645823774649,2.34628211166702,1.54363751789442
"32",2003,"02003 - ALLEE PIERRE LAZAEFF","189 RUE SAINT DENIS - 75002 PARIS",48.8661457465286,2.35084459528783,1.54663921187522
"33",2004,"02004 - REAUMUR MONTORGUEIL","83 ALLEE PIERRE LAZAREF - 75002 PARIS",48.8669737142397,2.3486324654447,1.54518383419352
"34",2005,"02005 - MONTORGUEIL RUE MONTMARTRE VERSION 2","46 RUE DE MONTMARTRE - 75002 PARIS",48.8650219458101,2.34506844014476,1.54283903382175
"35",2006,"02006 - PLACE DES VICTOIRES","2 RUE D'ABOUKIR - 75002 PARIS",48.8660026325651,2.3419204119623,1.54076792123658
"36",2007,"02007 - CHABANAIS","1 RUE CHABANAIS - 75002 PARIS",48.8671234464486,2.33668660823888,1.53732456046227
"37",2008,"02008 - MAIRIE DU 2EME","11 RUE DE LA BANQUE - 75002 PARIS",48.8672932628197,2.3405636863636,1.53987532075805
"38",2009,"02009 - BOURSE","1 RUE DES FILLES SAINT THOMAS - 75002 PARIS",48.8688516893722,2.33973140108694,1.53932775370622
"39",2010,"02010 - BOULEVARD MONTMARTRE","21 RUE D'UZES - 75002 PARIS",48.8707757572723,2.34316333438536,1.54158564970773
"40",2011,"02011 - BIBLIOTHEQUE NATIONALE","71 RUE DE RICHELIEU - 75002 PARIS",48.8682998892007,2.3380897822785,1.53824771973665
"41",2012,"02012 - QUATRE SEPTEMBRE","10 RUE DE CHOISEUL - 75002 PARIS",48.8699697339689,2.3360394555421,1.5368987935958
"42",2013,"02013 - RICHELIEU DROUOT","20 RUE FAVART - 75002 PARIS",48.871446353921,2.33829010585079,1.53837951419579
"43",2014,"02014 - SAINT AUGUSTIN","1  3 RUE DAUNOU - 75002 PARIS",48.8691131525953,2.3325151052685,1.53458009573697
"44",2015,"02015 - OPERA - CAPUCINES","25 RUE LOUIS LE GRAND - 75002 PARIS",48.8705089372039,2.33405446193933,1.53559285063916
"45",2016,"02016 - ABOUKIR","108 RUE D'ABOUKIR - 75002 PARIS",48.8686604815393,2.35018588824494,1.54620584331326
"46",2017,"02017 - CAIRE","40, rue du Caire - 75002 PARIS",48.86789,2.34925,1.54559011505097
"47",2020,"02020 - OPERA CASANOVA","02 RUE DANIEL CASANOVA - 75002 PARIS",48.8676230780568,2.33326859310154,1.53507582132877
"48",2021,"02021 - CLERY","4 RUE DE CLERY - 75002 PARIS",48.8674674414641,2.34452661511422,1.54248256285812
"49",2022,"02022 - BONNE NOUVELLE SAINT FIACRE","20 RUE SAINT FIACRE - 75002 PARIS",48.8707827795368,2.34590581139442,1.54338994697535
"50",2101,"02101 - BACHAUMONT","14 RUE BACHAUMONT - 75002 PARIS",48.8660671500868,2.34546365270257,1.54309904728251
"51",2102,"02102 - SAINT MARC","8 RUE SAINT MARC - 75002 PARIS",48.870314763995,2.34187856663061,1.54074039086262
"52",2107,"02107 - THOREL","11 RUE THOREL - 75002 PARIS",48.8700006171965,2.34899551804935,1.54542268936729
"53",2108,"02108 - VIVIENNE","42 RUE VIVIENNE - 75002 PARIS",48.8712422741664,2.34139499925739,1.54042224807151
"54",3001,"03001 - CHEMIN VERT BEAUMARCHAIS","69 BOULEVARD BEAUMARCHAIS - 75003 PARIS",48.8580440569424,2.36783265929612,1.55781579325442
"55",3002,"03002 - SAINT GILLES","26 RUE SAINT GILLES - 75003 PARIS",48.8581589567786,2.36471499209919,1.55576465540123
"56",3003,"03003 - TURENNE BRETAGNE","4 RUE DES FILLES DU CALVAIRE - 75003 PARIS",48.8621322349716,2.36495138689375,1.55592018140218
"57",3004,"03004 - REPUBLIQUE 23","19 PLACE DE LA REPUBLIQUE - 75003 PARIS",48.86707,2.36351,1.5549718815895
"58",3005,"03005 - TURBIGO SAINTE ELISABETH","7 RUE SAINTE ELISABETH - 75003 PARIS",48.8661372245834,2.35966114362647,1.55243968860655
"59",3006,"03006 - MAIRIE DU 3EME","10 RUE PERREE - 75003 PARIS",48.8645308053075,2.36157981521499,1.55370199778661
"60",3007,"03007 - ARCHIVES PASTOURELLE","67 RUE DES ARCHIVES - 75003 PARIS",48.8624012119144,2.35944703194638,1.55229882284247
"61",3008,"03008 - PERLE","22 RUE DE LA PERLE - 75003 PARIS",48.859846683207,2.36105048709202,1.5533537486371
"62",3009,"03009 - TEMPLE 113","76 RUE DU TEMPLE - 75003 PARIS",48.8615811577309,2.35660934144383,1.55043188386607
"63",3010,"03010 - BEAUBOURG","46 RUE BEAUBOURG - 75003 PARIS",48.8624649804039,2.35423678141965,1.54887095790215
"64",3011,"03011 - TURBIGO","55 RUE TURBIGO - 75003 PARIS",48.8655841910852,2.35627844763363,1.55021418621696
"65",3012,"03012 - GAITE LYRIQUE","FACE 8 RUE SALOMON DE CAUS - 75003 PARIS",48.8674979894066,2.35366081624923,1.54849202587107
"66",3013,"03013 - RUE DE SEVIGNE","36 RUE DE SEVIGNE - 75003 PARIS",48.8569541480553,2.36289742022954,1.55456886052409
"67",3014,"03014 - GRENIER SAINT LAZARE","FACE 34 RUE GRENIER SAINT LAZARE - 75003 PARIS",48.8630628327432,2.35283938071815,1.54795159695249
"68",3101,"03101 - PORTE SAINT MARTIN","62 RUE MESLAY - 75003 PARIS",48.8686364050255,2.35559159277857,1.54976229898722
"69",4001,"04001 - NOTRE DAME","10 RUE D'ARCOLE - 75004 PARIS",48.853984144413,2.34938004529103,1.54567567287424
"70",4002,"04002 - MARCHE AUX FLEURS","PLACE LOUIS LEPINE - 75004 PARIS",48.8552533608443,2.34735644764263,1.54434433201133
"71",4003,"04003 - PONT SAINT LOUIS","1 QUAI AUX FLEURS - 75004 PARIS",48.8529448879212,2.35208864944075,1.54745768492038
"72",4005,"04005 - SULLY MORLAND","2 QUAI DES CELESTINS - 75004 PARIS",48.8512714820934,2.36243021298228,1.55426148118896
"73",4006,"04006 - BASSIN DE L'ARSENAL","FACE 1 BOULEVARD BOURBON - 75004 PARIS",48.8477251256688,2.36593915312716,1.55657004060249
"74",4007,"04007 - BOURDON","BOULEVARD BOURDON - 75004 PARIS",48.8525571174352,2.3682407194182,1.5580842592291
"75",4009,"04009 - VILLAGE SAINT PAUL","6 RUE SAINT PAUL - 75004 PARIS",48.8527259721895,2.36087834343166,1.55324049396441
"76",4010,"04010 - SAINT PAUL PAVÉE","105-109 TERRE PLEIN SAINT PAUL - 75004 PARIS",48.8550239990409,2.36120353875546,1.55345444253434
"77",4011,"04011 - PLACE DU BATAILLON FRANCAIS DE L'ONU","FACE 18 RUE DE L'HOTEL DE VILLE - 75004 PARIS",48.8538141453159,2.35709265436395,1.55074985925048
"78",4012,"04012 - ECOUFFES RIVOLI","2 RUE TIRON - 75004 PARIS",48.8557966374038,2.35790788213517,1.55128620403486
"79",4013,"04013 - FRANCS BOURGEOIS","50 RUE VIEILLE DU TEMPLE - 75004 PARIS",48.8585107129922,2.35863357911747,1.55176364580664
"80",4014,"04014 - ARCHIVES BLANCS MANTEAUX","29 RUE DES BLANCS MANTEAUX - 75004 PARIS",48.8594027196436,2.35592748653501,1.54998328614042
"81",4015,"04015 - MAIRIE DU 4 EME","25 RUE DU PONT LOUIS PHILIPPE - 75004 PARIS",48.8559658562102,2.35638115487306,1.55028175812033
"82",4016,"04016 - LOBAU","3 RUE LOBAU - 75004 PARIS",48.8562467217007,2.35328134461219,1.54824236848631
"83",4017,"04017 - PLACE DE L'HOTEL DE VILLE","11 PLACE DE L'HOTEL DE VILLE - 75004 PARIS",48.857232,2.351621,1.54715001466267
"84",4018,"04018 - RIVOLI SEBASTOPOL","1 RUE SAINT BON - 75004 PARIS",48.8579996433149,2.35021728097635,1.546226496839
"85",4019,"04019 - BEAUBOURG SAINT MERRY","4 RUE DU CLOITRE SAINT MERRI - 75004 PARIS",48.8588289881925,2.35189147061665,1.54732795941589
"86",4020,"04020 - BEAUBOURG PLACE MICHELET","FACE 27 RUE QUINCAMPOIX - 75004 PARIS",48.8600883261048,2.3501483359202,1.54618113734245
"87",4021,"04021 - BEAUBOURG RAMBUTEAU","49 RUE RAMBUTEAU - 75004 PARIS",48.8614190722232,2.35258144286207,1.54778189760135
"88",4101,"04101 - BASTILLE","11 RUE DE LA BASTILLE - 75004 PARIS",48.8537973449702,2.3684008069604,1.55818958208651
"89",4103,"04103 - HOTEL DE VILLE","1 RUE DES ARCHIVES - 75004 PARIS",48.8572037876971,2.35397627361878,1.54869956776406
"90",4104,"04104 - SEBASTOPOL RAMBUTEAU","FACE 40 BOULEVARD SEBASTOPOL - 75004 PARIS",48.8618831022142,2.35022097609622,1.54622892788752
"91",4105,"04105 - MORLAND","17 BOULEVARD DU MORLAND - 75004 PARIS",48.8499600352775,2.36323986872132,1.5547941600894
"92",4107,"04107 - BEAUMARCHAIS","27 BOULEVARD BEAUMARCHAIS - 75004 PARIS",48.8555013577017,2.36842906992905,1.55820817651663
"93",5001,"05001 - SAINT GERMAIN HARPE","32 RUE DE LA HARPE - 75005 PARIS",48.8515813400282,2.34370453672277,1.54194171099663
"94",5002,"05002 - SAINT JACQUES","20 RUE SOMMERARD - 75005 PARIS",48.8503104329245,2.34501583529859,1.5428044246783
"95",5003,"05003 - GAY LUSSAC LE GOFF","9 RUE LE GOFF - 75005 PARIS",48.8462392817034,2.34132491601157,1.540376139751
"96",5004,"05004 - SAINT JACQUES VAL DE GRACE","272 RUE SAINT JACQUES - 75005 PARIS",48.8418659565261,2.34120202666239,1.54029528987834
"97",5005,"05005 - SAINT JACQUES GAY LUSSAC","27 RUE GAY LUSSAC - 75005 PARIS",48.8447302561321,2.34192394486641,1.54077024556207
"98",5006,"05006 - SAINT JACQUES SOUFFLOT","174 RUE SAINT JACQUES - 75005 PARIS",48.8465169205868,2.34312380336734,1.541559641939
"99",5007,"05007 - ECOLES CARMES","39 RUE DES ECOLES - 75005 PARIS",48.8489190079083,2.34720132952048,1.54424227857459
"100",5008,"05008 - ST GERMAIN-DANTE","9 RUE DE DANTE - 75005 PARIS",48.8509772297936,2.34607682591354,1.54350245877711
"101",5009,"05009 - SQUARE VIVIANI","6 RUE DU FOUARRE - 75005 PARIS",48.8516511793671,2.34746333451965,1.54441465373126
"102",5010,"05010 - SAINT MICHEL HENRI BARBUSSE","1 RUE HENRI BARBUSSE - 75005 PARIS",48.8437569813016,2.33930672198142,1.53904835397117
"103",5012,"05012 - ULM - LHOMOND","20 RUE DE L'ESTRAPADE - 75005 PARIS",48.8451434940088,2.34541268121351,1.54306551273759
"104",5013,"05013 - ULM ERASME","13 RUE ERASME - 75005 PARIS",48.8425479496716,2.3445966499316,1.54252863931719
"105",5014,"05014 - CALVIN","8 RUE JEAN CALVIN - 75005 PARIS",48.8416327086177,2.348552018117,1.54513090726174
"106",5015,"05015 - MOUFFETARD EPEE DE BOIS","12 RUE DE L'EPEE DE BOIS - 75005 PARIS",48.8415076373901,2.34998304702979,1.54607239247701
"107",5016,"05016 - CONTRESCARPE-THOUIN","1 RUE THOUIN - 75005 PARIS",48.845062256378,2.34949778985778,1.54575313795394
"108",5017,"05017 - DESCARTES","17 RUE DESCARTES - 75005 PARIS",48.8466018657812,2.34901473289268,1.54543533096436
"109",5018,"05018 - MUTUALITE","20 RUE MONGE - 75005 PARIS",48.8483857647167,2.35016993902064,1.54619535019272
"110",5019,"05019 - POISSY","8-10 RUE DE POISSY - 75005 PARIS",48.8496904113704,2.35297018360202,1.54803765320207
"111",5020,"05020 - PONT DE SULLY RIVE GAUCHE","03 RUE DES FOSSES SAINT BERNARD - 75005 PARIS",48.8491596891678,2.35614032747538,1.55012331587481
"112",5021,"05021 - JUSSIEU","41 RUE JUSSIEU - 75005 PARIS",48.8471846411502,2.35339837968935,1.5483193667872
"113",5022,"05022 - CARDINAL LEMOINE","40 RUE BOU LANGERS - 75005 PARIS",48.8462950317216,2.35222292160749,1.54754602363855
"114",5023,"05023 - PLACE JUSSIEU","13 RUE JUSSIEU - 75005 PARIS",48.8456168785096,2.35574549999879,1.54986355576203
"115",5024,"05024 - PLACE MONGE","4 RUE DOLOMIEU - 75005 PARIS",48.8427350429896,2.35247243722336,1.54771018193138
"116",5026,"05026 - MOUFFETARD SAINT MEDARD","3 RUE PASCAL - 75005 PARIS",48.8389938245432,2.34993205295774,1.54603884307456
"117",5027,"05027 - GOBELINS","22 AVENUE DES GOBELINS - 75005 PARIS",48.8371260386106,2.35143332976764,1.54702654493572
"118",5028,"05028 - CENSIER BUFFON","6 RUE CENSIER - 75005 PARIS",48.8410800220159,2.35543071424475,1.54965645573018
"119",5029,"05029 - PORT ROYAL","FACE 41 AVENUE GEORGES BERNANOS - 75005 PARIS",48.8401089566606,2.33729688973794,1.53772606947679
"120",5030,"05030 - SORBONNE","5 RUE DE LA SORBONNE - 75005 PARIS",48.8497703706033,2.34357357573301,1.54185555072793
"121",5031,"05031 - LACEPEDE","2 RUE LACEPEDE - 75005 PARIS",48.8436748454376,2.35461598268321,1.54912043740606
"122",5032,"05032 - PANTHEON CARMES","2 RUE VALETTE - 75005 PARIS",48.8469867528133,2.34649965376297,1.54378064055617
"123",5033,"05033 - SAINT SEVERIN","42 RUE SAINT SEVERIN - 75005 PARIS",48.8527056477051,2.34413776324567,1.54222673414503
"124",5034,"05034 - CENSIER","21 RUE CENSIER - 75005 PARIS",48.8405086637125,2.35371355203341,1.54852672115967
"125",5035,"05035 - BUFFON AUSTERLITZ","1 RUE BUFFON - 75005 PARIS",48.8431581782293,2.36374844464159,1.55512875620098
"126",5104,"05104 - BUFFON","47 RUE BUFFON - 75005 PARIS",48.841916179826,2.35891268131767,1.5519472693468
"127",5105,"05105 - GEOFFROY SAINT HILAIRE","8 RUE GEOFFROY SAINT HILAIRE - 75005 PARIS",48.8390782642497,2.35687734066973,1.55060820267181
"128",5106,"05106 - CUJAS","22 RUE CUJAS - 75005 PARIS",48.8481913485843,2.34183165485398,1.54070952723455
"129",5107,"05107 - PONTOISE","1 RUE DE PONTOISE - 75005 PARIS",48.8504580091884,2.35245427549219,1.54769823318511
"130",5110,"05110 - LACEPEDE","27 RUE LACEPEDE - 75005 PARIS",48.8438603532488,2.35190222528039,1.54733503499404
"131",6001,"06001 - INSTITUT","5 QUAI MALAQAIS - 75006 PARIS",48.8576156785647,2.33583135303774,1.53676188131585
"132",6002,"06002 - SAINT PÈRES","1 RUE SAINT BENOIT - 75006 PARIS",48.8554999843907,2.33344522003119,1.53519202557972
"133",6003,"06003 - SAINT SULPICE","15 RUE DU VIEUX COLOMBIER - 75006 PARIS",48.8516478481427,2.33081707438869,1.53346294782045
"134",6004,"06004 - REGARD","19 RUE DU REGARD - 75006 PARIS",48.8475178294419,2.32697330558684,1.53093410199106
"135",6005,"06005 - MONTPARNASSE","40 RUE DU MONTPARNASSE - 75006 PARIS",48.8432954570368,2.32654113412794,1.5306497729776
"136",6006,"06006 - NOTRE DAME DES CHAMPS","41 RUE NOTRE DAME DES CHAMPS - 75006 PARIS",48.8447992885877,2.32933775588718,1.53248969250367
"137",6007,"06007 - VAVIN","18 RUE BREA - 75006 PARIS",48.8427384782578,2.3297942217634,1.53279000500601
"138",6008,"06008 - ASSAS LUXEMBOURG","90 RUE D'ASSAS - 75006 PARIS",48.8437344687794,2.33342838187589,1.53518094762446
"139",6009,"06009 - GUYNEMER LUXEMBOURG","26 RUE GUYNEMER - 75006 PARIS",48.8467209825734,2.33239459292958,1.53450080971812
"140",6010,"06010 - MONTPARNASSE CHEVREUSE","5 RUE DE CHEVREUSE - 75006 PARIS",48.8417391612309,2.33155221673674,1.5339466037729
"141",6012,"06012 - SAINT GERMAIN COPEAU","141 BD SAINT GERMAIN - 75006 PARIS",48.8533052775947,2.3344654618827,1.53586325074547
"142",6013,"06013 - JACQUES CALLOT","1 RUE JACQUES CALLOT - 75006 PARIS",48.8552546877505,2.33753933406029,1.53788557550981
"143",6014,"06014 - PONT DE LODI DAUPHINE","7 RUE DU PONT DE LODI - 75006 PARIS",48.8552968986033,2.33994730756525,1.53946980028221
"144",6015,"06015 - MAZET SAINT ANDRE DES ARTS","10 RUE ANDRE MAZET - 75006 PARIS",48.8537510734679,2.33911372289969,1.53892137835217
"145",6016,"06016 - DANTON","11 RUE DANTON - 75006 PARIS",48.8523930093114,2.34144252246847,1.54045351396713
"146",6017,"06017 - SENAT CONDE","34 RUE CONDE - 75006 PARIS",48.8495800021863,2.33784843717954,1.53808893689137
"147",6018,"06018 - MICHELET ASSAS","13 RUE MICHELET - 75006 PARIS",48.842540966044,2.3350678855655,1.53625959004066
"148",6020,"06020 - SAINT MICHEL DANTON","2 RUE DANTON - 75006 PARIS",48.8529304105913,2.34265739289121,1.54125278680589
"149",6021,"06021 - BONAPARTE BEAUX ARTS","17 RUE DES BEAUX ARTS - 75006 PARIS",48.8564374096868,2.33479762294837,1.53608178213196
"150",6022,"06022 - MARCHE SAINT GERMAIN - MABILLON","17 RUE LOBINEAU - 75006 PARIS",48.8516596929124,2.33550466500983,1.5365469506841
"151",6024,"06024 - SAINT GERMAIN DES PRES","55 RUE DES SAINTS PERES - 75006 PARIS",48.8539423091614,2.33015352476927,1.53302639328916
"152",6025,"06025 - RENNES - ASSAS","16 RUE D'ASSAS - 75006 PARIS",48.8492084999386,2.32851454623001,1.53194809637352
"153",6026,"06026 - SAINT PLACIDE CHERCHE MIDI","28 RUE SAINT PLACIDE - 75006 PARIS",48.8491399032183,2.32517538941275,1.52975123875115
"154",6027,"06027 - VAUGIRARD DESGOFFE","2 RUE BLAISE DESGOFFE - 75006 PARIS",48.8461298915485,2.32424057814409,1.52913621904006
"155",6028,"06028 - ODEON QUATRE VENTS","6 RUE DES QUATRE VENTS - 75006 PARIS",48.8517513744589,2.33816169513405,1.53829503177185
"156",6029,"06029 - VAUGIRARD PRINCE","FACE 1 RUE DE VAUGIRARD - 75006 PARIS",48.8489229581858,2.34104050870596,1.54018902594012
"157",6030,"06030 - ASSAS-VAUGIRARD","22 RUE D'ASSAS - 75006 PARIS",48.8484688639545,2.32899674681117,1.53226533994135
"158",6031,"06031 - SAINT MICHEL SARRAZIN","5 RUE PIERRE SARAZIN - 75006 PARIS",48.8508336544035,2.34219822806774,1.54095069864484
"159",6032,"06032 - RENNES SABOT","7 RUE DU SABOT - 75006 PARIS",48.8525574216674,2.33164772290665,1.53400943803581
"160",6103,"06103 - MEZIERES RENNES","16 RUE DE MEZIERES - 75006 PARIS",48.8502970102176,2.33044682027725,1.53321935471852
"161",6104,"06104 - HERSCHEL","7 RUE HERSCHEL - 75006 PARIS",48.8433642427731,2.33780343096904,1.5380593269503
"162",6107,"06107 - CHERCHE MIDI","29 RUE DU CHERCHE MIDI - 75006 PARIS",48.8502410871957,2.32755154921057,1.53131453303456
"163",6108,"06108 - SAINT ROMAIN CHERCHE MIDI","20 RUE SAINT ROMAIN - 75006 PARIS",48.8470300806263,2.32128942100679,1.52719462946919
"164",7001,"07001 - DUROC","63 BOULEVARD DES INVALIDES - 75007 PARIS",48.8477698568288,2.31618388672946,1.52383565817576
"165",7002,"07002 - VANEAU","86 RUE VANEAU - 75007 PARIS",48.8485776075611,2.32041739312382,1.52662091544302
"166",7003,"07003 - BON MARCHE","RUE VELPEAU - 75007 PARIS",48.8512303802885,2.32507003873862,1.52968192771122
"167",7004,"07004 - RASPAIL VARENNE","FACE 28 BOULEVARD RASPAIL - 75007 PARIS",48.8532616686117,2.32631980638438,1.53050415970841
"168",7005,"07005 - BAC","FACE 2 BOULEVARD RASPAIL - 75007 PARIS",48.855461735956,2.32568193588915,1.53008449967559
"169",7006,"07006 - QUAI VOLTAIRE","QUAI VOLTAIRE - 75007 PARIS",48.858942986179,2.33141820471457,1.53385843620591
"170",7007,"07007 - MUSÉE D'ORSAY","62 RUE DE LILLE - 75007 PARIS",48.859710104435,2.32580902462503,1.53016811235789
"171",7008,"07008 - SOLFERINO","10 RUE DE VILLERSEXEL - 75007 PARIS",48.8583186469038,2.32383843778942,1.52887164772707
"172",7009,"07009 - ASSEMBLEE NATIONALE","FACE 119 RUE DE LILLE - 75007 PARIS",48.8613738909426,2.32013127690393,1.52643267732395
"173",7010,"07010 - INVALIDES","FACE 3 RUE DE CONSTANTINE - 75007 PARIS",48.8607699579973,2.31483827949527,1.52295037255698
"174",7011,"07011 - ST DOMINIQUE","30 BIS RUE LAS CASES - 75007 PARIS",48.859068394963,2.318624221125,1.52544117343346
"175",7012,"07012 - CITE VANEAU","7 CITE VANEAU - 75007 PARIS",48.854268334051,2.31945401006142,1.52598709812334
"176",7013,"07013 - PLACE DE BRETEUIL","17 RUE DUROC - 75007 PARIS",48.8475022584009,2.31268832866208,1.52153590293662
"177",7014,"07014 - SAINT FRANCOIS XAVIER","35 BOULEVARD DES INVALIDES - 75007 PARIS",48.8516782290479,2.31463384062783,1.52281587061268
"178",7015,"07015 - VARENNE","9 BOULEVARD DES INVALIDES - 75007 PARIS",48.8572901184631,2.31530968318177,1.5232605127626
"179",7016,"07016 - TOUR MAUBOURG UNIVERSITE","13 RUE SURCOUF - 75007 PARIS",48.8612730162781,2.30945355091418,1.51940771712773
"180",7017,"07017 - LA TOUR MAUBOURG","1 AVENUE DE LA MOTTE PICQUET - 75007 PARIS",48.8572764982962,2.31025792753499,1.51993692285463
"181",7018,"07018 - SEGUR ESTREES","23 AVENUE DE SEGUR - 75007 PARIS",48.851294334589,2.30974761560334,1.51960118460746
"182",7019,"07019 - ECOLE MILITAIRE","85 AVENUE BOSQUET - 75007 PARIS",48.8549511680067,2.30547863419572,1.516792588049
"183",7020,"07020 - CLER","FACE 3 RUE DU CHAMP DE MARS - 75007 PARIS",48.8566411001182,2.30659853411182,1.51752937904195
"184",7021,"07021 - BOSQUET SAINT DOMINIQUE","37 AVENUE BOSQUET - 75007 PARIS",48.8586517095264,2.30371658023458,1.51563331884201
"185",7022,"07022 - PONT DE L'ALMA","3 AVENUE BOSQUET - 75007 PARIS",48.8616404995762,2.30225034417595,1.51466867056765
"186",7023,"07023 - BOURDONNAIS TOUR EIFFEL","QUAI BRANLY - 75007 PARIS",48.860897797941,2.29559959844703,1.51029309246556
"187",7024,"07024 - AVENUE RAPP","43 AVENUE RAPP - 75007 PARIS",48.8581690434843,2.30052833004389,1.5135357438802
"188",7025,"07025 - SUFFREN TOUR EIFFEL","2 AVENUE OCTAVE CREARD - 75007 PARIS",48.8565029776956,2.29317875432888,1.50870040001516
"189",7026,"07026 - PLACE DE FINLANDE","39 QUAI D'ORSAY - 75007 PARIS",48.86269,2.31138,1.52067514318464
"190",7101,"07101 - SEVRES BABYLONE","BOULEVARD RASPAIL - 75007 PARIS",48.8522416177073,2.32660601947681,1.53069246156069
"191",7102,"07102 - SAINTE CLOTHILDE","FACE 19 RUE CASIMIR PERIER - 75007 PARIS",48.8578291107092,2.31914905257935,1.5257864641892
"192",7103,"07103 - BELGRADE","2 RUE DE BELGRADE - 75007 PARIS",48.8560593100747,2.30223912888456,1.51466129193893
"193",8001,"08001 - PETIT PALAIS","AV. DUTUIT - 75008 PARIS",48.8668438032522,2.31577971341003,1.5235697493592
"194",8002,"08002 - GARE SAINT LAZARE - COUR DU HAVRE","Cour du Havre - Face au 2, rue d'Amsterdam - 75008 PARIS",48.87572,2.32668,1.53074113393074
"195",8003,"08003 - GALILLE","63 RUE GALILEE - 75008 PARIS",48.8717051913931,2.29852826567981,1.51221988575075
"196",8004,"08004 - MALESHERBES PASQUIER","FACE 4 BD MALESHERBES - 75008 PARIS",48.8704218834336,2.32328899479171,1.52851016484273
"197",8005,"08005 - MADELEINE","04 PLACE DE LA MADELEINE - 75008 PARIS",48.8690900883376,2.32442963049651,1.5292605980747
"198",8007,"08007 - HAUSSMANN ROME","1 RUE DE ROME - 75008 PARIS",48.8742300555803,2.32557011172411,1.53001092967491
"199",8008,"08008 - ROME SAINT LAZARE","1 RUE JOSEPH SANSBOEUF - 75008 PARIS",48.8753531744647,2.3228843657519,1.52824395620414
"200",8009,"08009 - SAINT LAZARE RER","1 RUE DE L'ISLY - 75008 PARIS",48.8748080249657,2.32648148621828,1.53061053014709
"201",8010,"08010 - LIEGE","22 RUE DE LIEGE - 75008 PARIS",48.8795811656381,2.32642735247481,1.53057491513005
"202",8011,"08011 - DUBLIN","1 RUE CLAPEYRON - 75008 PARIS",48.8809353567738,2.32451663514648,1.52931783912055
"203",8012,"08012 - CLICHY","10 BOULEVARD DES BATIGNOLLES SUR TPC - 75008 PARIS",48.8833180443546,2.32620717538549,1.53043005888537
"204",8013,"08013 - MARIGNAN","24 RUE DE MARIGNAN - 75008 PARIS",48.8696161948985,2.30662083490235,1.51754405090803
"205",8015,"08015 - ROQUEPINE","4 RUE ROQUEPINE - 75008 PARIS",48.8734861693498,2.32028123421063,1.52653133541948
"206",8016,"08016 - SQUARE LOUIS XVI","DEV 32 RUE PASQUIER - 75008 PARIS",48.8732044010289,2.32365883074314,1.52875348283388
"207",8017,"08017 - ROCHER","14 RUE ROCHER - 75008 PARIS",48.876079329226,2.32273156204932,1.52814342544231
"208",8018,"08018 - SAINT AUGUSTIN","18 PLACE HENRI BERGSON - 75008 PARIS",48.876201162155,2.31979392397255,1.52621073016804
"209",8019,"08019 - EUROPE","03 RUE DE NAPLES - 75008 PARIS",48.8799571638376,2.32135967628095,1.5272408509685
"210",8020,"08020 - METRO ROME","74 BOULEVARD DES BATIGNOLLES - 75008 PARIS",48.8821489456319,2.31986005477421,1.52625423814436
"211",8025,"08025 - MIROMESNIL","39 RUE DE MIROMESNIL - 75008 PARIS",48.8737604721401,2.31587630834637,1.52363329993014
"212",8026,"08026 - MESSINE","2 AVENUE MESSINE - 75008 PARIS",48.8754572002448,2.31546549458492,1.52336302231438
"213",8027,"08027 - MAIRIE DU 8 ÈME","28 RUE DE MADRID - 75008 PARIS",48.8779840275035,2.31840486278285,1.52529685584901
"214",8028,"08028 - HOUSSAYE","1 RUE ARSENE HOUSSAYE - 75008 PARIS",48.8734340813977,2.29770677798004,1.51167942250998
"215",8029,"08029 - PLACE DU CANADA","1 AVENUE FRANKLIN ROOSEVELT - 75008 PARIS",48.8653462693627,2.31019378796476,1.51989472492519
"216",8030,"08030 - MONTAIGNE","25 RUE BAYARD - 75008 PARIS",48.8672932362145,2.30769160565034,1.51824851943355
"217",8031,"08031 - ROND POINT DES CHAMPS ELYSEES","2 RUE JEAN MERMOZ - 75008 PARIS",48.8697088479524,2.31071465537424,1.52023740770451
"218",8032,"08032 - MATIGNON","27 AVENUE MATIGNON - 75008 PARIS",48.871476421301,2.31388541994929,1.52232347874181
"219",8033,"08033 - SAINT PHILIPPE DU ROULE","1 RUE DU CDT RIVIERE - 75008 PARIS",48.8727876808465,2.30972258893223,1.51958471936303
"220",8034,"08034 - HAUSSMANN COURCELLES","49 RUE DE BERRI - 75008 PARIS",48.8748103900282,2.30831406418914,1.51865803981861
"221",8035,"08035 - NARVICK","54 RUE DE LA BIENFAISANCE - 75008 PARIS",48.8765999408354,2.31316505435543,1.52184954453255
"222",8036,"08036 - RIO","39 RUE DE LISBONNE - 75008 PARIS",48.8774556768138,2.30969422141951,1.51956605615253
"223",8037,"08037 - MALSHERBES MONCEAU","75 RUE DE MONCEAU - 75008 PARIS",48.8796064571805,2.31455352418705,1.52276302979244
"224",8038,"08038 - FRANCOIS 1 ER","22 RUE FRANCOIS 1ER - 75008 PARIS",48.8668876499781,2.30667557572067,1.51758006532441
"225",8039,"08039 - COLISEE","6 RUE DU COLISEE - 75008 PARIS",48.8704819385523,2.30766254015219,1.51822939701293
"226",8040,"08040 - CHAMPS ELYSEES CHARRON","65 RUE PIERRE CHARRON - 75008 PARIS",48.8700703391143,2.30431544671583,1.51602731782622
"227",8041,"08041 - CHAMPS ELYSEES LINCOLN","16 RUE DE LINCOLN - 75008 PARIS",48.8706901579086,2.30322242397478,1.51530820953886
"228",8044,"08044 - VAN DYCK","2 RUE ALFRED DE VIGNY - 75008 PARIS",48.8783613836142,2.30525444822057,1.5166450943267
"229",8045,"08045 - ALMA","FACE 3 AVENUE MONTAIGNE - 75008 PARIS",48.8649209825384,2.30254918238593,1.51486527858439
"230",8046,"08046 - ALMA MARCEAU","2 Avenue MARCEAU - 75008 PARIS",48.8651944052956,2.30024954515728,1.51335232910316
"231",8047,"08047 - GEORGE V","28 AVENUE GEORGE V - 75008 PARIS",48.8681659405583,2.30127460931682,1.51402672690342
"232",8048,"08048 - MARCEAU","45 AVENUE MARCEAU - 75008 PARIS",48.8688517082349,2.29851404880358,1.51221053235569
"233",8049,"08049 - DUNANT","42 AVENUE GEORGE V - 75008 PARIS",48.8704378053506,2.30083026142352,1.51373438691767
"234",8050,"08050 - BOETIE PONTHIEU","116 RUE DE LA BOETIE - 75008 PARIS",48.8715127415192,2.30748756441945,1.51811427909748
"235",8051,"08051 - CHAPTAL","45 BD BATIGNOLLES - 75008 PARIS",48.881914,2.320284,1.52653315505414
"236",8052,"08052 - WASHINGTON","2 RUE BALZAC - 75008 PARIS",48.8728829909744,2.29997293264267,1.51317034354679
"237",8053,"08053 - FRIEDLAND","PLACE GEORGES GUILLAUMIN - 75008 PARIS",48.8747502039566,2.30177143532599,1.51435359265576
"238",8054,"08054 - HOCHE ALBRECHT","10 AVENUE BERTHIER ALBRECHT - 75008 PARIS",48.8761403982639,2.3013031383076,1.5140454963516
"239",8055,"08055 - TERNES COURCELLES","87 BD COURCELLES - 75008 PARIS",48.8781888764185,2.29929600386146,1.51272498675938
"240",8056,"08056 - WAGRAM","21 RUE BEAUJON - 75008 PARIS",48.875377647487,2.29655534247627,1.51092188400503
"241",8057,"08057 - HOCHE","62 AVENUE HOCHE - 75008 PARIS",48.8749447581072,2.29743857720451,1.51150297110314
"242",8101,"08101 - LONDRES AMSTERDAM","42 RUE DE LONDRES - 75008 PARIS",48.878034461504,2.32648354096942,1.53061188198409
"243",8102,"08102 - LAMENAIS WASHINGTON","1 RUE LAMENNAIS - 75008 PARIS",48.8735553344888,2.30328866612515,1.51535179077236
"244",8103,"08103 - D'ARTOIS BERRY","31 RUE D'ARTOIS - 75008 PARIS",48.8737943183796,2.30629955027108,1.51733267521357
"245",8104,"08104 - FRIEDLAND CHATEAUBRIAND","27/31 RUE DE CHATEAUBRIAND - 75008 PARIS",48.8740144756374,2.29991625786582,1.51313305676383
"246",8105,"08105 - FRANCOIS 1ER LINCOLN","56 RUE FRANCOIS 1ER - 75008 PARIS",48.8695179793442,2.30242621884156,1.51478437989814
"247",8110,"08110 - STOCKOLM ROME","6 RUE DE STOCKOLM - 75008 PARIS",48.8771119187665,2.32232932086804,1.52787878779469
"248",8113,"08113 - PLACE ST AUGUSTIN","5 PLACE SAINT AUGUSTIN - 75008 PARIS",48.874923109802,2.31939514437732,1.52594836992521
"249",8115,"08115 - BASSANO","10 RUE VERNET - 75008 PARIS",48.8713453271035,2.3001865722682,1.51331089874245
"250",8549,"08549 - PLACE DUNANT","39 AVENUE GEORGE V - 75008 PARIS",48.8704091350747,2.30112319174409,1.51392710808735
"251",9001,"09001 - POISSONNIERE","5 RUE DE BELLEFOND - 75009 PARIS",48.8775014652985,2.34856937338595,1.54514232543015
"252",9002,"09002 - MAUBEUGE CONDORCET","19 RUE D'ABBEVILLE - 75009 PARIS",48.8792233706285,2.34914749353609,1.5455226752394
"253",9003,"09003 - PLACE BARBÈS","PLACE BARBES - 75009 PARIS",48.8836531972476,2.34904085503439,1.54545251692755
"254",9004,"09004 - ROCHECHOUART GERANDO","19 RUE GUERANDO - 75009 PARIS",48.8829110895394,2.34631937162712,1.54366203151622
"255",9005,"09005 - SQUARE D'ANVERS","95 RUE DE DUNKERQUE - 75009 PARIS",48.8826334843108,2.34488440621221,1.54271795644514
"256",9006,"09006 - TRUDAINE ROCHECHOUART","81 RUE DUNKERQUE - 75009 PARIS",48.8821076343589,2.34626199853888,1.54362428530869
"257",9007,"09007 - CONDORCET","34 RUE CONDORCET - 75009 PARIS",48.8798312251102,2.34539633898637,1.54305476105739
"258",9008,"09008 - TOUR D'AUVERGNE","24 RUE D'AUVERGNE - 75009 PARIS",48.8791617777755,2.34369843072095,1.54193769380984
"259",9009,"09009 - SQUARE MONTHOLON","26 RUE MONTHOLON - 75009 PARIS",48.8766011713626,2.34578551680324,1.54331080421446
"260",9010,"09010 - CADET","1/3 RUE DE ROCHECHOUART - 75009 PARIS",48.876719895109,2.34439302185395,1.54239467079789
"261",9011,"09011 - FOLIES BERGERES","14 RUE GEOFFROY MARIE - 75009 PARIS",48.8737819405933,2.34451387633789,1.54247418191665
"262",9012,"09012 - ROUGEMONT","3-5 RUE ROUGEMONT - 75009 PARIS",48.8715422136421,2.34583645559793,1.54334431724949
"263",9013,"09013 - MAIRIE DU 9EME","20 RUE DE LA GRANGE BATELIERE - 75009 PARIS",48.8732671375829,2.34075344805276,1.54000016647092
"264",9014,"09014 - FAUBOURG MONTMARTRE","55 RUE DU FAUBOURG MONTMARTRE - 75009 PARIS",48.8753297231533,2.34077266233144,1.54001280769651
"265",9015,"09015 - LAMARTINE","43 RUE LAMARTINE - 75009 PARIS",48.8766221203731,2.33979989931612,1.53937281923178
"266",9016,"09016 - MARTYRS CHORON","24 RUE DE CHORON - 75009 PARIS",48.8777706953468,2.33978496750702,1.53936299547673
"267",9017,"09017 - TRUDAINE MARTYRS","01 RUE LALLIER - 75009 PARIS",48.8810321490163,2.34077441211784,1.54001395889479
"268",9018,"09018 - PLACE PIGALLE","05 RUE DUPERRE - 75009 PARIS",48.8820702270344,2.33667963144424,1.53731997037402
"269",9019,"09019 - VICTOR MASSE","38 RUE VICTOR MASSE - 75009 PARIS",48.881149033953,2.33668100429512,1.53732087358345
"270",9020,"09020 - TOUDOUZE CLAUZEL","FACE 27 RUE CLAUZEL - 75009 PARIS",48.8795052656248,2.33719063927171,1.53765616645654
"271",9021,"09021 - SAINT GEORGES","56 RUE SAINT GEORGES - 75009 PARIS",48.877872278318,2.33744680420367,1.5378246993869
"272",9022,"09022 - LAFITTE ROSSINI","19 RUE ROSSINI - 75009 PARIS",48.8733462751051,2.33798086770167,1.53817606397701
"273",9023,"09023 - ITALIENS LAFFITE","1 RUE LAFFITE - 75009 PARIS",48.8718157373963,2.33720154784508,1.53766334329304
"274",9024,"09024 - LAFAYETTE TAITBOUT","27 RUE TAITBOUT - 75009 PARIS",48.8733858054295,2.33529683976619,1.53641022081617
"275",9025,"09025 - TAITBOUT CHÂTEAUDUN","77 RUE TAITBOUT - 75009 PARIS",48.876383969379,2.33535667793353,1.5364495888187
"276",9026,"09026 - BRUYERE PIGALLE","28 RUE J.B.PIGALLE - 75009 PARIS",48.8793982644772,2.33370917333728,1.53536568254289
"277",9027,"09027 - FONTAINE DOUAI","24 RUE DE DOUAI - 75009 PARIS",48.8823532598454,2.33326337274818,1.5350723868171
"278",9028,"09028 - MONCEY BLANCHE","4 RUE MONCEY - 75009 PARIS",48.8801539858598,2.33107516002003,1.53363274439409
"279",9029,"09029 - TRINITE","62 RUE SAINT LAZARE - 75009 PARIS",48.8768593272933,2.33276238001163,1.53474277974194
"280",9030,"09030 - VICTOIR CHAUSSEE D ANTIN","79 RUE DE LA VICTOIRE - 75009 PARIS",48.8751858641775,2.33203631336864,1.53426509476747
"281",9031,"09031 - PROVENCE","69 RUE DE PROVENCE - 75009 PARIS",48.8742844754207,2.33297651156431,1.53488365858035
"282",9032,"09032 - MATHURINS","12 RUE DES MATHURINS - 75009 PARIS",48.8729712519271,2.32946561170083,1.53257380985249
"283",9033,"09033 - HAVRE CAUMARTIN","FACE 45 RUE CAUMARTIN - 75009 PARIS",48.8727950198726,2.32831574261618,1.53181730190705
"284",9034,"09034 - GODOT DE MAUROY","2 RUE GODOT DE MAUROY - 75009 PARIS",48.8699566815748,2.3265996571137,1.53068827571178
"285",9035,"09035 - PLACE DE BUDAPEST","38 RUE DE LONDRES - 75009 PARIS",48.8777532340006,2.32733929071423,1.53117488649469
"286",9036,"09036 - ATHENES CLICHY","4 RUE D'ATHENES - 75009 PARIS",48.878113787876,2.32956021945824,1.53263605304273
"287",9037,"09037 - CLICHY PARME","01 RUE DE PARME - 75009 PARIS",48.8812664242266,2.32819709345057,1.53173924168463
"288",9038,"09038 - SQUARE BERLIOZ","50 BIS RUE DOUAI - 75009 PARIS",48.883207841228,2.33084994902851,1.53348457630543
"289",9039,"09039 - CHAUSSEE D'ANTIN","22 rue de la Chaussée d'Antin - 75009 PARIS",48.87243,2.33359,1.53528727746378
"290",9101,"09101 - CADET LA FAYETTE","24-26 RUE CADET - 75009 PARIS",48.8756396718174,2.34352359155475,1.54182266574259
"291",9102,"09102 - PLACE D'ESTIENNE D'ORVES","2 RUE DE LONDRES - 75009 PARIS",48.8767324989372,2.33048422584945,1.53324396413967
"292",9104,"9104 - CAUMARTIN PROVENCE","52 RUE DE CAUMARTIN - 75009 PARIS",48.8745052459648,2.32847426086664,1.53192159231504
"293",9106,"09106 - AUBER","3 RUE BOUDREAU - 75009 PARIS",48.872190251401,2.3294234940009,1.53254610028532
"294",9108,"09108 - ROCHECHOUART MAUBEUGE","25 RUE DE ROCHECHOUART - 75009 PARIS",48.8778900149743,2.34478560298721,1.54265295302367
"295",9111,"09111 - LA FAYETTE PROVENCE","28 RUE DE LA VICTOIRE - 75009 PARIS",48.8751437349467,2.33811850514438,1.53826661673679
"296",9113,"09113 - BLEUE","5 RUE BLEUE - 75009 PARIS",48.8758218550307,2.34730323030246,1.54430931990324
"297",10001,"10001 - JOHANN STRAUSS","FACE 50 RUE RENE BOULANGER - 75010 PARIS",48.8684999417127,2.35997004960728,1.55264292028918
"298",10002,"10002 - STRASBOURG","3 BD STRASBOURG - 75010 PARIS",48.8696791244594,2.35432769737758,1.54893077222837
"299",10003,"10003 - HAUTEVILLE","1 RUE D'HAUTEVILLE - 75010 PARIS",48.8707743602404,2.34964963683273,1.54585303927712
"300",10004,"10004 - METZ","7 RUE DE METZ - 75010 PARIS",48.870893425956,2.35352156501111,1.54840041138255
"301",10005,"10005 - CONSERVATOIRE","59 RUE DES PETITES ECURIES - 75010 PARIS",48.8739721723737,2.34838875750478,1.54502349681652
"302",10006,"10006 - PETITES ECURIES","5 RUE DES PETITES ECURIES - 75010 PARIS",48.8729397678371,2.35403448428308,1.54873786501949
"303",10007,"10007 - CHATEAU D'EAU","57 RUE DU CHATEAU D'EAU - 75010 PARIS",48.8724299732571,2.35548939017387,1.54969505908702
"304",10008,"10008 - CITE RIVERIN","12 RUE CITE RIVERIN / ANGLE RUE DU CHATEAU D'EAU - 75010 PARIS",48.8707649818776,2.35872446227434,1.55182343855279
"305",10009,"10009 - HITTORFF","FACE 14 RUE HITTORFF - 75010 PARIS",48.8720836088694,2.35766368561921,1.55112554521983
"306",10010,"10010 - JACQUES BONSERGENT","FACE 8 PLACE JACQUES BONSERGENT - 75010 PARIS",48.8709999898214,2.36114143657489,1.55341358501964
"307",10011,"10011 - BOURSE DU TRAVAIL","3 RUE DU CHATEAU D'EAU - 75010 PARIS",48.8690917486947,2.36226176181459,1.55415065583634
"308",10012,"10012 - VINAIGRIERS","58 RUE DES VINAIGRIERS - 75010 PARIS",48.87326784117,2.35932361343062,1.55221762482695
"309",10013,"10013 - SAINT LOUIS","2 RUE ALIBERT - 75010 PARIS",48.8711399497046,2.36628044396993,1.55679457854138
"310",10014,"10014 - BEAUREPAIRE","14 RUE DE MARSEILLE - 75010 PARIS",48.8716626619994,2.36393331138036,1.55525038148737
"311",10015,"10015 - RECOLLETS","46 RUE LUCIE SAMPAIX - 75010 PARIS",48.8741129165068,2.36249852869626,1.55430642663633
"312",10016,"10016 - VILLEMIN","29 RUE DES RECOLLETS - 75010 PARIS",48.8750346558839,2.35980123859793,1.55253185819389
"313",10017,"10017 - GARE DE L'EST SAINT LAURENT","1 RUE DE LA FIDELITE - 75010 PARIS",48.8745750367803,2.3567967652049,1.55055519143761
"314",10018,"10018 - ALBAN SATRAGNE","110-112 RUE FAUBOURG SAINT DENIS - 75010 PARIS",48.8753849055811,2.35609401864229,1.55009284892806
"315",10019,"10019 - PARADIS","23 RUE PARADIS - 75010 PARIS",48.8750340562449,2.35218489482655,1.54752100551926
"316",10020,"10020 - CHABROL","59 RUE CHABROL - 75010 PARIS",48.8771003510981,2.35122216805235,1.54688761997677
"317",10021,"10021 - MARCHE ST QUENTIN","4 RUE DES PETITS HOTELS - 75010 PARIS",48.8773560576523,2.35451144563739,1.54905166165862
"318",10022,"10022 - CHABROL SAINT QUENTIN","FACE 124 RUE DU FAUBOURG SAINT DENIS - 75010 PARIS",48.8768669057798,2.35611908299182,1.55010933896142
"319",10023,"10023 - VERDUN","1 AVENUE DE VERDUN - 75010 PARIS",48.8761560542715,2.36091490832055,1.55326455029338
"320",10024,"10024 - BUISSON SAINT LOUIS","2 RUE DU BUISSON SAINT LOUIS - 75010 PARIS",48.8718258899262,2.37220322485639,1.5606912228286
"321",10025,"10025 - ECLUSES SAINT MARTIN","148 QUAI DE JEMMAPES - 75010 PARIS",48.8774203430896,2.36601144898322,1.55661760461674
"322",10026,"10026 - CHATEAU LANDON","2 RUE DE CHATEAU LANDON - 75010 PARIS",48.879305,2.362424,1.55425739361889
"323",10027,"10027 - DUNKERQUE","4 RUE DE DUNKERQUE - 75010 PARIS",48.8793551031739,2.35837919245454,1.55159628281351
"324",10028,"10028 - GARE DU NORD DENAN","24 RUE DE DUNKERQUE - 75010 PARIS",48.8803706209829,2.35282005703121,1.54793888374635
"325",10029,"10029 - PLACE DE ROUBAIX","39 RUE DE DUNKERQUE - 75010 PARIS",48.880726685766,2.3514643332019,1.5470469423398
"326",10031,"10031 - AQUEDUC","48 RUE LOUIS BLANC - 75010 PARIS",48.8819972099902,2.36362521455299,1.55504768215317
"327",10032,"10032 - DODU","N° 12-14 RUE CLAUDE VELLEFAUX- 75010 PARIS",48.872859139003,2.37007170698515,1.55928888039937
"328",10033,"10033 - LARIBOISIERE","15 RUE SAINT VINCENT DE PAUL - 75010 PARIS",48.8809557416478,2.35243051483852,1.54768260086355
"329",10034,"10034 - CHAPELLE LOUIS BLANC","68 RUE LOUIS BLANC - 75010 PARIS",48.8838493184415,2.36005308898532,1.55269755255133
"330",10035,"10035 - AUBERVILLIERS","1 BOULEVARD DE LA CHAPELLE - 75010 PARIS",48.8843481513331,2.3641633298742,1.55540171246975
"331",10036,"10036 - AQUEDUC","80 RUE DE L'AQUEDUC - 75010 PARIS",48.8838432656888,2.36711064403166,1.55734077371385
"332",10037,"10037 - VERSION 2 JAURES","EGLISE SAINT JOSEPH ARTISAN - 75010 PARIS",48.8812681639529,2.36811752799007,1.55800321061632
"333",10038,"10038 - COLONEL FABIEN","69 RUE DE LA GRANGE AUX BELLES - 75010 PARIS",48.8775200284906,2.3697912450764,1.55910436229623
"334",10039,"10039 - SAMBRE ET MEUSE","37 RUE SAMBRE ET MEUSE - 75010 PARIS",48.8744056662172,2.37380723799512,1.56174651573128
"335",10040,"10040 - BELLEVILLE","8 BOULEVARD DE LA VILETTE - 75010 PARIS",48.87277815649,2.37634839464598,1.56341836274644
"336",10041,"10041 - CHARTRES (18 ARR.)","FACE 39 BOULEVARD DE LA CHAPELLE - 75010 PARIS",48.8841411939677,2.35610946587772,1.55010301178616
"337",10042,"10042 - POISSONNIÈRE - ENGHIEN","52 RUE D'ENGHIEN / ANGLE RUE DU FAUBOURG POISSONIERE - 75010 PARIS",48.8724200630531,2.34839523628281,1.54502775925572
"338",10105,"10105 - BONNE NOUVELLE PROP2","2 RUE DE MAZAGRAN - 75010 PARIS",48.8702780785796,2.35128163668651,1.54692674486051
"339",10107,"10107 - MAGENTA PARE","9 RUE AMBROISE PARE - 75010 PARIS",48.8819497431612,2.35233950656268,1.54762272580064
"340",10110,"10110 - LOUIS BLANC","10 RUE LOUIS BLANC - 75010 PARIS",48.879332174655,2.36862871574876,1.55833952507701
"341",10111,"10111 - JEMMAPES","100 QUAI DE JEMMAPES - 75010 PARIS",48.8734627987082,2.36403505925044,1.55531732221408
"342",10113,"10113 - PARMENTIER LOUVEL-TESSIER","151 AVENUE PARMENTIER - 75010 PARIS",48.8713798742566,2.36989638366668,1.55917353380452
"343",10114,"10114 - HOPITAL SAINT LOUIS","12 BIS RUE DE LA GRANGE AUX BELLES - 75010 PARIS",48.8747949948413,2.36666943698496,1.55705050011587
"344",10115,"10115 - DODU","1 - 3 RUE DES ECLUSES SAINT MARTIN - 75010 PARIS",48.8761373390584,2.3680844979417,1.55798147988683
"345",10151,"10151 - GARE DU NORD 1","8-10 RUE DE DUNKERQUE - 75010 PARIS",48.8796393529952,2.35690495841521,1.55062637260452
"346",10152,"10152 - GARE DU NORD 2","3 BOULEVARD DE DENAIN - 75010 PARIS",48.8790493107602,2.35415909595825,1.54881984802401
"347",10153,"10153 - GARE DU NORD 3","7 BOULEVARD DE DENAIN - 75010 PARIS",48.8795777185263,2.35446313115058,1.54901987517646
"348",10161,"10161 - GARE DE L'EST","FACE 129 RUE DU FBG SAINT MARTIN - 75010 PARIS",48.8756701124814,2.35950993759232,1.55234020896338
"349",11001,"11001 - BASTILLE RICHARD LENOIR","2 BOULEVARD RICHARD LENOIR - 75011 PARIS",48.853848226211,2.3697014882175,1.55904531055041
"350",11002,"11002 - ROQUETTE THIERE","37 RUE DE LA ROQUETTE - 75011 PARIS",48.8551062954047,2.37342454193056,1.5614947369702
"351",11003,"11003 - ROQUETTE DALLERY","29 RUE KELLER - 75011 PARIS",48.8555128613223,2.37524034702615,1.56268936947275
"352",11004,"11004 - CHARONNE SAINT ANTOINE","3 RUE DE CHARONNE - 75011 PARIS",48.8522552900425,2.37402723561374,1.56189125390077
"353",11006,"11006 - LEDRU ROLLIN-BASFROI","169 AVENUE LEDRU ROLLIN - 75011 PARIS",48.8564337069437,2.37902058776143,1.56517641968578
"354",11007,"11007 - FAIDHERBE PALAIS DE LA FEMME","17 RUE JEAN MACE - 75011 PARIS",48.8532893189507,2.38304117720418,1.56782159721026
"355",11008,"11008 - FAIDHERBE CHALIGNY","223 RUE DU FAUBOURG SAINT ANTOINE - 75011 PARIS",48.8503797538799,2.38386933547444,1.56836644907201
"356",11009,"11009 - RUE DES BOULETS","45 RUE DES BOULETS - 75011 PARIS",48.8521930954375,2.3890216505832,1.57175619784363
"357",11010,"11010 - ST ANTOINE GONNET","1 RUE DES BOULETS - 75011 PARIS",48.8492592621152,2.3917546141943,1.57355423617166
"358",11011,"11011 - RICHARD LENOIR","FACE 86 BOULEVARD RICHARD LENOIR - 75011 PARIS",48.8618048520715,2.37265142826551,1.56098609938863
"359",11012,"11012 - MONTREUIL VOLTAIRE","93 RUE DE MONTREUIL - 75011 PARIS",48.8505070118419,2.39307555827447,1.57442329570676
"360",11013,"11013 - NATION VOLAIRE","5 PLACE DE LA NATION - 75011 PARIS",48.8492766381855,2.39493447775012,1.5756462935002
"361",11014,"11014 - NATION TRONE","FACE 21 PLACE DE LA NATION - 75011 PARIS",48.8484828166097,2.39721188193514,1.57714461568658
"362",11016,"11016 - PHILIPPE AUGUSTE","5 RUE DU PASSAGE PHILIPPE AUGUSTE - 75011 PARIS",48.8518182000139,2.39325537630921,1.57454159941092
"363",11017,"11017 - ALEXANDRE DUMAS","FACE 77 BOULEVARD DE CHARONNE - 75011 PARIS",48.8541760404149,2.39609349532184,1.57640882030749
"364",11018,"11018 - SAINT MAUR AVENUE DE LA REPUBLIQUE","87 RUE DE SAINT MAUR - 75011 PARIS",48.8642116747038,2.37825584151286,1.56467328709354
"365",11019,"11019 - CHARONNE PHILIPPE AUGUSTE","156 RUE DE CHARONNE - 75011 PARIS",48.8556031620258,2.39054639061998,1.57275933634693
"366",11020,"11020 - CHARONNE","1 RUE DE BELFORT - 75011 PARIS",48.8563171780307,2.38307245237446,1.56784217339161
"367",11021,"11021 - PHILIPPE AUGUSTE (20EME ARR.)","212 BOULEVARD CHARONNE - 75011 PARIS",48.8584450542619,2.39039812238911,1.57266178950772
"368",11022,"11022 - LEON BLUM ROQUETTE","142 RUE DE LA ROQUETTE - 75011 PARIS",48.8580019060234,2.38179770265078,1.5670035054882
"369",11023,"11023 - LEO FROT ROQUETTE","2 RUE SAINT MAUR - 75011 PARIS",48.858688774063,2.38355399457147,1.56815898380331
"370",11024,"11024 - BOULEVARD VOLTAIRE","82 RUE SEDAINE - 75011 PARIS",48.8588289084143,2.37887132712036,1.56507821993207
"371",11025,"11025 - FROMENT BREGUET","9 RUE FROMENT - 75011 PARIS",48.8570414504784,2.37289470306807,1.56114615180114
"372",11026,"11026 - CHEMIN VERT SAINT MAUR","105 RUE DU CHEMIN VERT - 75011 PARIS",48.8611944193302,2.38130190492353,1.56667731625065
"373",11027,"11027 - SAINT AMBROISE PARMENTIER","17 RUE SAINT AMBROISE - 75011 PARIS",48.8621350384716,2.37722985857134,1.56399828481936
"374",11028,"11028 - BLUETS REPUBLIQUE","FACE 20 RUE GUILLAUME BERTRAND - 75011 PARIS",48.8638251743415,2.38090637715497,1.56641709541026
"375",11029,"11029 - MENILMONTANT OBERKAMPF","137 BOULEVARD MENILMONTANT - 75011 PARIS",48.8666176586814,2.38301344041578,1.56780334895828
"376",11030,"11030 - SAINT MAUR OBERKAMPF","80 RUE OBERKAMPF - 75011 PARIS",48.865307984235,2.37601991201957,1.56320225143417
"377",11031,"11031 - PARMENTIER","1 RUE JACQUARD - 75011 PARIS",48.8645557653168,2.3730715073892,1.56126247275933
"378",11032,"11032 - METALLOS","81 BIS RUE JP TIMBAUD - 75011 PARIS",48.867937963098,2.3778855156848,1.56442964680869
"379",11033,"11033 - BREGUET SABIN","FACE 23 BD RICHARD LENOIR - 75011 PARIS",48.8568704677583,2.37055463986152,1.55960660575
"380",11034,"11034 - PARMENTIER FONTAINE AU ROI","124 AVENUE PARMENTIER - 75011 PARIS",48.8678767055174,2.37270597867147,1.56102198853122
"381",11035,"11035 - GONCOURT","140 AVENUE PARMENTIER - 75011 PARIS",48.8694696053287,2.37153681066394,1.56025278367211
"382",11036,"11036 - JULES FERRY FAUBOURG DU TEMPLE","FACE 28 RUE JULES FERRY - 75011 PARIS",48.8684101048247,2.36784149724351,1.55782160780975
"383",11037,"11037 - FAUBOURG DU TEMPLE PLACE DE LA REPUBLIQUE","2 RUE DU FAUBOURG DU TEMPLE - 75011 PARIS",48.868,2.36498,1.55593900619059
"384",11038,"11038 - TEMPLE REPUBLIQUE","44 BD DU TEMPLE - 75011 PARIS",48.8657450770948,2.36531295078023,1.55615805713652
"385",11039,"11039 - JULES FERRY REPUBLIQUE","FACE 121 BOULEVARD RICHARD LENOIR - 75011 PARIS",48.8658042766864,2.36933707496693,1.55880556019694
"386",11040,"11040 - TEMPLE JEAN PIERRE TIMBAUD","18 BD DU TEMPLE - 75011 PARIS",48.864420141732,2.36613637424997,1.55669979393564
"387",11041,"11041 - SAINT AMBROISE","2 RUE LACHARRIERE - 75011 PARIS",48.8608207061192,2.37563652586722,1.56295001865889
"388",11042,"11042 - OBERKAMPF","1 RUE DU GRAND PRIEURE - 75011 PARIS",48.8646494198968,2.36926143825526,1.55875579820742
"389",11043,"11043 - CIRQUE D HIVER","PLACE PASDELOUP - 75011 PARIS",48.8626503001403,2.36705349044991,1.55730317192137
"390",11044,"11044 - RICHARD LENOIR VOLTAIRE NORD","FACE 104 BOULEVARD RICHARD LENOIR - 75011 PARIS",48.8634319896359,2.37120861796012,1.5600368631022
"391",11045,"11045 - SAINT SEBASTIEN FROISSARD","12 BD DES FILLES DU CALVAIRE - 75011 PARIS",48.8612050519343,2.3673523287996,1.55749978003003
"392",11046,"11046 - VOLTAIRE","8 place de la république - 75011 PARIS",48.86681,2.36547,1.55626138105762
"393",11101,"11101 - SQUARE NORDLING","15 RUE CHARLES DELESCLUZE - 75011 PARIS",48.8525290003959,2.38058363232369,1.56620475903868
"394",11102,"11102 - RUE DES BOULETS ( COMPLEMENTAIRE )","3 RUE ALEXANDRE DUMAS - 75011 PARIS",48.8528886703649,2.38914764080955,1.57183908780785
"395",11103,"11103 - RICHARD LENOIR","21 RUE PELEE - 75011 PARIS",48.8600393112308,2.37098437423996,1.55988933138899
"396",11104,"11104 - CHARONNE DU BUREAU","170 RUE DE CHARONNE - 75011 PARIS",48.855943779581,2.39253252663266,1.57406603090406
"397",11105,"11105 - REPUBLIQUE PARMENTIER","82 AVENUE PARMENTIER - 75011 PARIS",48.8645416268121,2.37519519672458,1.56265966473303
"398",11107,"11107 - BIBLIOTHEQUE FAIDHERBE","11 RUE FAIDHERBE - 75011 PARIS",48.8515320053401,2.38372328828755,1.56827036347517
"399",11109,"11109 - REPUBLIQUE PIERRE LEVEE","1 RUE DE LA PIERRE LEVEE - 75011 PARIS",48.8663313479025,2.37109744847151,1.5599637238183
"400",11110,"11110 - SQUARE ROQUETTE","176 RUE DE LA ROQUETTE - 75011 PARIS",48.8592429763213,2.38659328921,1.57015855973182
"401",11111,"11111 - CHARONNE FROT","31 RUE LEON FROT - 75011 PARIS",48.8549638003352,2.38721708537201,1.57056896014974
"402",11112,"11112 - CHARONNES VALLES","22 RUE JULES VALLES - 75011 PARIS",48.8543041778117,2.38488615344003,1.5690354216362
"403",11113,"11113 - REPUBLIQUE FERRY","FACE 140 BOULEVARD RICHARD LENOIR - 75011 PARIS",48.8665160798211,2.36932253040752,1.55879599121653
"404",12001,"12001 - BASTILLE","48 BOULEVARD DE LA BASTILLE - 75012 PARIS",48.8513111874097,2.36925048358084,1.55874859104066
"405",12002,"12002 - LACUEE","17 RUE LACUEE - 75012 PARIS",48.849215862624,2.3705034238696,1.55957291034472
"406",12003,"12003 - QUAI DE LA RAPEE","FACE 98 QUAI DE LA RAPEE - 75012 PARIS",48.8458869463868,2.36689679377372,1.55720007994147
"407",12004,"12004 - TRAVERSIERE","76 RUE TRAVERSIERE - 75012 PARIS",48.8507358241288,2.37587011170625,1.56310369662583
"408",12005,"12005 - CROZATIER","74 RUE CROZATIER - 75012 PARIS",48.8504400134045,2.37890136621104,1.56509798288689
"409",12007,"12007 - GARE DE LYON CHALON","FACE 54 RUE DE CHALON - 75012 PARIS",48.8456889755676,2.37420369005149,1.56200734466793
"410",12008,"12008 - HECTOR MALOT","15 BIS RUE HECTOR MALOT - 75012 PARIS",48.8468151323297,2.3769293605928,1.56380058482778
"411",12009,"12009 - DIDEROT","FACE 124 RUE DE CHARENTON - 75012 PARIS",48.8462687898039,2.37926432509034,1.56533677639802
"412",12010,"12010 - MICHEL BIZOT","251 AVENUE DAUMESNIL - 75012 PARIS",48.8374904465071,2.40182558580223,1.58018000787163
"413",12011,"12011 - CHARENTON","160 RUE CHARENTON - 75012 PARIS",48.8448673195541,2.38257893505445,1.56751748445199
"414",12012,"12012 - REUILLY DIDEROT","71 BOULEVARD DIDEROT - 75012 PARIS",48.847296310645,2.38570767221767,1.56957590532335
"415",12013,"12013 - RUE MONTGALLET","FACE 39 RUE MONTGALLET - 75012 PARIS",48.8443126084401,2.38959522721585,1.57213355843686
"416",12014,"12014 - NATION","16 PLACE DE LA NATION SUR TPC - 75012 PARIS",48.8473018000091,2.39552056485834,1.57603188483404
"417",12015,"12015 - NATION PICPUS","FACE 67 BOULEVARD DE PICPUS - 75012 PARIS",48.8469643595031,2.39986827742879,1.57889227924586
"418",12016,"12016 - PICPUS","43 AVENUE DE SAINT MANDE - 75012 PARIS",48.8451282937943,2.40140070766687,1.57990047719328
"419",12017,"12017 - ST MANDE NETTER","82 AVENUE SAINT MANDE - 75012 PARIS",48.8446346262977,2.40509982632364,1.58233415655066
"420",12018,"12018 - SAINT MANDE - FAVRE","5 AVENUE SAINT MANDE - 75012 PARIS",48.8456092496701,2.39593262720854,1.57630298390619
"421",12019,"12019 - GARE DE REUILLY","58 RUE DE LA GARE DE REUILLY - 75012 PARIS",48.8425771005154,2.39724999059738,1.57716968767622
"422",12020,"12020 - COURS DE VINCENNES - BD SOULT","FACE 118 COURS DE VINCENNES - 75012 PARIS",48.8469890699831,2.41014549656392,1.58565374282167
"423",12021,"12021 - COURTELINE","1 - 3  et 5 avenue Courteline (angle boulevard Soult) - 75012 PARIS",48.844373193657,2.41097245166824,1.58619780311105
"424",12022,"12022 - BIZOT","FACE 29 RUE DU SAHEL - 75012 PARIS",48.8408998138283,2.40438010296342,1.58186064487198
"425",12023,"12023 - SAHEL","15 AVENUE EMILE LAURENT - 75012 PARIS",48.8407622775984,2.41052344083499,1.58590239534031
"426",12024,"12024 - GARE DE BERCY","GARE DE BERCY - ANGLE RUE CORBINEAU - 75012 PARIS",48.83976,2.38241,1.56740634074644
"427",12026,"12026 - PARC DE BERCY","61 RUE DE BERCY - 75012 PARIS",48.8377214589821,2.38221733705041,1.56727958627143
"428",12027,"12027 - MONTGALLET CHARENTON","2 RUE MONTGALLET - 75012 PARIS",48.8426477787005,2.38616492781374,1.56987673738863
"429",12028,"12028 - VIVALDI","42 ALLEE VIVALDI - 75012 PARIS",48.8419236632765,2.38972897946738,1.5722215550987
"430",12029,"12029 - DUGOMMIER","FACE 4 BOULEVARD DE REUILLY - 75012 PARIS",48.8388490233951,2.38972450812019,1.5722186133641
"431",12030,"12030 - WATTIGNIES","245 RUE DE CHARENTON - 75012 PARIS",48.8366757964063,2.39179585555563,1.57358136918875
"432",12031,"12031 - LAME","49 RUE GABRIEL LAME - 75012 PARIS",48.8351380506895,2.38547848656484,1.56942512227365
"433",12032,"12032 - PORTE DOREE","1 PLACE EDOUARD RENARD - 75012 PARIS",48.835545043576,2.40745551592605,1.58388398333095
"434",12033,"12033 - SAINT EMILION","FACE 28 RUE FRANCOIS TRUFFAUT - 75012 PARIS",48.8335083324574,2.38613316870034,1.56985584281728
"435",12034,"12034 - PIROGUES DE BERCY","20 RUE DES PIROGUES DE BERCY - 75012 PARIS",48.8323083893665,2.38637027856876,1.57001183927096
"436",12035,"12035 - MADAGASCAR","4 RUE DE MADAGASCAR - 75012 PARIS",48.8347058597417,2.39711155264951,1.57707860825777
"437",12036,"12036 - REUILLY","116 RUE DE REUILLY - 75012 PARIS",48.8403027449996,2.39463039871545,1.57544623750353
"438",12037,"12037 - DAUMESNIL","53 BOULEVARD DE REUILLY - 75012 PARIS",48.8394854026542,2.39721237628914,1.57714494092597
"439",12038,"12038 - BEL AIR","FACE 12 BOULEVARD PICPUS - 75012 PARIS",48.8399887889119,2.40052566855206,1.57932478205393
"440",12039,"12039 - DECAEN","45 AVENUE DU GENERAL MICHEL BIZOT - 75012 PARIS",48.8348126298254,2.4009277881277,1.57958933969623
"441",12040,"12040 - PORTE DE CHARENTON","FACE 2 AV. DE LA PORTE DE CHARENTON - 75012 PARIS",48.8315881251744,2.39874566494855,1.57815370363556
"442",12041,"12041 - BOIS DE VINCENNES","AVENUE DAUMESNIL - 75012 PARIS",48.8336548528303,2.41346357648683,1.58783673378891
"443",12042,"12042 - MONTEMPOIVRE","36-38 boulevard Soult - 75012 PARIS",48.8403981721562,2.40922942058058,1.58505104920265
"444",12043,"12043 - DAUMESNIL HEBRARD","108, avenue Daumesnil - 75012 PARIS",48.8429,2.38474,1.56893926613458
"445",12101,"12101 - CHARENTON PRAGUE","89 TER RUE DE CHARENTON - 75012 PARIS",48.848175129981,2.37635844943123,1.56342497786901
"446",12102,"12102 - DIDEROT BERCY","224 RUE DE BERCY - 75012 PARIS",48.8461880014649,2.37040616152132,1.5595089206782
"447",12105,"12105 - BERCY VILLOT","153 RUE DE BERCY - 75012 PARIS",48.8419071533337,2.37660562531241,1.56358759683193
"448",12106,"12106 - BARTHES TROYES","3 RUE ROLAND BARTHES - 75012 PARIS",48.8439491758425,2.37908134343237,1.56521639132117
"449",12107,"12107 - DIDEROT BOURDAN","146 BOULEVARD DIDEROT - 75012 PARIS",48.8476538809846,2.39023863314186,1.57255686027328
"450",12108,"12108 - BERCY","FACE AU N°16 BOULEVARD DE BERCY - 75012 PARIS",48.84002,2.37862,1.56491286983614
"451",12109,"12109 - CHAROLAIS","212 RUE DE CHARENTON - 75012 PARIS",48.8408694597024,2.38756433493207,1.57079741837576
"452",12110,"12110 - BARON LE ROY TRUFFAUT","57-61 RUE DES PIROGUES DE BERCY - 75012 PARIS",48.8337086350797,2.38855666622239,1.57145028096304
"453",12111,"12111 - DECAEN CANNEBIERE","73 RUE CLAUDE DECAEN - 75012 PARIS",48.8376141703795,2.3972537821957,1.57717218219867
"454",12112,"12112 - CHARENTON JARDINIER","311-313 RUE DE CHARENTON - 75012 PARIS",48.8338217729227,2.39469266410605,1.5754872023954
"455",12113,"12113 - CARDINAL LAVIGERIE","4 PLACE DU CARDINAL LAVIGERIE - 75012 PARIS",48.8329341936998,2.40263674939916,1.58071367880368
"456",12114,"12114 - PORTE DE SAINT MANDE","33 AVENUE COURTELINE - 75012 PARIS",48.8439490640318,2.41508139483442,1.58890110924746
"457",12115,"12115 - PORTE DE VINCENNES","22 AVENUE DE LA PORTE DE VINCENNES - 75012 PARIS",48.8464193692794,2.41563660714614,1.58926638780902
"458",12119,"12119 - DOM PÉRIGNON GRAVELLE","ROUTE DOM PERIGNON - 75012 PARIS",48.8255844310932,2.40983094179678,1.58544679475793
"459",12120,"12120 - CONSERVATION","ROUTE DE LA CEINTURE DU LAC DAUMESNIL - 75012 PARIS",48.8277252370476,2.41827234236864,1.59100045881287
"460",12122,"12122 - POLYGONE","AVENUE DU POLYGONE - 75012 PARIS",48.8354449161742,2.43142108143656,1.59965111801422
"461",12123,"12123 - CHATEAU DE VINCENNES","COURS DES MARECHAUX - 94300 VINCENNES",48.8442319325566,2.43920953770918,1.6047752048617
"462",12124,"12124 - PYRAMIDE ARTILLERIE","ROUTE DE L'ARTILLERIE - 75012 PARIS",48.8390411459082,2.43765533908295,1.60375268531993
"463",12125,"12125 - PYRAMIDE ENTRÉE PARC FLORAL","PYRAMIDE ENTREE PARC FLORAL - 75012 PARIS",48.8370614928557,2.44044666425113,1.60558912017693
"464",12126,"12126 - AVENUE DE GRAVELLE","FACE 71 AVENUE DE GRAVELLE - 75012 PARIS",48.8244077675626,2.41845500423476,1.59112063349613
"465",12127,"12127 - TREMBLAY - INSEP","11, avenue du Temblay - 75012 PARIS",48.83397,2.45482,1.61504545119907
"466",12128,"12128 - ROUTE DE LA PYRAMIDE- ECOLE DU BREUIL","Pyramide  (proche rond-point Route de la Ferme) - 75012 PARIS",48.82256,2.45877,1.61764418737209
"467",12130,"12130 - NOGENT - PORTE JAUNE","AVENUE DE NOGENT - LA PORTE JAUNE - 75012 PARIS",48.83884,2.46031,1.61865736552562
"468",12151,"12151 - GARE DE LYON","GARE DE LYON - 75012 PARIS",48.8455150897939,2.3726498446286,1.56098505750141
"469",13001,"13001 - PORT ROYAL","51 BOULEVARD PORT ROYAL - 75013 PARIS",48.8377279209782,2.3446640434263,1.54257297802922
"470",13002,"13002 - ARAGO","55 BD ARAGO - 75013 PARIS",48.8348671795975,2.34457514124358,1.54251448858159
"471",13004,"13004 - GLACIERE","88 BOULEVARD AUGUSTE BLANQUI (SUR TPC) - 75013 PARIS",48.8306240750937,2.34542945664599,1.54307654942701
"472",13005,"13005 - ARAGO CORDELIERE - VERSION 2","2 RUE DES CORDELIERES - 75013 PARIS",48.8354807189661,2.34857246170222,1.5451443572578
"473",13006,"13006 - SAINT MARCEL JEANNE D'ARC","02 RUE DUMERIL - 75013 PARIS",48.8381516080866,2.3571084495564,1.55076025103224
"474",13007,"13007 - LE BRUN GOBELINS","42 RUE LE BRUN - 75013 PARIS",48.8350927878239,2.35346813513375,1.54836525944458
"475",13008,"13008 - ITALIE ROSALIE","FACE 2 PLACE D'ITALIE - 75013 PARIS",48.8319963691693,2.35480947270066,1.54924773601555
"476",13009,"13009 - BLANQUI CORVISART","46 BOULEVARD AUGUSTE BLANQUI - 75013 PARIS",48.8299837107196,2.35040358782183,1.54634906958296
"477",13010,"13010 - PLACE D ITALIE AURIOL","FACE 11 PLACE D'ITALIE - 75013 PARIS",48.8315826437749,2.35670842076066,1.55049706893053
"478",13011,"13011 - COMPO FORMIO","112 BD DE L'HOPITAL - 75013 PARIS",48.8354057129538,2.35821834503044,1.5514904600238
"479",13013,"13013 - SAINT MARCEL","3 BD SAINT MARCEL - 75013 PARIS",48.839504424583,2.36098941702293,1.55331357015669
"480",13014,"13014 - GARE D'AUSTERLITZ","5 BIS BOULEVARD DE L'HOPITAL - 75013 PARIS",48.8425244907662,2.36404495865652,1.55532383511146
"481",13015,"13015 - WEISS","2 RUE LOUIS WEISS - 75013 PARIS",48.832570718038,2.37123198668192,1.56005223756869
"482",13016,"13016 - PRIMO LEVI","9 RUE PRIMO LEVI - 75013 PARIS",48.8309484484602,2.37965351592796,1.56559282812155
"483",13017,"13017 - NATIONALE","167 RUE NATIONALE - 75013 PARIS",48.8325270839729,2.36235441039212,1.55421161006667
"484",13018,"13018 - AURIOL CHEVALERET","1 RUE BRUANT - 75013 PARIS",48.8348484529294,2.36682649962709,1.55715383286765
"485",13019,"13019 - AURIOL QUAI DE LA GARE","20 RUE FERNAND BRAUDEL - 75013 PARIS",48.8363622523975,2.37237538905974,1.56080449101668
"486",13020,"13020 - MENDES FRANCE","FACE 15 RUE PAUL KLEE - 75013 PARIS",48.8390842183095,2.37053233098557,1.55959192856445
"487",13021,"13021 - BOUSSINGAULT - TOLBIAC","55 RUE BOUSSINGAULT - 75013 PARIS",48.8260351660585,2.34217680800433,1.54093660621608
"488",13022,"13022 - BUTTE AUX CAILLES","27 ET 36 RUE DE LA BUTTE AUX CAILLES - 75013 PARIS",48.8275643798787,2.34906350669476,1.54546741963367
"489",13023,"13023 - BOBILLOT VERLAINE","30 RUE BOBILLOT - 75013 PARIS",48.8286028908451,2.35303458295142,1.54808002204227
"490",13024,"13024 - BOBILLOT TOLBIAC","81 RUE BOBILLOT - 75013 PARIS",48.825525861884,2.35020508497457,1.54621847299318
"491",13025,"13025 - PLACE DE RUNGIS","FACE 35 RUE DE LA FONTAINE A MULARD - 75013 PARIS",48.8224559476497,2.34738272948295,1.54436162304149
"492",13026,"13026 - PLACE HENOCQUE VERSION 2","21 RUE DU DR LERAY ET LANDOUZY - 75013 PARIS",48.8233161721775,2.35433694417225,1.54893685576756
"493",13027,"13027 - MAZAGRAND COUBERTIN","AVENUE DE LA PORTE DE GENTILLY - 75013 PARIS",48.816258257226,2.34418192298955,1.54225578718903
"494",13028,"13028 - GOUTHIERE","12 RUE GOUTHIERE - 75013 PARIS",48.820507,2.351342,1.54696645836083
"495",13029,"13029 - ITALIE","30 AVENUE D'ITALIE - 75013 PARIS",48.8290320407132,2.35618336917992,1.55015163335191
"496",13030,"13030 - ITALIE TOLBIAC","88 AVENUE D'ITALIE - 75013 PARIS",48.8258394606982,2.35721535750811,1.55083058661738
"497",13031,"13031 - ITALIE MAISON BLANCHE","121 AVENUE D'ITALIE - 75013 PARIS",48.821159320801,2.35870121787832,1.55180814588121
"498",13032,"13032 - MASSENA","163 AVENUE D'ITALIE - 75013 PARIS",48.8198946180614,2.35943293846641,1.55228955063078
"499",13033,"13033 - PORTE D'ITALIE","15 AVENUE DE LA PORTE D'ITALIE - 75013 PARIS",48.817312300432,2.36021848094357,1.55280636522592
"500",13034,"13034 - EDISON","54 AVENUE EDISON - 75013 PARIS",48.8290266697347,2.36106902408942,1.55336594427398
"501",13035,"13035 - IVRY TOLBIAC","116 AVENUE DE CHOISY - 75013 PARIS",48.8259701363971,2.36023184075509,1.55281515475136
"502",13036,"13036 - TOLBIAC NATIONALE","86 RUE TOLBIAC - 75013 PARIS",48.8269001997157,2.36517760348358,1.5560690110819
"503",13037,"13037 - IVRY BAUDICOURT","76 AVENUE D'IVRY - 75013 PARIS",48.824695995415,2.36310607357747,1.55470613520836
"504",13038,"13038 - CHOISY POINT D'IVRY","28 AVENUE DE CHOISY - 75013 PARIS",48.8219079688117,2.36333471061476,1.55485655731958
"505",13039,"13039 - IVRY POINTE D'IVRY","42 - 44 AVENUE D'IVRY - 75013 PARIS",48.8232196831694,2.3654696281062,1.55626113638576
"506",13040,"13040 - PORTE DE CHOISY","111 BOULEVARD MASSENA - 75013 PARIS",48.8199419656772,2.36507858638901,1.55600386695396
"507",13041,"13041 - PORTE D'IVRY","4 AVENUE D'IVRY - 75013 PARIS",48.8219624410174,2.36852869997212,1.55827372390824
"508",13042,"13042 - NATIONALE BACH","150 RUE NATIONALE - 75013 PARIS",48.8309574641457,2.36410705325463,1.5553646876376
"509",13043,"13043 - DUNOIS CLISSON","55 RUE DUNOIS - 75013 PARIS",48.8322724586395,2.36741586675015,1.55754158214914
"510",13044,"13044 - PLACE JEANNE D'ARC","20 PLACE JEANNE D'ARC - 75013 PARIS",48.8295757268385,2.36912681571713,1.55866722897716
"511",13045,"13045 - TOLBIAC ALBERT","FACE 1 RUE JEAN COLLY - 75013 PARIS",48.8278380326495,2.37053056385548,1.55959076595562
"512",13046,"13046 - OUDINE PATAY","10 RUE EUGENE OUDINE - 75013 PARIS",48.8257129035196,2.37504430009485,1.56256038864946
"513",13047,"13047 - BOUTROUX VITRY","1 AVENUE BOUTROUX - 75013 PARIS",48.8226328422322,2.37773843365762,1.56433288038225
"514",13048,"13048 - TOLBIAC WURTZ","20 RUE WURTZ - 75013 PARIS",48.826494328264,2.3443017158653,1.54233459986738
"515",13050,"13050 - QUAI PANHARD ET LEVASSOR","23 QUAI PANHARD ET LEVASSOR - 75013 PARIS",48.8283698938096,2.38444035460465,1.5687421270642
"516",13052,"13052 - TOLBIAC LERREDE","2 RUE LEREDDE - 75013 PARIS",48.8289747443296,2.37433200085619,1.56209176135895
"517",13053,"13053 - CHEVALERET TOLBIAC","56 RUE CHEVALERET - 75013 PARIS",48.8294101345956,2.37593455801393,1.56314609636026
"518",13054,"13054 - PAU CASALS","1 RUE PAU CASALS - 75013 PARIS",48.831244968449,2.3772632368774,1.56402024467033
"519",13055,"13055 - LAGROUA","18 RUE MARIE ANDREE LAGROUA - 75013 PARIS",48.8285952838574,2.38022060626611,1.56596592133044
"520",13101,"13101 - CROULEBARBE RECULETTES","67-69 RUE DE CROULEBARBE - 75013 PARIS",48.8311217750692,2.34810865477735,1.5448392150216
"521",13102,"13102 - LA PITIE-SALPETRIERE","47-83 BOULEVARD DE L'HOPITAL (Allée de la grille) - 75013 PARIS",48.83742,2.36506,1.55599163882194
"522",13103,"13103 - SAINT MARCEL","89 BOULEVARD DE L'HOPITAL - 75013 PARIS",48.8377276874543,2.3604603364768,1.55296548388994
"523",13104,"13104 - GARE D'AUSTERLITZ","FACE 109 QUAI D'AUSTERLITZ - 75013 PARIS",48.8437904773204,2.3655856655756,1.55633747835263
"524",13106,"13106 - BOBILLOT MERY","17 RUE BOBILLOT - 75013 PARIS",48.8298753726595,2.35424653463425,1.54887737461901
"525",13107,"13107 - MARCHAND SANTE","12 PASSAGE VICTOR MARCHAND - 75013 PARIS",48.8288402183865,2.34196743682721,1.54079885926631
"526",13109,"13109 - BRILLAT SAVARIN","16 RUE BRILLAT SAVARIN - 75013 PARIS",48.8222030963413,2.35042203291393,1.54636120475461
"527",13110,"13110 - MOULIN DE LA POINTE","66 RUE DU MOULIN DE LA POINTE - 75013 PARIS",48.8210392869898,2.35634514417292,1.55025806639652
"528",13111,"13111 - CIMETIERE DE GENTILLY","RUE DE LA POTERNE DES PEUPLIERS - 75013 PARIS",48.8185744158395,2.35326018374091,1.5482284465821
"529",13113,"13113 - CHOISY VISTULE","2 RUE DE LA VISCULE - 75013 PARIS",48.8236339763885,2.36157153415636,1.55369654961278
"530",13114,"13114 - NATIONALE DUCHAMP (PROP 1)","46 RUE NATIONALE - 75013 PARIS",48.8248108408094,2.36773548985311,1.55775186471101
"531",13116,"13116 - PLACE DU DOCTEUR YERSIN","FACE 5 AVENUE DE LA PORTE D'IVRY - 75013 PARIS",48.8202267926197,2.37220930964573,1.56069522605952
"532",13117,"13117 - STADE GEORGES CARPENTIER","95-97 BOULEVARD MASSENA - 75013 PARIS",48.8204951880497,2.36681968214097,1.55714934758972
"533",13118,"13118 - PATAY REGNAULT","36-38 RUE REGNAULT - 75013 PARIS",48.8243428568592,2.37606009168572,1.56322868595363
"534",13120,"13120 - VITRY DESAULT","RUE PIERRE ET JOSEPH DESAULT - 75013 PARIS",48.8211387514376,2.37871860660868,1.56497774390218
"535",13122,"13122 - PARC DE CHOISY","FACE 153 AVENUE DE CHOISY - 75013 PARIS",48.8281562515749,2.35851353290333,1.55168466645497
"536",13151,"13151 - GARE D'AUSTERLITZ","GARE D'AUSTERLITZ - 75013 PARIS",48.8405773029076,2.36612446185962,1.55669195668001
"537",13514,"13514 - GARE D'AUSTERLITZ 2","9 BOULEVARD DE L'HOPITAL - 75013 PARIS",48.8418361736006,2.36346863686007,1.5549446684533
"538",14001,"14001 - EDGAR QUINET","13 BOULEVARD EDGAR QUINET - 75014 PARIS",48.841156216483,2.32444878951907,1.52927320294685
"539",14002,"14002 - RASPAIL QUINET","FACE 4 BD EDGAR QUINET - 75014 PARIS",48.8391991671584,2.32955509720774,1.5326326830737
"540",14003,"14003 - RASPAIL SCHOELCHER","2 RUE VICTOR SCHOELCHER - 75014 PARIS",48.8368508158421,2.33130360086039,1.5337830374258
"541",14004,"14004 - PORT ROYAL COCHIN","111 BD PORT ROYAL - 75014 PARIS",48.8384318254917,2.34079466687066,1.54002728465652
"542",14005,"14005 - DENFERT ROCHEREAU","2 AVENUE RENE COTY - 75014 PARIS",48.8331407992471,2.33267222747508,1.53468346767667
"543",14006,"14006 - SAINT JACQUES TOMBE ISSOIRE","46 BOULEVARD SAINT JACQUES - 75014 PARIS",48.8331903187525,2.33693339124815,1.53748692095166
"544",14007,"14007 - SAINT JACQUES FERRUS","1 RUE FERRUS - 75014 PARIS",48.8313666800046,2.34081188215241,1.54003861072624
"545",14008,"14008 - MOUTON DUVERNET","5 RUE MOUTON DUVERNET - 75014 PARIS",48.8315066756746,2.32931936321666,1.53247759182058
"546",14009,"14009 - COTY TOMBE D'ISSOIRE","49 RUE DE LA TOMBE D'ISSOIRE - 75014 PARIS",48.83055599941,2.33378329803361,1.53541444976559
"547",14010,"14010 - JEAN MOULIN ALESIA","12 AVENUE JEAN MOULIN - 75014 PARIS",48.8274269000825,2.32576033284601,1.53013607765221
"548",14011,"14011 - ALESIA SARRETTE","6 RUE SARRETTE - 75014 PARIS",48.8275252920069,2.33172937899415,1.5340631602202
"549",14012,"14012 - SIBELLE ALESIA","FACE 2 AVENUE DE LA SIBELLE - 75014 PARIS",48.8267039411835,2.33863632415865,1.53860729395285
"550",14013,"14013 - LIART AMIRAL MOUCHEZ","1 RUE LIARD - 75014 PARIS",48.8212276633185,2.34210421455797,1.54088884641482
"551",14014,"14014 - STADE CHARLETY","5 BOULEVARD JOURDAN - 75014 PARIS",48.8194013048636,2.34337661053354,1.54172596576877
"552",14015,"14015 - CITE UNIVERSITAIRE","FACE 15 BOULEVARD JOURDAN - 75014 PARIS",48.8201501077581,2.33992642818773,1.53945606357497
"553",14016,"14016 - REILLE MONTSOURIS","61 AVENUE RENE COTY - 75014 PARIS",48.824767102597,2.33599967730057,1.53687262317677
"554",14018,"14018 - PORTE D'ORLEANS","6 PLACE DU 25 AOUT 1944 - 75014 PARIS",48.8228575017159,2.32504267091704,1.52966392220542
"555",14019,"14019 - SARETTE GENERAL LECLERC","58 RUE SARRETTE - 75014 PARIS",48.8250308529253,2.32641286939819,1.53056538659964
"556",14020,"14020 - PORTE DE MONTROUGE","AV. DE LA PORTE DE MONTROUGE - 75014 PARIS",48.8212167896893,2.32117350214306,1.52711836553392
"557",14021,"14021 - PLACE DE LA PORTE DE CHATILLON","BOULEVARD BRUNE PORTE DE CHATILLON - 75014 PARIS",48.8244897024567,2.31844743104898,1.52532486184723
"558",14023,"14023 - MALAKOFF PINARD","76-78 BOULEVARD ADOLPHE PINARD - 75014 PARIS",48.8236534802546,2.30776682558527,1.51829800722237
"559",14024,"14024 - RAYMOND LOSSERAND","RUE VERCINGETORIX - 75014 PARIS",48.827989487366,2.30567210645885,1.51691987497778
"560",14025,"14025 - JACQUIER","10 RUE JACQUIER - 75014 PARIS",48.8295704047321,2.31835302141387,1.52526274900323
"561",14026,"14026 - PLANTES MOULIN VERT","23 RUE DES PLANTES - 75014 PARIS",48.8301471957921,2.32331344598022,1.52852625147262
"562",14027,"14027 - ALESIA GERGOVIE","FACE 83 RUE DE GERGOVIE - 75014 PARIS",48.8308871745524,2.31888210120735,1.5256108347748
"563",14028,"14028 - PLAISANCE ALESIA","164 RUE ALESIA - 75014 PARIS",48.8316397040626,2.31515852904734,1.52316106726467
"564",14029,"14029 - GERGOVIE VERCINGETORIX","112 RUE VERCINGETORIX - 75014 PARIS",48.8342592499304,2.31339164711325,1.52199862169617
"565",14030,"14030 - LOSSERAND - PERNETY","61 RUE PERNETY - 75014 PARIS",48.834254627953,2.31760933938696,1.52477347472866
"566",14031,"14031 - DIDOT CHATEAU","13 RUE DIDOT - 75014 PARIS",48.8337,2.3215,1.52733317105069
"567",14032,"14032 - MOUTON DUVERNET - MAIRIE DU 14EME","26 RUE MOUTON DUVERNET - 75014 PARIS",48.8325012787035,2.32540116669297,1.52989977940562
"568",14033,"14033 - DAGUERRE GASSENDI","31 RUE FROIDEVAUX - 75014 PARIS",48.8356804441726,2.3282908220517,1.531800906471
"569",14034,"14034 - RUE DE L OUEST CHATEAU","48 RUE DE L'OUEST - 75014 PARIS",48.8361728601424,2.3193921439238,1.52594639590317
"570",14035,"14035 - MAINE GAITE","90 AVENUE DU MAINE - 75014 PARIS",48.8378836277624,2.32255164001816,1.52802505331808
"571",14036,"14036 - BOULARD DAGUERRE","14 RUE BOULARD - 75014 PARIS",48.8343907970068,2.32930394654529,1.53246744907082
"572",14037,"14037 - JEAN MOULIN","56 AVENUE JEAN MOULIN - 75014 PARIS",48.8257098170281,2.32184998734424,1.52756343048653
"573",14101,"14101 - PLACE FERNAND MOURLOT","33 BD EDGAR QUINET - 75014 PARIS",48.8415048015128,2.32327771564332,1.52850274420199
"574",14103,"14103 - MAINE LIANCOURT","132 / 136 AVENUE DU MAINE - 75014 PARIS",48.835064363954,2.32373144997399,1.52880125959896
"575",14104,"14104 - LOSSERAND BOYER-BARRET","4 RUE BOYER BARRET - 75014 PARIS",48.833139,2.317377,1.52462061681238
"576",14106,"14106 - STADE DIDOT","FACE 58 AVENUE MARC SANGNIER - 75014 PARIS",48.8253258700605,2.31067065346762,1.5202084585029
"577",14107,"14107 - PORTE DE MONTROUGE 2","2 AVENUE DE LA PORTE DE MONTROUGE - 75014 PARIS",48.8234163005029,2.32293685710795,1.52827849068155
"578",14108,"14108 - JOURDAN LE BRIX ET MESNIN","RUE LE BRIX ET MESNIN - 75014 PARIS",48.8223409659341,2.32786165330247,1.53151855296393
"579",14110,"14110 - ABBE CARTON","89 RUE DE L'ABBE CARTON - 75014 PARIS",48.8277462660758,2.32071409808913,1.52681611998127
"580",14111,"14111 - DENFERT-ROCHEREAU CASSINI","18 RUE CASSINI - 75014 PARIS",48.8375492921975,2.33598303046652,1.53686167109327
"581",14112,"14112 - FAUBOURG SAINT JACQUES CASSINI","24 RUE MECHAIN - 75014 PARIS",48.8358677209948,2.33798034198275,1.53817571810239
"582",14113,"14113 - ARAGO 2","36 RUE DE LA SANTE - 75014 PARIS",48.8351288650429,2.34157863455693,1.54054306318431
"583",14114,"14114 - PLACE DE CATALOGNE","4 RUE ALAIN - 75014 PARIS",48.8372933093611,2.31748293063912,1.52469030941585
"584",14115,"14115 - CITÉ UNIVERSITAIRE","AVENUE MAURICE D'OCAGNE - 75014 PARIS",48.8239231685446,2.31657332931609,1.52409187552694
"585",14116,"14116 - ROMAIN ROLLAND","49-51 BD ROMAIN ROLLAND - 75014 PARIS",48.8203236461268,2.32300304092451,1.52832203353678
"586",14117,"14117 - MOUCHOTTE","5 RUE DU COMMANDANT RENE MOUCHOTTE - 75014 PARIS",48.8393250250604,2.32095412572888,1.52697403605973
"587",14120,"14120 - JOURDAN BARBOUX","7 RUE HENRI BARBOUX - 75014 PARIS",48.8219553064561,2.32680686990588,1.53082460264307
"588",14122,"14122 - BRUNE","1 RUE DU COLONEL MONTEIL - 75014 PARIS",48.8265029331101,2.30927479982717,1.5192901153769
"589",14124,"14124 - PORTE D'ARCUEIL","AVENUE DAVID WEIL - 75014 PARIS",48.8211117704922,2.33378529042961,1.53541576057864
"590",14125,"14125 - DAREAU","34 RUE DAREAU - 75014 PARIS",48.8307232145836,2.33614655720435,1.53696925662463
"591",14127,"14127 - ODESSA","5-7 RUE D'ODESSA - 75014 PARIS",48.8428422780744,2.32444156513947,1.52926844997049
"592",15001,"15001 - ARRIVEE","8 RUE DE L'ARRIVEE - 75015 PARIS",48.8437488891639,2.32245193747358,1.52795945822716
"593",15002,"15002 - BOURDELLE","26 AVENUE DU MAINE - 75015 PARIS",48.8430853174659,2.32026394678474,1.52651996188556
"594",15003,"15003 - GARE DE MONTPARNASSE","TP DU 1-13 BOULEVARD DE VAUGIRARD - 75015 PARIS",48.8418071798797,2.31951002690117,1.5260239520443
"595",15004,"15004 - VAUGIRARD PASTEUR","DEV 71 BOULEVARD DE VAUGIRARD - 75015 PARIS",48.8405958674037,2.31536303820296,1.52329561545212
"596",15005,"15005 - PLACE TREFOUEL","FACE 24 BOULEVARD PASTEUR - 75015 PARIS",48.8426508046409,2.31272739021446,1.52156160184021
"597",15008,"15008 - SEVRES LECOURBE","FACE 4 BOULEVARD PASTEUR - 75015 PARIS",48.8448380192272,2.31108550609411,1.52048139331983
"598",15009,"15009 - SUFFREN","140 AVENUE DE SUFFREN - 75015 PARIS",48.8471756149276,2.30705214759679,1.51782781493358
"599",15010,"15010 - CAMBRONNE","FACE 3 BD GARIBALDI - 75015 PARIS",48.8475753214673,2.30286310050181,1.51507180779024
"600",15011,"15011 - THEBAUD RUE DE CAMBRONNE","32 RUE CAMBRONNE - 75015 PARIS",48.8458314196108,2.30175308699111,1.51434152114144
"601",15012,"15012 - MADEMOISELLE","76 RUE CAMBRONNE - 75015 PARIS",48.8432773300352,2.30230766886348,1.51470638493197
"602",15013,"15013 - LECOURBE VOLONTAIRE","DEV 1 RUE DES VOLONTAIRES - 75015 PARIS",48.8435427350063,2.30655861557466,1.51750311632132
"603",15014,"15014 - VOLONTAIRES","25 RUE DES VOLONTAIRES - 75015 PARIS",48.84132050184,2.30808901725357,1.51850997966365
"604",15016,"15016 - DUTOT","59 RUE DUTOT - 75015 PARIS",48.8383124746242,2.30853184382216,1.51880131875787
"605",15017,"15017 - PROCESSION","7 PLACE FALGUIERE - 75015 PARIS",48.8363338618169,2.31046623803085,1.52007397197382
"606",15018,"15018 - ALLERAY","85 RUE DUTOT - 75015 PARIS",48.8365756642503,2.30687451712267,1.51771095044282
"607",15019,"15019 - VAUGIRARD CAMBRONNE","3 RUE PAUL BARRUEL - 75015 PARIS",48.8400577188391,2.30450742096121,1.5161536191973
"608",15020,"15020 - MAIRIE DU 15EME","4 RUE LEON SECHE - 75015 PARIS",48.8417096401611,2.29854929401185,1.51223372045636
"609",15023,"15023 - LA MOTTE PIQUET","146 BOULEVARD GRENELLE - 75015 PARIS",48.8486563159052,2.29924407694599,1.51269082363189
"610",15024,"15024 - LAOS","88 AVENUE DE SUFFREN - 75015 PARIS",48.8509146081717,2.30129338467014,1.51403907935654
"611",15025,"15025 - AMETTE","26 RUE DUPLEIX - 75015 PARIS",48.8514541821274,2.29671030093086,1.51102383239522
"612",15026,"15026 - BIR HAKEIM","FACE 6 BOULEVARD DE GRENELLE - 75015 PARIS",48.8538440543335,2.28970534822202,1.50641521872568
"613",15027,"15027 - GIDE","4 RUE ANDRE GIDE  - 75015 PARIS",48.8365662244334,2.31270712109741,1.52154826662814
"614",15028,"15028 - DUPLEIX","54 BOULEVARD DE GRENELLE - 75015 PARIS",48.8513967211235,2.29188931322812,1.50785206653883
"615",15029,"15029 - EMERIAU","27 RUE EMERIAU - 75015 PARIS",48.8506147509061,2.2872501634709,1.50479993330184
"616",15031,"15031 - THEATRE","60 RUE DU THEATRE - 75015 PARIS",48.8481703413652,2.28990664645753,1.50654765442345
"617",15032,"15032 - LOURMEL","112 AVE FELIX FAURE - 75015 PARIS",48.8387344082747,2.28175554013876,1.5011849772486
"618",15033,"15033 - VIOLET","5 PLACE VIOLET - 75015 PARIS",48.8447903902618,2.29054156015453,1.50696536915538
"619",15034,"15034 - COMMERCE","2 RUE LAKANAL - 75015 PARIS",48.8444259195454,2.29404143328216,1.5092679633067
"620",15035,"15035 - PLACE ETIENNE PERNET","2 RUE DES FRERES MORANE - 75015 PARIS",48.8424587555045,2.2921735414417,1.50803906252364
"621",15036,"15036 - LAMBERT","102 RUE DE LA CROIX NIVERT - 75015 PARIS",48.8430763869499,2.29514141310447,1.50999164871273
"622",15037,"15037 - GROULT","202 RUE LECOURBE - 75015 PARIS",48.8404161884088,2.29546490651511,1.51020447758057
"623",15038,"15038 - PLACE ADOLPHE CHERIOUX","18 PLACE ADOLPHE CHERIOUX - 75015 PARIS",48.8396350805619,2.30065445929164,1.51361872530769
"624",15039,"15039 - CHARLES VALLIN","133 RUE DE L'ABBE GROULT - 75015 PARIS",48.8360583938563,2.30186596838429,1.51441578670086
"625",15040,"15040 - MONCLAR","33 BIS RUE SAINT AMAND - 75015 PARIS",48.8341171478377,2.30885001546654,1.51901064639369
"626",15041,"15041 - LABROUSTE","13 RUE FRANQUET - 75015 PARIS",48.8328539082769,2.3068984782082,1.51772671463008
"627",15042,"15042 - FARMAN","61 RUE HENRY FARMAN - 75015 PARIS",48.8337338301773,2.27139647246143,1.49436966487093
"628",15043,"15043 - BRANCION","122 RUE BRANCION - 75015 PARIS",48.8290542164508,2.30141743604383,1.5141206937343
"629",15044,"15044 - J DUPRE","65 RUE DANTZIG - 75015 PARIS",48.8302693902879,2.29600807608667,1.51056183312834
"630",15045,"15045 - PLAINE","AVENUE DE LA PORTE DE LA PLAINE - 75015 PARIS",48.8281749363659,2.29258752254824,1.50831142396074
"631",15046,"15046 - GEORGES BRASSENS","42 RUE DES MORILLONS - 75015 PARIS",48.8322073451848,2.30232873769119,1.51472024627999
"632",15047,"15047 - DANTZIG","FACE AU 37 RUE MORILLONS - 75015 PARIS",48.8331797705565,2.29928264159962,1.51271619562186
"633",15048,"15048 - OLIVIER DE SERRE","PLACE AMEDEE GIORDANI - 75015 PARIS",48.8305456694458,2.29204639669968,1.50795541299445
"634",15049,"15049 - PORTE DE VERSAILLES","2 AVENUE ERNEST RENAN - 75015 PARIS",48.8321794442604,2.28712226198256,1.50471578590327
"635",15051,"15051 - ROLLET","1 PLACE HENRI ROLLET - 75015 PARIS",48.835981004456,2.29346711912861,1.50889011749265
"636",15052,"15052 - CONVENTION","183 RUE DE LA CONVENTION - 75015 PARIS",48.8376768223316,2.29558692602025,1.51028475517597
"637",15053,"15053 - LECOURBE","250 RUE LECOURBE - 75015 PARIS",48.8392220977623,2.291540507949,1.50762258479296
"638",15054,"15054 - CHANDON","293 RUE LECOURBE - 75015 PARIS",48.837970342012,2.28758230704361,1.50501845317957
"639",15055,"15055 - VASCO DE GAMA","44 RUE VASCO DE GAMA - 75015 PARIS",48.8367094964901,2.28369238080642,1.5024592400092
"640",15056,"15056 - BALARD","13 PLACE BALARD - 75015 PARIS",48.8365372894709,2.27871769701936,1.49918635628598
"641",15058,"15058 - GEORGES POMPIDOU","4 PLACE DU MOULIN DE JAVEL - 75015 PARIS",48.8400944467421,2.27158991198534,1.49449693026032
"642",15059,"15059 - CITROEN","RUE BALARD - 75015 PARIS",48.8407143644436,2.27801857156773,1.49872639613392
"643",15060,"15060 - MONDRIAN","9 PLACE DE LA MONTAGNE DU GOULET - 75015 PARIS",48.8442928655765,2.2773458970965,1.49828383829062
"644",15061,"15061 - DESNOUETTES","12 SQUARE DESNOUETTES - 75015 PARIS",48.8347683793419,2.28414229739467,1.50275524368331
"645",15064,"15064 - JAVEL","DEV 5 AVENUE EMILE ZOLA - 75015 PARIS",48.8462949182689,2.2784139125938,1.49898649411496
"646",15065,"15065 - HUMBERT","23 RUE EMILE ZOLA - 75015 PARIS",48.8463837730034,2.28000841190413,1.50003552779486
"647",15067,"15067 - DESAIX","23 RUE DESAIX - 75015 PARIS",48.8528046049403,2.29307702985722,1.50863347468246
"648",15068,"15068 - BOULEVARD VICTOR","FACE 5 BOULEVARD MARTIAL VALIN - 75015 PARIS",48.838171310249,2.27033837974637,1.49367353732333
"649",15069,"15069 - BOUCICAUT FAURE","41 AVENUE FELIX FAURE - 75015 PARIS",48.841249336041,2.2883866008495,1.50554760442187
"650",15070,"15070 - BLANC","88 RUE BALARD - 75015 PARIS",48.838633871536,2.27827419306183,1.49889457153223
"651",15071,"15071 - CHAMP DE MARS COTE 16EME","36 AVENUE DE SUFFREN - 75015 PARIS",48.8548517488353,2.29500791364336,1.5099038183637
"652",15072,"15072 - PLACE FERNAND FOREST","1 RUE LINOIS ANGLE QUAI DE GRENELLE - 75015 PARIS",48.849271,2.281849,1.50124646522888
"653",15102,"15102 - SQUARE BELA BARTOK","QUAI DE GRENELLE - 75015 PARIS",48.8511672406797,2.28460760756774,1.50306137491835
"654",15103,"15103 - SQUARE DES CÉVENNES","01 RUE CAUCHY - 75015 PARIS",48.8434172323859,2.27510833205623,1.49681172659198
"655",15104,"15104 - HÔPITAL GEORGES POMPIDOU (PROP 2)","FACE 66 - 70 RUE LEBLANC - 75015 PARIS",48.8376790033084,2.27573060931238,1.49722112770975
"656",15105,"15105 - SUFFREN FÉDÉRATION","84 RUE DE LA FEDERATION - 75015 PARIS",48.8527667435281,2.29787643146792,1.51179103887854
"657",15106,"15106 - GRENELLE VIOLET (PROP3)","BOULEVARD DE GRENELLE - 75015 PARIS",48.8499211018621,2.29466057588438,1.50967530211091
"658",15107,"15107 -  PALAIS DES SPORTS","42 BOULEVARD VICTOR - 75015 PARIS",48.8335736182304,2.28548042091786,1.50363560570956
"659",15109,"15109 - CEVENNES","65 - 67 RUE DES CEVENNES - 75015 PARIS",48.8424414521891,2.2810707552159,1.50073445184359
"660",15110,"15110 - PLACE ROBERT GUILLEMARD","PLACE ROBERT GUILLEMARD - 75015 PARIS",48.8362103614838,2.28103938100924,1.50071381050543
"661",15111,"15111 - SERRES","48 RUE OLIVIER DE SERRES - 75015 PARIS",48.8346588627927,2.2957894803159,1.51041801724562
"662",15112,"15112 - FALGUIÈRE LEBRUN","19 RUE VIGEE LEBRUN - 75015 PARIS",48.838758813497,2.3109360795034,1.52038308438655
"663",15113,"15113 - FALGUIERE ARSONVAL","2 RUE D'ARSONVAL - 75015 PARIS",48.8404004036544,2.31311786729747,1.52181849979473
"664",15114,"15114 - PASTEUR COTENTIN","FACE 1 RUE DU COTENTIN - 75015 PARIS",48.8389369099596,2.31616841206317,1.52382547727068
"665",15115,"15115 - VAUGIRARD","25-31 BOULEVARD DE VAUGIRARD - 75015 PARIS",48.841325259808,2.31829155159271,1.52522230752277
"666",15118,"15118 - PLACE BIENVENUE","11 RUE DE L'ARRIVEE - 75015 PARIS",48.8431988280709,2.32225737727924,1.52783145553985
"667",15120,"15120 - AVIA","26 RUE DU COLONEL PIERRE AVIA - 75015 PARIS",48.8296843300915,2.27534258685029,1.49696584466971
"668",15122,"15122 - PLACE CHARLES VALLIN","PLACE CHARLES VALLIN - 75015 PARIS",48.835524753591,2.30262194094114,1.51491314701207
"669",15123,"15123 - RUE DU COMMERCE","20 RUE DU COMMERCE - 75015 PARIS",48.8479921934615,2.29668168569178,1.5110050062036
"670",15125,"15125 - AQUABOULEVARD","2 AVENUE DE LA PORTE DE SEVRES / AQUABOULEVARD - 75015 PARIS",48.8332198230209,2.27663033405161,1.49781306371624
"671",15126,"15126 - RENAN","Avenue ERNEST RENAN / PARC DES EXPOSITIONS - 75015 PARIS",48.8311001872726,2.28538759483169,1.50357453469489
"672",16001,"16001 - AVENUE DES PORTUGAIS","2 AVENUE DES PORTUGAIS - 75016 PARIS",48.8712137121912,2.29369213364784,1.50903815632065
"673",16002,"16002 - PERGOLESE","FACE 25 RUE PERGOLESE - 75016 PARIS",48.8751849611119,2.2842194320606,1.50280599118876
"674",16003,"16003 - ANDRE MAUROIS","2 BIS BOULEVARD ANDRE MAUROIS - 75016 PARIS",48.8779308171611,2.27895982496994,1.49934565417552
"675",16004,"16004 - BOULEVARD LANNES","FACE 2 BOULEVARD LANNES - 75016 PARIS",48.8707532840488,2.27487529834497,1.49665841187426
"676",16005,"16005 - POINCARE VICTOR HUGO","89 AVENUE RAYMOND POINCARE - 75016 PARIS",48.87030612437,2.28507454142023,1.5033685743849
"677",16006,"16006 - RUE LAURISTON","60 RUE LAURISTON - 75016 PARIS",48.8692602237345,2.28991872283876,1.50655559956996
"678",16007,"16007 - LONGCHAMP","4 RUE DE LONGCHAMP - 75016 PARIS",48.864910448589,2.29251910100415,1.5082664088869
"679",16008,"16008 - GALILEE KLEBER","1 RUE GALILEE - 75016 PARIS",48.8674118657137,2.29078138011482,1.50712314859989
"680",16009,"16009 - SAINT DIDIER","32 RUE SAINT DIDIER - 75016 PARIS",48.8664391603377,2.28574594430153,1.50381029563916
"681",16010,"16010 - BELLES FEUILLES","4 RUE DES BELLES FEUILLES - 75016 PARIS",48.8658554963631,2.28285990897973,1.50191155022464
"682",16011,"16011 - VICTOR HUGO RUE DE LA POMPE","118 AVENUE VICTOR HUGO - 75016 PARIS",48.8681088868974,2.28147752241719,1.50100206719548
"683",16012,"16012 - BOULEVARD FLANDRIN","68 BOULEVARD FLANDRIN - 75016 PARIS",48.8687784917848,2.27435453917683,1.49631580030776
"684",16013,"16013 - AVENUE HENRI MARTIN","71 AVENUE HENRI MARTIN - 75016 PARIS",48.8640767117056,2.27688168700671,1.49797843080905
"685",16014,"16014 - AVENUE D EYLAU","4 AVENUE D'EYLAU - 75016 PARIS",48.8635464034458,2.28639449692504,1.50423698352848
"686",16015,"16015 - RUE DE BASSANO","1 RUE DE BASSANO - 75016 PARIS",48.8681445104821,2.29614960098594,1.51065494347647
"687",16016,"16016 - PAUL DOUMER / LA TOUR","53 AVENUE PAUL DOUMER - 75016 PARIS",48.8601161096266,2.28084048191106,1.50058295321904
"688",16017,"16017 - RUE DE SIAM","1 BIS RUE DE SIAM - 75016 PARIS",48.8617203290273,2.27534656855531,1.49696846426487
"689",16018,"16018 - FLANDRIN","2 BOULEVARD FLANDRIN - 75016 PARIS",48.864411409459,2.27244864764647,1.49506189922883
"690",16019,"16019 - HENRI MARTIN","FACE 98 AV. HENRI MARTIN - 75016 PARIS",48.8630253153883,2.26880655019948,1.49266573457538
"691",16020,"16020 - PORTE DE PASSY","1 PLACE DE LA PORTE DE PASSY - 75016 PARIS",48.8573821279933,2.264277072081,1.48968575517504
"692",16021,"16021 - RUE FRANCOIS PONSARD","1 RUE FRANCOIS PONSARD - 75016 PARIS",48.858427696615,2.27430852414491,1.49628552665512
"693",16022,"16022 - RUE JEAN BOLOGNE","16 RUE JEAN BOLOGNE - 75016 PARIS",48.8575668897845,2.28002739530677,1.50004801712528
"694",16023,"16023 - RUE DE PASSY","1 RUE DE PASSY - 75016 PARIS",48.8583812528973,2.28412901289213,1.50274650370425
"695",16024,"16024 - KENNEDY RANELAGH","4 RUE RANELAGH DEVANT RER - 75016 PARIS",48.852933160467,2.280439719993,1.50031928879037
"696",16025,"16025 - FONTAINE RAYNOUARD","4 RUE JEAN DE LA FONTAINE - 75016 PARIS",48.8527869440996,2.27558058418559,1.49712242499486
"697",16026,"16026 - RANELAGH","91 RUE DU RANELAGH - 75016 PARIS",48.8554848837201,2.2704086573957,1.49371977354345
"698",16027,"16027 - JASMIN","79 AV MOZART- 75016 PARIS",48.8528612487169,2.26848357065151,1.49245324378185
"699",16028,"16028 - MILLET - JEAN DE LA FONTAINE","12 RUE FRANCOIS MILLET - 75016 PARIS",48.8510048746653,2.27246948291569,1.49507560691688
"700",16029,"16029 - MAISON DE RADIO FRANCE","1 RUE GROS - 75016 PARIS",48.8513599125815,2.27769726944862,1.49851500893408
"701",16030,"16030 - MIRABEAU","4 PLACE DE BARCELONE - 75016 PARIS",48.8476657100294,2.27355626496537,1.49579060940414
"702",16031,"16031 - BOULAINVILLIERS","51 RUE DES VIGNES - 75016 PARIS",48.8561507433887,2.27518841467119,1.49686441357637
"703",16032,"16032 - EGLISE D AUTEUIL","PLACE DE L'EGLISE D'AUTEUIL - 75016 PARIS",48.8474984177169,2.26848387135299,1.49245344161572
"704",16033,"16033 - MICHEL ANGE AUTEUIL","85 RUE JEAN DE LA FONTAINE - 75016 PARIS",48.8484276136739,2.26525382116,1.49032836610252
"705",16034,"16034 - PORTE D'AUTEUIL","76 RUE D'AUTEUIL - 75016 PARIS",48.8479502077943,2.26065982613763,1.48730594052194
"706",16035,"16035 - HIPPODROME D AUTEUIL","ALLEE DES FORTIFICATIONS - 75016 PARIS",48.848892820997,2.25765156147489,1.48532677945939
"707",16036,"16036 - PORTE MOLITOR","PLACE DE LA PORTE MOLITOR - 75016 PARIS",48.8452443138735,2.25693953740163,1.48485833320237
"708",16037,"16037 - MOLITOR - MICHEL ANGE","35 RUE MOLITOR - 75016 PARIS",48.845182081538,2.26211277356597,1.48826184610156
"709",16038,"16038 - RUE MOLITOR","RUE MOLITOR - 75016 PARIS",48.8450971265317,2.26572414789506,1.49063779777329
"710",16039,"16039 - VERSAILLES EXELMANS","27 BOULEVARD EXELMANS - 75016 PARIS",48.8409629526469,2.26439411807511,1.48976276065828
"711",16040,"16040 - EXELMANS","73 BIS BOULEVARD EXELMANS - 75016 PARIS",48.8431044947352,2.25982139174208,1.48675432791627
"712",16041,"16041 - VERSAILLES","164 AVENUE DE VERSAILLES - 75016 PARIS",48.8402193380741,2.26383419115296,1.4893943803173
"713",16042,"16042 - PORTE DE SAINT CLOUD","120 BOULEVARD MURAT - 75016 PARIS",48.8375552600146,2.2579725727069,1.48553797528232
"714",16043,"16043 - PLACE DE PASSY","2 PLACE DE PASSY - 75016 PARIS",48.857802917112,2.2775005469422,1.49838558364459
"715",16044,"16044 - STADE FRANCAIS","24 AVENUE DE LA PORTE DE SAINT CLOUD - 75016 PARIS",48.8387133631624,2.25219106053761,1.48173427279902
"716",16101,"16101 - MALAKOFF","161 AVENUE MALAKOFF - 75016 PARIS",48.8766926874369,2.28345759338342,1.50230477151069
"717",16102,"16102 - PERGOLÈSE/ MARBEAU","52-54 RUE PERGOLÈSE - 75016 PARIS",48.873568706869,2.28151252252986,1.50102509404582
"718",16103,"16103 - TRAKTIR","3 RUE TRAKTIR - 75016 PARIS",48.8727991559924,2.29150817942673,1.50760131560303
"719",16104,"16104 - PAUL VALÉRY","26-32 RUE PAUL VALERY - 75016 PARIS",48.8713610397756,2.28886639604116,1.50586326546496
"720",16105,"16105 - CREVAUX","1 RUE CREVAUX - 75016 PARIS",48.8708094286695,2.28114900769185,1.50078593476508
"721",16107,"16107 - GODARD","2 RUE BENJAMIN GODARD - 75016 PARIS",48.8659832410243,2.2757256357312,1.49721785555144
"722",16108,"16108 - SABLONS","40 RUE DES SABLONS - 75016 PARIS",48.8638751312682,2.28189073657736,1.5012739240525
"723",16110,"16110 - OCTAVE FEUILLET","4-6 RUE OCTAVE FEUILLET - 75016 PARIS",48.8609983661382,2.27312852713658,1.49550919731092
"724",16111,"16111 - HELIE","4 - 6 rue Faustin Helie - 75016 PARIS",48.85940308194,2.2765220890277,1.49774184846074
"725",16112,"16112 - CHERNOVITZ","1-3 RUE CHERNOVITZ - 75016 PARIS",48.8569864146289,2.28217321814299,1.50145977090385
"726",16116,"16116 - GEORGES SAND","23 rue Georges Sand - 75016 PARIS",48.8498691876412,2.2682573875257,1.49230443611836
"727",16118,"16118 - MICHEL ANGE","91 RUE MICHEL ANGE - 75016 PARIS",48.8406103996637,2.25837365819895,1.48580185259287
"728",16121,"16121 - SABLONS MAILLOT","ROUTE PORTE DES SABLONS / PORTE MAILLOT - 75016 PARIS",48.8787208918302,2.27056809720919,1.49382467025502
"729",16122,"16122 - MUETTE NEUILLY","ROUTE DE LA MUETTE A NEUILLY - 75016 PARIS",48.8800796431116,2.2585765898837,1.48593536294978
"730",16123,"16123 - MAHATMA GANDHI","Avenue du Mahatma Gandhi face à la Fondation Louis Vuitton dans le Bois de Boulogne - 75016 PARIS",48.876356,2.264205,1.48963833838416
"731",16124,"16124 - SÈVRES NEUILLY","Route de Sèvres à Neuilly - 75016 PARIS",48.8750959378951,2.24921698799858,1.4797776070045
"732",16129,"16129 - BOIS DE BOULOGNE / PORTE DE LA MUETTE 1","CHEMIN DE LA CEINTURE DU LAC INTERIEUR / AVENUE DE SAINT CLOUD - 75016 PARIS",48.8620818670338,2.26174638604114,1.48802079685749
"733",16130,"16130 - BOIS DE BOULOGNE / PORTE DE LA MUETTE 2","AVENUE LOUIS BARTHOU / PLACE DE LA COLOMBIE - 75016 PARIS",48.863757931035,2.26750468357477,1.49180922624878
"734",16135,"16135 - STADE WILMILLE","ROND POINT DU MARECHAL DELATRE DE TASSIGNY - 75016 PARIS",48.872381,2.275283,1.49692664201065
"735",17001,"17001 - GUY MOQUET","RUE GUY MOQUET - 75017 PARIS",48.8928229630235,2.3268034898348,1.53082237886763
"736",17002,"17002 - LA FOURCHE RUE DE LA CONDAMINE","4 RUE DE LA CONDAMINE - 75017 PARIS",48.8879013455305,2.32440044543717,1.52924139699384
"737",17003,"17003 - JACQUES KELLNER","4-6 RUE JACQUES KELLNER - 75017 PARIS",48.8958094858029,2.32789740916414,1.53154207702751
"738",17004,"17004 - LEGENDRE AVENUE DE CLICHY","130 RUE LEGENDRE - 75017 PARIS",48.8889616185588,2.32252897509438,1.52801014188585
"739",17005,"17005 - BROCHANT","43 RUE BROCHANT - 75017 PARIS",48.8903299891204,2.31973055992978,1.52616904246424
"740",17006,"17006 - GUY MOQUET DAVY","34 RUE GUY MOQUET - 75017 PARIS",48.8920640862454,2.32329134120854,1.52851170856888
"741",17007,"17007 - NAVIER","FACE 57 RUE NAVIER - 75017 PARIS",48.8959141175001,2.32272736705483,1.52814066552232
"742",17009,"17009 - BODIN AVENUE DE CLICHY","2 RUE PAUL BODIN - 75017 PARIS",48.8926339214324,2.31731325811074,1.52457868052039
"743",17010,"17010 - JONCQUIERE","90 RUE DE LA JONQUIERE - 75017 PARIS",48.8947686246963,2.31888535397443,1.52561297479593
"744",17012,"17012 - MAIRIE DU 17EME","FACE 16 RUE DES BATIGNOLLES - 75017 PARIS",48.8841012931631,2.32220602534734,1.52779767069859
"745",17013,"17013 - LEGENDRE","62 RUE LEGENDRE - 75017 PARIS",48.8854377308945,2.31647383591417,1.52402641803263
"746",17014,"17014 - PORTE DE CLICHY - AVENUE DE CLICHY","12 AVENUE DE LA PORTE DE CLICHY - 75017 PARIS",48.8967873958996,2.31071441900949,1.52023725219828
"747",17015,"17015 - PLACE DE LEVIS","19BIS/21 RUE LEGENDRE - 75017 PARIS",48.8836882175122,2.31328440539719,1.52192806652483
"748",17016,"17016 - BROCHANT","3 RUE BROCHANT - 75017 PARIS",48.8881869858103,2.31686114315115,1.52428123052043
"749",17017,"17017 - PONT CARDINET","167 RUE DE ROME - 75017 PARIS",48.8871404518667,2.31452160564086,1.522742030329
"750",17018,"17018 - MONCEAU","4 RUE DE THANN - 75017 PARIS",48.8811619835771,2.30951238050775,1.51944642158162
"751",17019,"17019 - MALESHERBES","20 RUE DE PHALSBOURG - 75017 PARIS",48.8826088164334,2.30902648733927,1.51912674863145
"752",17020,"17020 - NICARAGUA","49 RUE JOUFFROY D'ABBANS - 75017 PARIS",48.8850699436711,2.3070832166645,1.51784825551842
"753",17021,"17021 - WAGRAM (17EME ARR.)","RUE JOUFFROY D'ABBANS - 75017 PARIS",48.8842894403224,2.30549744426064,1.51680496333916
"754",17022,"17022 - PLACE DE WAGRAM","67 BOULEVARD PEREIRE - 75017 PARIS",48.8870706075812,2.30411112453146,1.51589289264863
"755",17024,"17024 - VILLIERS","1/3 PLACE PROSPER GOUBAUX - 75017 PARIS",48.881208332796,2.31644964079872,1.52401049987522
"756",17025,"17025 - COURCELLES","2 RUE DE CHAZELLES - 75017 PARIS",48.8794303755264,2.30346740668713,1.51546938559869
"757",17026,"17026 - WAGRAM COURCELLES","105 RUE JOUFFROY D'ABBANS - 75017 PARIS",48.8818571507446,2.30113837817673,1.51393709936123
"758",17027,"17027 - PEREIRE LEVALLOIS","121 BOULEVARD PEREIRE - 75017 PARIS",48.885263313654,2.29828646679923,1.51206080435897
"759",17028,"17028 - PORTE DE COURCELLE","34 BOULEVARD DE REIMS - 75017 PARIS",48.888800020649,2.29631993184172,1.51076700549072
"760",17029,"17029 - PLACE AIMÉE MAILLART","29 RUE PIERRE DEMOURS - 75017 PARIS",48.8814111012194,2.29482820074442,1.50978558382921
"761",17030,"17030 - RENNEQUIN PEREIRE","143 BOULEVARD DE PEREIRE - 75017 PARIS",48.8836391538993,2.29515206744623,1.50999865828826
"762",17031,"17031 - PORTE DE CHAMPERET","PLACE DE LA PORTE DE CHAMPERET - 75017 PARIS",48.8856174162832,2.29078141127921,1.50712316910318
"763",17032,"17032 - ESPACE CHAMPERRET","12 RUE JEAN OESTREICHER - 75017 PARIS",48.8865709933524,2.28861234498402,1.50569612326953
"764",17033,"17033 - CARNOT","8 AVENUE CARNOT - 75017 PARIS",48.8755384211021,2.29373210016993,1.50906445061094
"765",17036,"17036 - AVENUE DE TERNES","2-4 PLACE TRISTAN BERNARD - 75017 PARIS",48.8794928867271,2.29149818491263,1.50759474013332
"766",17037,"17037 - BAYERN PEREIRE","40 RUE BAYEN - 75017 PARIS",48.881830717501,2.29214066582886,1.50801743339851
"767",17038,"17038 - ARGENTINE","42 AVENUE DE LA GRANDE ARMEE - 75017 PARIS",48.8761743894985,2.28824740508752,1.50545602643154
"768",17039,"17039 - PLACE SAINT FERDINAND","26 RUE SAINT FERDINAND - 75017 PARIS",48.8781552978974,2.28851804786494,1.5056340844507
"769",17040,"17040 - TERNES PEREIRE","227 BOULEVARD PEREIRE SUR TPC - 75017 PARIS",48.8798132183375,2.28795645234244,1.50526460632439
"770",17041,"17041 - PORTE DE VILLIERS","51 RUE GUERSANT - 75017 PARIS",48.882877751786,2.28766737081487,1.505074417306
"771",17042,"17042 - PORTE MAILLOT","FACE 279 BOULEVARD PEREIRE - 75017 PARIS",48.8777500334188,2.28444435655372,1.50295397078787
"772",17043,"17043 - PLACE GENERAL KOENIG","10 RUE BELIDOR - 75017 PARIS",48.8802336276132,2.28538067947359,1.50356998502622
"773",17044,"17044 - PORTE DE SAINT OUEN","1 AVENUE DE LA PORTE DE SAINT OUEN - 75017 PARIS",48.8979224085452,2.32851451022192,1.53194807268352
"774",17045,"17045 - PLACE DES TERNES - 5","5 PLACE DES TERNES - 75017 PARIS",48.8784103864828,2.29783106471363,1.51176119173286
"775",17046,"17046 - MAC MAHON","18 AVENUE MARC MAHON - 75017 PARIS",48.8775320841302,2.29451253605293,1.50957790553749
"776",17047,"17047 - COURCELLES - DEMOURES","172 RUE DE COURCELLES - 75017 PARIS",48.8837697332735,2.29858466343129,1.51225699027654
"777",17048,"17048 - TOCQUEVILLE","12 RUE DE TOCQUEVILLE - 75017 PARIS",48.8824022854016,2.31400041122298,1.52239913240827
"778",17050,"17050 - BATIGNOLLES","1 RUE DES BATIGNOLLES - 75017 PARIS",48.8831039045822,2.32383474908838,1.52886922090155
"779",17101,"17101 - ALEXANDRE CHARPENTIER","FACE 3 RUE ALEXANDRE CHARPENTIER - 75017 PARIS",48.884341124663,2.28827375263734,1.5054733606925
"780",17102,"17102 - ALFRED ROLL","14 RUE ALFRED ROLL - 75017 PARIS",48.88784949384,2.30003439797788,1.51321078207591
"781",17104,"17104 - GENERAL KOENIG","2 BOULEVARD AURELLE DE PALADINES - 75017 PARIS",48.8817256596674,2.28368266166977,1.5024528457125
"782",17105,"17105 - PALADINES","18 BOULEVARD D'AURELLE DE PALADINES - 75017 PARIS",48.8834980819484,2.28201558962579,1.5013560658584
"783",17107,"17107 - BERTHIER STUART MERRIL","182 BOULEVARD BERTHIER - 75017 PARIS",48.8859131282562,2.29323415107242,1.50873684596992
"784",17110,"17110 - LEGENDRE","83 RUE LEGENDRE - 75017 PARIS",48.8877723254283,2.32036786584418,1.52658833105488
"785",17111,"17111 - LEMERCIER","109 RUE LEMERCIER - 75017 PARIS",48.890020496141,2.3175909298999,1.52476136298183
"786",17115,"17115 - PORTE DE SAINT OUEN","22 AVENUE DE LA PORTE DE SAINT OUEN - 75017 PARIS",48.8987600806539,2.32955851745478,1.53263493328122
"787",17116,"17116 - REIMS","6 BOULEVARD DE REIMS - 75017 PARIS",48.891834448211,2.30014465995486,1.51328332430074
"788",17117,"17117 - PEREIRE SAUSSURE","2 BIS BOULEVARD PEREIRE - 75017 PARIS",48.8881856419326,2.31012053654976,1.51984653224116
"789",17119,"17119 - TOQUEVILLE","64 RUE DE TOQUEVILLE - 75017 PARIS",48.8849243588809,2.31090855294117,1.52036497444402
"790",18001,"18001 - DAMREMONT CAULAINCOURT","6 RUE DAMREMONT - 75018 PARIS",48.8872746426427,2.33264836384539,1.53466776760637
"791",18002,"18002 - CLIGNANCOURT","25 RUE DE CLIGNANCOURT - 75018 PARIS",48.885301621904,2.34721103753866,1.54424866555636
"792",18003,"18003 - JOSEPH DE MAISTRE LEPIC","2 RUE JOSEPH DE MAISTRE - 75018 PARIS",48.8864568158288,2.33289782791384,1.53483189198575
"793",18004,"18004 - ABBESSES","2 RUE DE LA VIEUVILLE - 75018 PARIS",48.8844823927275,2.33881229702936,1.53872306789326
"794",18005,"18005 - TARDIEU","8 RUE TARDIEU - 75018 PARIS",48.8841632664746,2.34187980231063,1.54074120382625
"795",18006,"18006 - MARCHE ST-PIERRE","PLACE SAINT PIERRE - 75018 PARIS",48.8846916064055,2.34413928594718,1.54222773594237
"796",18007,"18007 - GOUTTE D' OR","65 RUE DE LA GOUTTE D'OR - 75018 PARIS",48.88519800938,2.3499419916883,1.54604538184383
"797",18008,"18008 - SQUARE LEON","FACE 36 RUE CAVE - 75018 PARIS",48.8866670263751,2.35321307162406,1.54819745114861
"798",18009,"18009 - LEPINE","12 RUE JEAN FRANCOIS LEPINE - 75018 PARIS",48.8861146679681,2.35685562752928,1.55059391742535
"799",18010,"18010 - MARX DORMOY - RIQUET","100 RUE RIQUET - 75018 PARIS",48.89026411,2.36029911,1.55285941171847
"800",18011,"18011 - HERBERT","85 RUE PAJOL - 75018 PARIS",48.8928457111673,2.36342901627977,1.55491860176084
"801",18012,"18012 - DOUDEAUVILLE STEPHENSON","51 RUE STEPHENSON - 75018 PARIS",48.8888648960566,2.35596672141756,1.55000909907929
"802",18013,"18013 - CHATEAU ROUGE","28 RUE POULET - 75018 PARIS",48.88778177066,2.35051773822251,1.54642417003243
"803",18014,"18014 - DOUDEAUVILLE LEON","26 RUE LEON - 75018 PARIS",48.8883242184522,2.3535733726386,1.54843449602954
"804",18015,"18015 - CUSTINE","23 RUE CUSTINE - 75018 PARIS",48.8886197164506,2.34701133583386,1.54411728022875
"805",18016,"18016 - FRANCOEUR CAULAINCOURT","1 RUE FRANCOEUR - 75018 PARIS",48.8900229033925,2.34245001267819,1.54111634972712
"806",18017,"18017 - PECQUEUR","93 RUE CAULAINCOURT - 75018 PARIS",48.8896779050281,2.33817871442611,1.53830622889841
"807",18018,"18018 - CARPEAUX","13 RUE CARPEAUX - 75018 PARIS",48.8907472101714,2.33082039647774,1.53346513344905
"808",18019,"18019 - MONTCALM","2 RUE MONTCALM - 75018 PARIS",48.8918779570874,2.33544742768979,1.53650929379954
"809",18020,"18020 - RUISSEAU","31 RUE FRANCOEUR - 75018 PARIS",48.8910412326166,2.34001458544203,1.5395140629283
"810",18021,"18021 - MARCADET - RAMEY","98 RUE MARCADET - 75018 PARIS",48.8909223829679,2.34498648211052,1.54278511298421
"811",18022,"18022 - BARBES MARCADET","57 RUE MARCADET - 75018 PARIS",48.8904511209648,2.3490573929687,1.54546339736504
"812",18023,"18023 - POISSONNIERS ORDENER","57 RUE ORDENER - 75018 PARIS",48.8912138908447,2.35128866621987,1.54693136964598
"813",18024,"18024 - CLIGNANCOURT MARCADET","105 RUE DE CLIGNANCOURT - 75018 PARIS",48.8914577261538,2.34863647806049,1.54518647412511
"814",18025,"18025 - MAIRIE DU 18 EME","81 RUE MONT-CENIS - 75018 PARIS",48.8929256534326,2.34451792116264,1.54247684303877
"815",18026,"18026 - RUISSEAU ORDENER","37 RUE DU RUISSEAU - 75018 PARIS",48.8928952839678,2.34011963243656,1.53958317417502
"816",18027,"18027 - DAMREMONT ORDENER","102 RUE DAMREMONT - 75018 PARIS",48.8934003929819,2.3362665239128,1.53704818366888
"817",18028,"18028 - VAUVENARGUES","195 RUE CHAMPIONNET - 75018 PARIS",48.894057251327,2.33219933598001,1.53437234863005
"818",18029,"18029 - POTEAU","1 RUE EMILE BLEMONT - 75018 PARIS",48.8945309044796,2.34154133909222,1.54051852620375
"819",18030,"18030 - SIMPLON","1 RUE JOSEPH DIJON - 75018 PARIS",48.8937342775359,2.34751796660457,1.54445059661108
"820",18031,"18031 - ALBERT KAHN","67 RUE CHAMPIONNET - 75018 PARIS",48.8957969797804,2.34558558413486,1.54317926693409
"821",18032,"18032 - PORTE DE CLIGNANCOURT","FACE 59 RUE BELLIARD - 75018 PARIS",48.8974884597493,2.34399649933778,1.54213379550518
"822",18033,"18033 - MOSKOWA","111 RUE BELLIARD - 75018 PARIS",48.8966923877784,2.33802345038817,1.53820407946252
"823",18034,"18034 - LEIBNITZ","50 RUE LEIBNITZ - 75018 PARIS",48.896328348516,2.33339042383468,1.53515597472959
"824",18035,"18035 - PORTE MONTMARTRE","FACE 66 RUE RENE BINET - 75018 PARIS",48.8991359901418,2.33689345355729,1.53746064562966
"825",18037,"18037 - AMIRAUX","48 RUE BOINOD - 75018 PARIS",48.8945417158497,2.35229546677958,1.54759375167978
"826",18038,"18038 - ROND POINT DE LA CHAPELLE","70 RUE DE LA CHAPELLE - 75018 PARIS",48.8952199046801,2.36009761909542,1.5527268492622
"827",18039,"18039 - EOLE","41 RUE D'AUBERVILLIERS - 75018 PARIS",48.8870212034388,2.36688624824086,1.55719314195218
"828",18040,"18040 - CHAPELLE MARX DORMOY","29 BOULEVARD DE LA CHAPELLE - 75018 PARIS",48.8845700631631,2.36021557266432,1.55280445184606
"829",18041,"18041 - MARTYRS 2","FACE 112 BOULEVARD DE ROCHECHOUART - 75018 PARIS",48.8821942039509,2.34065184962233,1.53993332406174
"830",18042,"18042 - PIGALLE GERMAIN PILLON","FACE 36 BOULEVARD DE CLICHY - 75018 PARIS",48.8827280905451,2.33626263901659,1.537045627765
"831",18043,"18043 - BLANCHE","55 BOULEVARD DE CLICHY - 75018 PARIS",48.8835647448546,2.33341862941046,1.53517453140049
"832",18044,"18044 - CLICHY","132 BOULEVARD DE CLICHY - 75018 PARIS",48.8841271080466,2.32880709819223,1.53214056861826
"833",18045,"18045 - GANNERON","2 RUE PIERRE GINIER - 75018 PARIS",48.886627148561,2.32629368931643,1.53048697708329
"834",18046,"18046 - FOURCHE","12 RUE ETIENNE JOGELLE - 75018 PARIS",48.8879401639469,2.32612442031434,1.53037561367097
"835",18047,"18047 - ST OUEN LAMARCK","53 AVENUE DE SAINT OUEN - 75018 PARIS",48.8910830402956,2.32673569483929,1.53077777600505
"836",18048,"18048 - PORTE DE LA CHAPELLE","29 BOULEVARD NEY - 75018 PARIS",48.8983850226507,2.36087734922712,1.5532398398694
"837",18049,"18049 - PTE D'AUBERVILLIERS","3-5 BOULEVARD NEY - 75018 PARIS",48.8984521733198,2.36960946333546,1.55898476665426
"838",18101,"18101 - CHAMPIONNET","32 RUE CHAMPIONNET - 75018 PARIS",48.8954703703991,2.34986545092144,1.54599502506927
"839",18102,"18102 - RUE DE LA CHAPELLE","69 BIS RUE DE LA CHAPELLE - 75018 PARIS",48.8964828318972,2.35884552523345,1.551903086829
"840",18103,"18103 - CHARLES HERMITE","45 RUE CHARLES HERMITE - 75018 PARIS",48.8989027534366,2.36473249417403,1.5557761701544
"841",18105,"18105 - BELIARD POISSONNIERS","157 BIS-159 RUE DES POISSONNIERS - 75018 PARIS",48.897406787872,2.35252665935551,1.54774585510004
"842",18107,"18107 - CHARTRES","22-24 RUE DE CHARTRES - 75018 PARIS",48.8847068639833,2.35358041022707,1.54843912611453
"843",18108,"18108 - EVANGILE","61 RUE DE L'EVANGILE - 75018 PARIS",48.8950903297663,2.36869413984016,1.55838256810306
"844",18109,"18109 - RIQUET PAJOL","55 RUE PAJOL - 75018 PARIS",48.8895969708508,2.36285360426251,1.55454003365359
"845",18110,"18110 - DEPARTEMENT","FACE 53 RUE DU DEPARTEMENT - 75018 PARIS",48.8866656246684,2.36151933793529,1.55366220930701
"846",18111,"18111 - FELIZ ZIEM","2 RUE FELIX ZIEM - 75018 PARIS",48.8894963048682,2.3333936588044,1.53515810304169
"847",18112,"18112 - HÔPITAL BICHAT","2 RUE ARTHUR RANC - 75018 PARIS",48.8980143432137,2.33365337616283,1.53532897314147
"848",18113,"18113 - LEPIC","70 - 72 RUE LEPIC - 75018 PARIS",48.8875730709534,2.33432733641793,1.53577237691213
"849",18114,"18114 - LEPIC VERON","35 RUE VERON - 75018 PARIS",48.8852579713485,2.33461773564066,1.53596343285257
"850",18122,"18122 - BINET","5 RUE BINET - 75018 PARIS",48.8992688633167,2.3429634773099,1.54145416216053
"851",19001,"19001 - OURCQ CRIMEE","243 RUE DE CRIMEE - 75019 PARIS",48.8941041403163,2.37294608846728,1.5611799586608
"852",19002,"19002 - TANGER","45 & 48 RUE RIQUET - 75019 PARIS",48.889351453487,2.37077448805521,1.55975124561165
"853",19003,"19003 - QUAI DE SEINE","3 QUAI DE LA SEINE - 75019 PARIS",48.8843161806472,2.36982957957202,1.55912958286343
"854",19004,"19004 - QUAI DE LA LOIRE","4 QUAI DE LA LOIRE - 75019 PARIS",48.8833973385453,2.37107452298013,1.5599486409566
"855",19005,"19005 - RIQUET","56 AVENUE DE FLANDRE - 75019 PARIS",48.8880132814483,2.37375959552292,1.56171517137283
"856",19006,"19006 - MATHIS","6 RUE MATHIS - 75019 PARIS",48.8906781294313,2.37614246886362,1.56328288254908
"857",19007,"19007 - OURCQ-FLANDRES","139 AVENUE DE FLANDRE - 75019 PARIS",48.8927099920707,2.37919974802492,1.56529429063704
"858",19008,"19008 - CORENTIN CARIOU","177 AVENUE DE FLANDRE - 75019 PARIS",48.8946502499702,2.38186872950848,1.56705023461842
"859",19009,"19009 - CITE DES SCIENCES","28BIS AVENUE CORENTIN CARIOU - 75019 PARIS",48.8965490597876,2.38464964402193,1.56887982022353
"860",19010,"19010 - PORTE DE LA VILLETTE","RUE EMILE REYNAUD SUR TPC - 75019 PARIS",48.9011641133776,2.38859073386923,1.57147269433676
"861",19011,"19011 - ROUVET DAMPIERRE","2 RUE ROUVET - 75019 PARIS",48.8933800500227,2.38499975689617,1.56911016224654
"862",19012,"19012 - LALLY TOLLENDAL","5 RUE LALLY TOLLENDAL - 75019 PARIS",48.882700644222,2.37469338894231,1.56232952143285
"863",19013,"19013 - LAUMIERE","8 & 1 RUE PETIT - 75019 PARIS",48.8845807406891,2.38012665025372,1.56590410692839
"864",19014,"19014 - LORRAINE","28 RUE DE LORRAINE - 75019 PARIS",48.8863350826153,2.38246120055766,1.5674400259974
"865",19015,"19015 - THIONVILLE","24 RUE DE THIONVILLE - 75019 PARIS",48.8891549175744,2.38337541728036,1.56804149639418
"866",19016,"19016 - OURCQ","78 RUE D'HAUTPOUL - 75019 PARIS",48.8863936794358,2.38654145443545,1.57012445722456
"867",19017,"19017 - PARC DE LA VILLETTE","197 AVENUE JEAN JAURES - 75019 PARIS",48.8883689420221,2.3909916593764,1.5730522821758
"868",19018,"19018 - CITÉ DE LA MUSIQUE","FACE 210 AVENUE JEAN JAURES - 75019 PARIS",48.8887860708258,2.39268612206715,1.57416708255257
"869",19019,"19019 - PETIT HONNEGER","124 RUE PETIT - 75019 PARIS",48.8863896349246,2.39363751443361,1.57479301109876
"870",19020,"19020 - MANIN HAUTPOUL","4-6 RUE GOUBET - 75019 PARIS",48.8846620656053,2.39020968744529,1.57253781667107
"871",19021,"19021 - MAIRIE DU 19 EME","4 RUE ARMAND CARREL - 75019 PARIS",48.8825914666889,2.38122061028933,1.56662383186925
"872",19023,"19023 - MANIN SIMON BOLIVAR","FACE 1 RUE MANIN - 75019 PARIS",48.8764996541268,2.3794073625991,1.56543088190387
"873",19024,"19024 - BUTTES CHAUMONT","28 / 30 RUE BOTZARIS - 75019 PARIS",48.8779512535706,2.38146466287791,1.56678439599331
"874",19025,"19025 - BOTZARIS","FACE 80 RUE BOTZARIS - 75019 PARIS",48.8795614522371,2.38896041078391,1.57171590769638
"875",19026,"19026 - DANUBE","53 RUE MIGUEL HIDALGO - 75019 PARIS",48.8819531724452,2.39249621664953,1.5740421422796
"876",19027,"19027 - SERRURIER","FACE 109 BOULEVARD SERURIER - 75019 PARIS",48.8806060535742,2.3978962906105,1.57759489355538
"877",19028,"19028 - PLACE DES FETES","17 RUE DES FETES - 75019 PARIS",48.8764683397331,2.3922846297885,1.57390293761391
"878",19029,"19029 - SEINE FLANDRE","51 QUAI DE LA SEINE - 75019 PARIS",48.8867988117734,2.37471951679563,1.56234671115375
"879",19030,"19030 - MOSELLE JAURES","6 PASSAGE DE MELUN - 75019 PARIS",48.883777,2.376515,1.56352797372368
"880",19031,"19031 - MANIN CRIMEE","8 RUE MANIN - 75019 PARIS",48.8830298392804,2.38634884002286,1.56999773468242
"881",19033,"19033 - CAMBRAI","30 RUE DE CAMBRAI - 75019 PARIS",48.8959473685135,2.38113380224631,1.56656672017267
"882",19034,"19034 - PANTIN","20 AVENUE DE LA PORTE DE PANTIN - 75019 PARIS",48.8903419552168,2.39781364218954,1.57754051850698
"883",19035,"19035 - PORTE CHAUMONT","RUE SIGMUND FREUD / PORTE CHAUMONT - 75019 PARIS",48.8857332998587,2.39784641538319,1.57756208024972
"884",19036,"19036 - HOPITAL ROBERT DEBRE","AV DE LA PTE DU PRES SAINT GERVAIS / ANGLE BD D'ALGERIE - 75019 PARIS",48.8799304155284,2.40095050201489,1.57960428334187
"885",19037,"19037 - PORTE DES LILAS","304 RUE DE BELLEVILLE - 75019 PARIS",48.8766039189276,2.40476969112948,1.58211695800102
"886",19038,"19038 - JOURDAIN","9 RUE LASSUS - 75019 PARIS",48.8755503947562,2.38903816084755,1.57176706007684
"887",19039,"19039 - PAILLERON","6 RUE EDOUARD PAILLERON - 75019 PARIS",48.8797752488603,2.37483435116481,1.5624222615915
"888",19040,"19040 - TELEGRAPHE","265 RUE DE BELLEVILLE - 75019 PARIS",48.8756361807115,2.39946145198278,1.57862462557431
"889",19041,"19041 - PYRÉNÉES","101 RUE DE BELLEVILLE - 75019 PARIS",48.8743491365289,2.38609537399646,1.56983097738333
"890",19043,"19043 - PETITS PONTS","RUE JULES LADOUMEGUE / ANGLE ROUTES DES PETITS PONTS / ANGLE AV. DU GAL. LECLERC - 75019 PARIS",48.893800171035,2.39791036643403,1.57760415415076
"891",19044,"19044 - GRANDS MOULINS","RUE DE LA CLOTURE / ANGLE RUE DU DEBARCADERE - 75019 PARIS",48.8971300530746,2.39607900820668,1.57639928912009
"892",19045,"19045 - CANAL SAINT DENIS - BD MACDONALD","145 BOULEVARD MCDONALD - 75019 PARIS",48.8988301928079,2.37933010909776,1.56538005621566
"893",19046,"19046 - PORTE DE PANTIN","3 PLACE DE LA PORTE DE PANTIN - 75019 PARIS",48.8890400680668,2.39528946179638,1.57587984030573
"894",19101,"19101 - SIMON BOLIVAR","36 AVENUE SIMON BOLIVAR - 75019 PARIS",48.8750704040631,2.38259171497997,1.56752589246584
"895",19102,"19102 - BELLEVILLE RAMPAL","4 RUE DE RAMPAL - 75019 PARIS",48.8731526238582,2.37985561062796,1.56572578781959
"896",19103,"19103 - MANIN CARRIERES","139 RUE MANIN - 75019 PARIS",48.8847708580339,2.39209311990105,1.57377694174758
"897",19105,"19105 - PORTE BRUNET","FACE 1 AVENUE AMBROISE RENDU - 75019 PARIS",48.8836592109373,2.39571950819391,1.57616277122455
"898",19106,"19106 - GARE EMGP","35, rue de la Gare - 75019 PARIS",48.90162,2.37267,1.56099831787932
"899",19109,"19109 - PLACE DU MAROC","27 RUE DE TANGER - 75019 PARIS",48.8862334174298,2.36885639049963,1.55848931409239
"900",19110,"19110 - MACDONALD","180 Boulevard Macdonald - 75019 PARIS",48.89869,2.3755,1.5628601972134
"901",19113,"19113 - PRE ST GERVAIS","27 RUE DU PRE SAINT GERVAIS - 75019 PARIS",48.8779234119252,2.39598555362417,1.57633780461272
"902",19114,"19114 - MANIN SECRETAN","31 RUE MANIN - 75019 PARIS",48.879275195696,2.37863702192026,1.56492406869181
"903",19115,"19115 - PORTE DE LA VILLETTE","1 AVENUE DE LA PORTE DE LA VILLETTE - 75019 PARIS",48.8984900530738,2.38612000821051,1.56984718442716
"904",19116,"19116 - JAURES VILLETTE","180 BOULEVARD DE LA VILLETTE - 75019 PARIS",48.881472498481,2.37026248225988,1.5594143929582
"905",19117,"19117 - EURYALE DEHAYNIN","22 RUE EURYALE DEHAYNIN - 75019 PARIS",48.8863000510864,2.37738886313363,1.56410289517574
"906",19118,"19118 - BOLIVAR BURNOUF","82 AVENUE SIMON BOLIVAR - 75019 PARIS",48.8771241776674,2.37427650923615,1.5620552529842
"907",19119,"19119 - BOURET PAILLERON","20 RUE EDOUARD PAILLERON - 75019 PARIS",48.8805744614225,2.37685300056202,1.5637503469609
"908",19120,"19120 - ALOUETTES","20 RUE CARDUCCI - 75019 PARIS",48.8775162568658,2.38609972037216,1.5698338368982
"909",19121,"19121 - BELLEVILLE PRE SAINT GERVAIS","195 RUE DE BELLEVILLE - 75019 PARIS",48.8755180686487,2.39296078727983,1.57434778696362
"910",19123,"19123 - QUAI DE METZ","7 QUAI DE METZ - 75019 PARIS",48.89106,2.3865,1.57009718402432
"911",19124,"19124 - ALEXANDER FLEMMING","RUE ALEXANDER FLEMMING - 75019 PARIS",48.8817697938583,2.40317936796956,1.58107067184344
"912",19125,"19125 - LEDIT DE NANTES","PLACE LEDIT DE NANTES - 75019 PARIS",48.8887900267753,2.37850015613849,1.56483402361385
"913",20001,"20001 - PLACE DE LA NATION","1 COURS DE VINCENNES - 75020 PARIS",48.8483646677768,2.39976238598127,1.57882261242685
"914",20002,"20002 - PIXERECOURT","FACE 65 RUE PIXERECOURT - 75020 PARIS",48.8738036229888,2.39601222330053,1.57635535080328
"915",20004,"20004 - PORTE DE VINCENNES BIS","10 RUE DU COMMANDANT L'HERMINIER - 75020 PARIS",48.8470644175254,2.41602296002108,1.5895205724145
"916",20005,"20005 - RUE DE LAGNY SAINT MANDE","2 RUE REYNALDO HAHN - 75020 PARIS",48.8492660436018,2.41233032884477,1.58709116122173
"917",20006,"20006 - PYRÉNÉES - PLAINE","33 RUE DES PYRENEES - 75020 PARIS",48.8502852806358,2.40629610781658,1.5831211995858
"918",20007,"20007 - BUZENVAL","52 RUE BUZENVAL - 75020 PARIS",48.8516172049987,2.40151359730767,1.57997474817888
"919",20008,"20008 - MARAICHERS","73 RUE DES PYRENEES - 75020 PARIS",48.853246898212,2.40587104452954,1.58284154709469
"920",20009,"20009 - DOCTEUR DEJERINE","RUE DES DOCTEURS DEJERINE - 75020 PARIS",48.8540232845259,2.41205801660568,1.58691200485056
"921",20011,"20011 - PYRÉNÉES-DAGORNO","103 RUE DES PYRENNEES - 75020 PARIS",48.8555013539889,2.40516852063917,1.58237935108297
"922",20012,"20012 - BUZENVAL VIGNOLES","90 RUE BUZENVAL - 75020 PARIS",48.8539232760832,2.40003874927036,1.57900443401578
"923",20013,"20013 - PLACE DE LA REUNION","106 RUE ALEXANDRE DUMAS - 75020 PARIS",48.8553551399868,2.39972858968972,1.57880037757993
"924",20015,"20015 - BAGNOLET-ORTEAUX","44 BIS RUE DE BAGNOLET - 75020 PARIS",48.8571433920909,2.398472,1.57797365730618
"925",20016,"20016 - PYRENEES VITRUVE","114 BIS RUE DES PYRENEES - 75020 PARIS",48.857129400355,2.40442562517696,1.58189059429552
"926",20017,"20017 - RUE SAINT BLAISE","69 RUE SAINT BLAISE - 75020 PARIS",48.8569749400317,2.40884245740696,1.58479646307685
"927",20018,"20018 - HARPIGNIES","2 RUE HARPIGNIES- 75020 PARIS",48.8586216693501,2.40994255387768,1.58552022522679
"928",20020,"20020 - PYRENEES RENOUVIER","183 RUE DES PYRENEES - 75020 PARIS",48.8609593322922,2.40042185204211,1.57925648035272
"929",20021,"20021 - PRAIRIE L INDRE","2 RUE DE L'INDRE - 75020 PARIS",48.8627264627457,2.40335131100078,1.58118379452063
"930",20022,"20022 - PORTE DE BAGNOLET","1 RUE GEO CHAVEZ - 75020 PARIS",48.86508,2.40799,1.5842356246213
"931",20023,"20023 - PELLEPORT BELGRAND","44 RUE PELLEPORT - 75020 PARIS",48.8650008184765,2.40398083637749,1.58159796423413
"932",20024,"20024 - GAMBETTA - PÈRE LACHAISE","11 RUE MALTE BRUN - 75020 PARIS",48.8642956961659,2.39822866728204,1.57781356679067
"933",20025,"20025 - GAMBETTA GATINES","13 RUE DES GATINES - 75020 PARIS",48.8653941647232,2.39781447530757,1.57754106662191
"934",20026,"20026 - PELLEPORT","121 AVENUE GAMBETTA - 75020 PARIS",48.8679251540267,2.40097662354654,1.57962146890369
"935",20027,"20027 - PORTE DE MENILMONTANT","1 rue Vidal de la Blache / Angle 78 boulevard Mortier - 75020 PARIS",48.8691543609174,2.40932246879487,1.58511226635716
"936",20028,"20028 - GAMBETTA MARTIN NADAUD","FACE 2 RUE ORFILA - 75020 PARIS",48.8651864128494,2.39446858113767,1.57533977644206
"937",20030,"20030 - PERE LACHAISE","54 BOULEVARD MENILMONTANT - 75020 PARIS",48.8634111074047,2.38713395757371,1.5705142697152
"938",20031,"20031 - DURIS","33 RUE DURIS - 75020 PARIS",48.8655408671001,2.38772449616336,1.57090278971381
"939",20032,"20032 - AMANDIERS","55 RUE DES CENDRIERS - 75020 PARIS",48.8662951060021,2.38935041243347,1.57197249285948
"940",20033,"20033 - ETIENNE DOLET","29 RUE ETIENNE DOLLET - 75020 PARIS",48.8680494102479,2.3851330976189,1.56919788816034
"941",20034,"20034 - SORBIER - MÉNILMONTANT","1 RUE SORBIER - 75020 PARIS",48.8685264710698,2.38979540953546,1.57226525996475
"942",20035,"20035 - PYRENEES","262 RUE DES PYRENEES - 75020 PARIS",48.8694128911613,2.39503998122068,1.5757157050661
"943",20036,"20036 - MENILMONTANT - PELLEPORT","164 RUE DE MENILMONTANT - 75020 PARIS",48.8706826338446,2.39895960233165,1.57829445472828
"944",20037,"20037 - SAINT FARGEAU","177 AVENUE GAMBETTA - 75020 PARIS",48.8712659183557,2.40395075220876,1.5815781716221
"945",20038,"20038 - LEON FRAPIE","6 RUE LEON FRAPIE - 75020 PARIS",48.87354903514,2.41100303588006,1.58621792470537
"946",20039,"20039 - COURONNES","44 BOULEVARD DE BELLEVILLE - 75020 PARIS",48.8689406428553,2.38128260110279,1.56666461611465
"947",20040,"20040 - PARC DE BELLEVILLE","57 & 36 RUE JULIEN LACROIX - 75020 PARIS",48.8703936716038,2.38422247271259,1.56859878084791
"948",20041,"20041 - BELLEVILLE","116 BD DE BELLEVILLE - 75020 PARIS",48.8711994313901,2.37799433828966,1.56450124205924
"949",20042,"20042 - PYRENEES ERMITAGE","300 RUE DES PYRENEES - 75020 PARIS",48.8721573799357,2.3917391737763,1.5735440777988
"950",20043,"20043 - CHARONNE AVRON","48 BOULEVARD DE CHARONNE - 75011 PARIS",48.8516026652216,2.39840304703793,1.57792829260826
"951",20044,"20044 - DAVOUT VOLGA","63 BOULEVARD DAVOUT / ANGLE 84 RUE VOLGA 75020 PARIS",48.8529196799573,2.41052290977911,1.58590204595445
"952",20045,"20045 - LOUIS GANNE","3-5 RUE LOUIS GANNE - 75020 PARIS",48.8634696412222,2.40967010021591,1.58534097581253
"953",20047,"20047 - COURS DE VINCENNES BD DAVOUT","107 COURS DE VINCENNES - 75020 PARIS",48.8473310531154,2.4103900081973,1.58581460895493
"954",20048,"20048 - BAGNOLET","110 RUE DE BAGNOLET - 75020 PARIS",48.8597776444599,2.40344426132457,1.58124494727221
"955",20103,"20103 - LE VAU BERTEAUX","24 RUE LE VAU - 75020 PARIS",48.8680343904319,2.41103061245363,1.58623606755076
"956",20104,"20104 - RUE LOUIS LUMIÈRE","68 RUE LOUIS LUMIERE - 75020 PARIS",48.8621619807001,2.41112578185621,1.58629868025178
"957",20105,"20105 - GAUMONT","AVENUE BENOIT FRACHON - 75020 PARIS",48.8525533927196,2.41554237210921,1.58920438983453
"958",20106,"20106 - MAIRIE DU 20ÈME","44-46 AVENUE GAMBETTA - 75020 PARIS",48.8653522420003,2.3989464480811,1.57828580044303
"959",20107,"20107 - STADE MARYSE HILSZ","26 RUE MARYSE HILSZ - 75020 PARIS",48.8512852761581,2.41273364162825,1.58735650388488
"960",20108,"20108 - HOSPICE DEBROUSSE","142 RUE DE BAGNOLET - 75020 PARIS",48.8615729587877,2.40568863716159,1.58272153984778
"961",20109,"20109 - SURMELIN HAXO","2 RUE HAXO - 75020 PARIS",48.8694370761222,2.40539657537972,1.58252939009656
"962",20110,"20110 - PORTE DES LILAS","FACE 241 AVENUE GAMBETTA - 75020 PARIS",48.875412421861,2.4059603311549,1.58290028947016
"963",20111,"20111 - L'ISLE ADAM PYRENÉES","60 RUE VILLIERS DE L'ISLE ADAM - 75020 PARIS",48.8673622971658,2.39622289098869,1.57649395073789
"964",20112,"20112 - JOURDAIN","3 RUE DU JOURDAIN - 75020 PARIS",48.8740924809158,2.38943590833061,1.57202874128494
"965",20113,"20113 - PARC DE BELLEVILLE","30 RUE PIAT - 75020 PARIS",48.8719562663553,2.38498139027809,1.56909807870356
"966",20115,"20115 - PORTE DE BAGNOLET","102 RUE LOUIS LUMIERE - 75020 PARIS",48.8644236485659,2.41041111584463,1.58582849584269
"967",20116,"20116 - HAIES REUNION","53 RUE DES HAIES - 75020 PARIS",48.8538689676649,2.40242616223891,1.58057513184902
"968",20117,"20117 - SAINT FARGEAU MORTIER","72 RUE SAINT-FARGEAU - 75020 PARIS",48.8727472690362,2.40820345430209,1.5843760578912
"969",20118,"20118 - ORTEAUX MOURAUD","100 RUE DES ORTEAUX - 75020 PARIS",48.8555864284787,2.40876290776467,1.58474412673939
"970",20119,"20119 - SQUARE DE MENILMONTANT","138 RUE DE MENILMONTANT - 75020 PARIS",48.8701364586824,2.39669061287625,1.57680166865893
"971",20120,"20120 - NOISY LE SEC","1 RUE EVARISTE GALOIS - 75020 PARIS",48.8733382252365,2.41323987955004,1.58768956180881
"972",20121,"20121 - MENILMONTANT BOYER","27 RUE BOYER - 75020 PARIS",48.8689101274487,2.3920204892863,1.57372915749294
"973",20122,"20122 - DAVOUT VITRUVE","98 RUE VITRUVE - 75020 PARIS",48.8602401209524,2.40875842782218,1.58474117934987
"974",20131,"20131 - REPOS","41 RUE DU REPOS - 75020 PARIS",48.8593585235926,2.38961313668446,1.5721453412176
"975",20132,"20132 - REUNION","4 RUE DE LA REUNION - 75020 PARIS",48.8525667520338,2.40392806870812,1.58156324796801
"976",20133,"20133 - RASSELINS","2 RUE DES RASSELINS - 75020 PARIS",48.853528685941,2.40961536277553,1.58530496361853
"977",20503,"20503 - COURS DE VINCENNES PYRÉNÉES","1 RUE DES PYRENEES - 75020 PARIS",48.8477249689847,2.40590731701789,1.58286541105104
"978",21001,"21001 - TRANSVAL (BOULOGNE-BILLANCOURT)","11 RUE DU TRANSVAL - 92100 BOULOGNE-BILLANCOURT",48.848299809537,2.23757011020717,1.47211503418952
"979",21002,"21002 - DENFERT ROCHEREAU (BOULOGNE-BILLANCOURT)","PLACE DENFERT ROCHEREAU - 92100 BOULOGNE BILLANCOURT",48.8431766558771,2.24621423158067,1.4778020698597
"980",21003,"21003 - JAURES 1 (BOULOGNE-BILLANCOURT)","2 BOULEVARD JEAN JAURES -  92100 BOULOGNE-BILLANCOURT",48.8456381388333,2.23701147134366,1.47174750127249
"981",21004,"21004 - JAURES 2 (BOULOGNE-BILLANCOURT)","55 BOULEVARD JEAN JAURES - 92100 BOULOGNE-BILLANCOURT",48.8400232565214,2.23981899697253,1.47359459454044
"982",21005,"21005 - MORIZET (BOULOGNE-BILLANCOURT)","20 AVENUE ANDRE MORIZET - 92100 BOULOGNE-BILLANCOURT",48.8349539796647,2.24168824710241,1.47482438895282
"983",21006,"21006 - PARIS (BOULOGNE-BILLANCOURT)","162 RUE DE PARIS - 92100 BOULOGNE-BILLANCOURT",48.8415970289018,2.23349677554428,1.46943515516844
"984",21007,"21007 - RHIN DANUBE (BOULOGNE BILLANCOURT)","15 ROND POINT RHIN DANUBE - 92100 BOULOGNE BILLANCOURT",48.8406492985733,2.22797877475429,1.46580481890118
"985",21008,"21008 - HUGO (BOULOGNE-BILLANCOURT)","74 AVENUE VICTOR HUGO - 92100 BOULOGNE-BILLANCOURT",48.8379233147709,2.2460641515441,1.47770333101922
"986",21009,"21009 - LECORBUSIER (BOULOGNE-BILLANCOURT)","FACE AU 1 RUE LECORBUSIER - 92100 BOULOGNE-BILLANCOURT",48.8379982952818,2.24084666482118,1.47427070532832
"987",21010,"21010 - SILLY (BOULOGNE-BILLANCOURT)","93 RUE DE SILLY - 92100 BOULOGNE-BILLANCOURT",48.8355044075135,2.2325314324241,1.46880004831128
"988",21011,"21011 - SILLY (BOULOGNE BILLANCOURT)","153 RUE DE SILLY - 92100 BOULOGNE BILLANCOURT",48.832274660165,2.2340164013498,1.46977702108673
"989",21012,"21012 - LECLERC (BOULOGNE-BILLANCOURT)","745 AVENUE DU GENERAL LECLERC - 92100 BOULOGNE-BILLANCOURT",48.8305862961605,2.23449077993291,1.4700891185003
"990",21013,"21013 - GRENIER (BOULOGNE-BILLANCOURT)","4 AVENUE PIERRE GRENIER - 92100 BOULOGNE-BILLANCOURT",48.8258469346999,2.24882139108772,1.47951734067484
"991",21014,"21014 - HAMEAU FLEURI (BOULOGNE-BILLANCOURT)","FACE AU 12 RUE DU HAMEAU FLEURIE - 92100 BOULOGNE BILLANCOURT",48.8314286500504,2.24120465343616,1.47450622886333
"992",21015,"21015 - NATIONALE (BOULOGNE-BILLANCOURT)","39 RUE NATIONALE - 92100 BOULOGNE-BILLANCOURT",48.8276004241283,2.24183519132459,1.47492106471626
"993",21016,"21016 - POINT DU JOUR (BOULOGNE-BILLANCOURT)","118 RUE DU POINT DU JOUR - 92100 BOULOGNE BILLANCOURT",48.8287531414365,2.24591146701462,1.47760287866231
"994",21017,"21017 - REPUBLIQUE 1 (BOULOGNE-BILLANCOURT)","91 BOULEVARD DE LA REPUBLIPQUE - 92100 BOULOGNE-BILLANCOURT",48.8334736792722,2.24390053207907,1.47627986869811
"995",21018,"21018 - SEINE (BOULOGNE-BILLANCOURT)","FACE AU 13 RUE DE LA SEINE - 92100 BOULOGNE-BILLANCOURT",48.8282434941585,2.25065773963902,1.48072548887902
"996",21019,"21019 - VAILLANT (BOULOGNE-BILLANCOURT)","71 AVENUE EDOUARD VAILLANT - 92100 BOULOGNE-BILLANCOURT",48.834860810597,2.24786255060931,1.47888651195701
"997",21020,"21020 - REPUBLIQUE 2 (BOULOGNE-BILLANCOURT)","28 Bd de la République 92100 BOULOGNE BILLANCOURT",48.8319998153979,2.25371998800725,1.48274016624744
"998",21021,"21021 - PARADIS (BOULOGNE-BILLANCOURT)","FACE AU 128 RUE DES ENFANTS DU PARADIS - 92100 BOULOGNE BILLANCOURT",48.8331749589101,2.25700586730089,1.48490197216656
"999",21101,"21101 - VALITON (CLICHY)","4 RUE DE VALITON - 92110 CLICHY",48.9024924515185,2.29784000737435,1.51176707517993
"1000",21102,"21102 - NATIONS UNIES (CLICHY)","PLACE DES NATIONS UNIES - 92110 CLICHY",48.8971098501329,2.30990049821369,1.51970176728334
"1001",21103,"21103 - HUGO (CLICHY)","94-98 BOULEVARD VICTOR HUGO - 92110 CLICHY",48.9014601567539,2.31712992065507,1.52445806136142
"1002",21104,"21104 - SANZILLON (CLICHY)","64 RUE DE MADAME DE SANZILLON - 92110 CLICHY",48.9036767022563,2.31917665758013,1.52580462573706
"1003",21105,"21105 - MORICE (CLICHY)","35-37 RUE MORICE - 92110 CLICHY",48.9026151938404,2.31332063650202,1.52195190325463
"1004",21106,"21106 - MORICE 2 (CLICHY)","2-4 RUE MORICE - 92110 CLICHY",48.9006603494266,2.30856953502856,1.51882611610001
"1005",21107,"21107 - SINCHOLLE (CLICHY)","RUE BERTRAND SINCHOLLE - 92110 CLICHY",48.8993596369799,2.30404056069809,1.51584646814578
"1006",21108,"21108 - VILLENEUVE 2 (CLICHY)","6-8 RUE VILLENEUVE - 92110 CLICHY",48.9036210121559,2.30622856572988,1.51728597392371
"1007",21109,"21109 - GUICHET (CLICHY)","12BIS RUE DU GUICHET - 92110 CLICHY",48.9051370039685,2.3025031605813,1.51483500047593
"1008",21110,"21110 - VILLENEUVE (CLICHY)","FACE 51 RUE VILLENEUVE - 92110 CLICHY",48.9055031145346,2.31082038170894,1.5203069658945
"1009",21111,"21111 - LERICHE (CLICHY)","14 RUE DU PROFESSEUR RENE LERICHE - 92110 CLICHY",48.9081103829934,2.30751971008248,1.51813542798288
"1010",21112,"21112 - DEBUSSY (CLICHY)","31/35 AVENUE CLAUDE DEBUSSY - 92110 CLICHY",48.9104291257233,2.3117681757748,1.52093052709032
"1011",21113,"21113 - PETIT (CLICHY)","2 RUE PETIT - 92110 CLICHY",48.8993483537726,2.29662648341284,1.51096868818864
"1012",21201,"21201 - JAURES (MONTROUGE)","6 PLACE JEAN JAURES / RUE MAURICE ARNOUX ET RUE CAMILLE PELLETIN - 92120 MONTROUGE",48.8162906770039,2.31127954341048,1.5206090520016
"1013",21202,"21202 - BARBES (MONTROUGE)","16 RUE BARBES - 92120 MONTROUGE",48.8172449116699,2.32750599924383,1.53128456535196
"1014",21203,"21203 - BRIAND (MONTROUGE)","PLACE JULES FERRY / AVENUE ARISTIDE BRIAND - 92120 MONTROUGE",48.8125109081987,2.32568062304452,1.53008363594475
"1015",21204,"21204 - D'ORVES (MONTROUGE)","FACE 44 RUE D'ESTIENNES D'ORVES / PISCINE - 92120 MONTROUGE",48.8153882203973,2.32088679076093,1.52692973585292
"1016",21205,"21205 - JAURES 2 (MONTROUGE)","AVENUE JEAN JAURES / RUE ROGER SALENGERO - 92120 MONTROUGE",48.8138629635867,2.30694360566078,1.51775640433728
"1017",21206,"21206 - PERI (MONTROUGE)","35/37 RUE GABRIEL PERI - 92120 MONTROUGE",48.8182337326032,2.32088453254631,1.5269282501557
"1018",21207,"21207 - VERDIER (MONTROUGE)","AVENUE VERDIER ANGLE AVENUE DE LA REPUBLIQUE - 92120 MONTROUGE",48.8155296336784,2.31702986373133,1.52439223312165
"1019",21208,"21208 - CARVES (MONTROUGE)","67 RUE CARVES ANGLE AVENUE HENRI GINOUX - 92120 MONTROUGE",48.8130809114454,2.31978793668935,1.52620679108717
"1020",21209,"21209 - GEORGES MESSIER (MONTROUGE)","35 RUE MOLIERE - 92120 MONTROUGE",48.8111018377725,2.314629747785,1.52281317789908
"1021",21210,"21210 - PERI 2 (MONTROUGE)","8 RUE GABRIEL PERI - 92120 MONTROUGE",48.8178170939014,2.32403127829722,1.52899851901903
"1022",21211,"21211 - MARNE (MONTROUGE)","100 AVENUE DE LA MARNE - 92120 MONTROUGE",48.8117498213108,2.30316988762781,1.51527364546157
"1023",21301,"21301 - SAINT VINCENT (ISSY LES MOULINEAUX)","21 RUE SAINT VINCENT - 92130 ISSY LES MOULINEAUX",48.8194899938888,2.25386941995849,1.48283847870746
"1024",21302,"21302 - BRIAND (ISSY LES MOULINEAUX)","PLACE DE LA RESISTANCE ANGLE RUE ARISTIDE BRIAND - 92130 ISSY LES MOULINEAUX",48.8210302528657,2.25101957152697,1.48096354093364
"1025",21303,"21303 - ILES (ISSY LES MOULINEAUX)","ANGLE AVENUE JEAN MONNET ET BOULEVARD DES ILES -  92130 ISSY LES MOULINEAUX",48.8234505470138,2.24966529828803,1.48007255388195
"1026",21304,"21304 - BLUM (ISSY LES MOULINEAUX)","FACE 2 PLACE LEON BLUM - 92100 ISSY LES MOULINEAUX",48.8209551078801,2.26073641334576,1.48735632785059
"1027",21305,"21305 - MADAULE (ISSY LES MOULINEAUX)","PLACE MADAULE - 92130 ISSY LES MOULINEAUX",48.8241259046209,2.26064598548978,1.48729683465049
"1028",21306,"21306 - LAFAYETTE (ISSY LES MOULINEAUX)","PLACE LAFAYETTE - 92130 ISSY LES MOULINEAUX",48.8297433876783,2.2638163415461,1.48938263692009
"1029",21307,"21307 - CRESSON 1 (ISSY LES MOULINEAUX)","FACE 36 AVENUE VICTOR CRESSON - 92130 ISSY LES MOULINEAUX",48.8226783671367,2.26863109328801,1.49255030008864
"1030",21309,"21309 - CRESSON 2 (ISSY LES MOULINEAUX)","1 BIS AVENUE VICTOR CRESSON - 92130 ISSY LES MOULINEAUX",48.8237184776681,2.27225445406179,1.49493413773691
"1031",21310,"21310 - KLEBER (ISSY LES MOULINEAUX)","4 RUE KLEBER - 92130 ISSY LES MOULINEAUX",48.8269297673693,2.27225043195652,1.49493149156211
"1032",21311,"21311 - GAMBETTA (ISSY LES MOULINEAUX)","FACE AU 40 BOULEVARD GAMBETTA - 92130 ISSY LES MOULINEAUX",48.8274705017358,2.27854960082154,1.49907576447083
"1033",21501,"21501 - SELLIER (SURESNES)","RUE DE SAINT CLOUD / BOULEVARD HENRI SELLIER - 92150 SURESNES",48.8675658061302,2.22599848496062,1.46450197061768
"1034",21502,"21502 - VERDUN (SURESNES)","18 BIS RUE DE VERDUN / COUR MADELAINE - 92150 SURESNES",48.8710030415404,2.22747747677092,1.46547501100173
"1035",21503,"21503 - LEDRU ROLLIN (SURESNES)","13/15 RUE LEDRU ROLLIN - 92150 SURESNES",48.8709204876336,2.22958935220659,1.46686443051757
"1036",21701,"21701 - LARMEROUX (VANVES)","FACE 5 BIS RUE LARMEROUX - 92170 VANVES",48.8169399112916,2.28098948048455,1.50068098055642
"1037",21702,"21702 - BASCH (VANVES)","6 AVENUE VICTOR BASCH - 92170 VANVES",48.8189398642899,2.29195987246791,1.50789848801953
"1038",21703,"21703 - MARTINIE (VANVES)","5-7 AVENUE MARCEL MARTINIE - 92170 VANVES",48.8210499234595,2.29130063072414,1.50746476767364
"1039",21704,"21704 - REPUBLIQUE (VANVES)","2 RUE DE LA REPUBLIQUE - 92170 VANVES",48.8217026998931,2.28539562482839,1.50357981769309
"1040",21706,"21706 - BLEUZEN (VANVES)","74 RUE JEAN BLEUZEN - 92170 VANVES",48.8233032340816,2.29650634355336,1.51088964722695
"1041",21707,"21707 - PASTEUR (VANVES)","9 AVENUE PASTEUR ANGLE CARREFOUR ALBERT LEGRIS - 92170 Vanves",48.8250993292156,2.29250033145655,1.50825406025341
"1042",22001,"22001 - CHATEAU (NEUILLY)","26 BOULEVARD DU CHATEAU - 92200 NEUILLY",48.8905119134767,2.27016722527317,1.49356093344468
"1043",22002,"22002 - ARGENSON (NEUILLY)","44 BOULEVARD D'ARGENSON - 92200 NEUILLY",48.8886487735565,2.26390460269214,1.48944070462461
"1044",22003,"22003 - BEFFROY (NEUILLY)","3 RUE BEFFROY - 92200 NEUILLY",48.8867049831048,2.26126351803174,1.48770311418335
"1045",22004,"22004 - CHARLES DE GAULLE (NEUILLY)","162 AVENUE CHARLES DE GAULLE - 92200 NEUILLY",48.8847072934378,2.26153081998725,1.4878789742494
"1046",22005,"22005 - DE GAULLE 3 (NEUILLY)","195 AVENUE CHARLES DE GAULLE - 92200 NEUILLY",48.8842989293728,2.26099177209953,1.48752433038996
"1047",22006,"22006 - PIERRET (NEUILLY)","33 RUE PIERRET - 92200 NEUILLY SUR SEINE",48.8830266591596,2.26009698393187,1.48693564219288
"1048",22007,"22007 - CHARCOT (NEUILLY)","35-37 BOULEVARD DU COMMANDANT CHARCOT - 92200 NEUILLY SUR SEINE",48.8753602839083,2.25569933162912,1.48404239203705
"1049",22008,"22008 - DE GAULLE (NEUILLY)","153 BIS AVENUE CHARLES DE GAULLE - 92200 NEUILLY SUR SEINE",48.8829516253547,2.26513500874184,1.49025019847496
"1050",22009,"22009 - DE GAULLE 2 (NEUILLY)","FACE AU 99 AVENUE CHARLES DE GAULLE - 92200 NEUILLY SUR SEINE",48.88119,2.27186,1.49467462329667
"1051",22010,"22010 - DE GAULLE 4 (NEUILLY)","72 AVENUE CHARLES DE GAULLE - 92200 NEUILLY SUR SEINE",48.8816744459654,2.27117749892451,1.49422560045287
"1052",22011,"22011 - MONTROSIER (NEUILLY)","7 RUE MONTROSIER - 92200 NEUILLY",48.8794413696326,2.27853571712278,1.49906663027585
"1053",22012,"22012 - MICHELIS (NEUILLY)","32 RUE DE MADELEINE MICHELIS - 92200 NEUILLY",48.8827499154713,2.27740638127753,1.49832363131065
"1054",22013,"22013 - SAINTE FOY (NEUILLY)","2 rue de Chézy - 92200 NEUILLY",48.8851400530909,2.26780000825352,1.49200352268561
"1055",22014,"22014 - HUGO (NEUILLY)","35 BOULEVARD VICTOR HUGO - 92200 NEUILLY",48.8878010685929,2.2780724243682,1.49876182631635
"1056",22101,"22101 - GARE ROUTIERE ( SAINT CLOUD)","GARE ROUTIERE - ARRET TRAM - 92210 SAINT CLOUD",48.8431262059669,2.22218923568078,1.46199583545425
"1057",22401,"22401 - DE GAULLE (MALAKOFF)","BOULEVARD CHARLES DE GAULLE (STATION DE METRO) - 92240 MALAKOFF",48.822528306004,2.29863165411972,1.5122879058213
"1058",22402,"22402 - JAURES (MALAKOFF)","10 AVENUE JEAN JAURES - 92240 MALAKOFF",48.8214600797734,2.30289945996593,1.51509572896864
"1059",22403,"22403 - BROSSOLETTE (MALAKOFF)","FACE 35 AVENUE PIERRE BROSSOLETTE - 92240 MALAKOFF",48.8218356479179,2.31345860825423,1.52204267595927
"1060",22404,"22404 - BROSSOLETTE 2 (MALAKOFF)","102 AVENUE PIERRE BROSSOLETTE - 92240 MALAKOFF",48.8175597535818,2.30748584126749,1.5181131454222
"1061",22405,"22405 - NORD (MALAKOFF)","ANGLE PASSAGE DU NORD / GABRIEL PERI - 92240 MALAKOFF",48.8193391584096,2.30047686504791,1.51350188465318
"1062",22406,"22406 - MOQUET (MALAKOFF)","81 RUE GUY MOQUET - 92240 MALAKOFF",48.8152498542058,2.29800015657617,1.51187243860369
"1063",22407,"22407 - BARBUSSE (MALAKOFF)","ROND POINT HENRI BARBUSSE - 92240 MALAKOFF",48.8146796588863,2.28740045741175,1.50489881287163
"1064",23001,"23001 - COUTURIER 1 (LEVALLOIS)","2 RUE PAUL VAILLANT COUTURIER - 92300 LEVALLOIS",48.8936146524531,2.27761872722319,1.49846333538412
"1065",23002,"23002 - FRANCE (LEVALLOIS)","157 ANATOLE FRANCE - 92300 LEVALLOIS",48.8983498515127,2.27917948878684,1.49949017273422
"1066",23003,"23003 - WILSON (LEVALLOIS)","132 RUE DU PRESIDENT WILSON - 92300 LEVALLOIS",48.8983400022724,2.28508993358479,1.50337870101144
"1067",23004,"23004 - COUTURIER 2 (LEVALLOIS)","109 RUE  PAUL VAILLANT COUTURIER - 92300 LEVALLOIS",48.8981970226357,2.29384801797407,1.50914071384909
"1068",23005,"23005 - BRIAND (LEVALLOIS)","152 RUE ARISTIDE BRIAND - 92300 LEVALLOIS",48.8960510463765,2.29683625151337,1.51110669627745
"1069",23006,"23006 - GUESDE (LEVALLOIS)","8 RUE JULES GUESDE - 92300 LEVALLOIS-PERRET",48.8908603228911,2.29500037013538,1.50989885543027
"1070",23007,"23007 - WILSON (LEVALLOIS)","22 RUE DU PRESIDENT WILSON - 92300 LEVALLOIS-PERRET",48.8903802654139,2.29216048216642,1.50803047072338
"1071",23008,"23008 - REPUBLIQUE (LEVALLOIS)","PLACE DE LA REPUBLIQUE - 92300 LEVALLOIS",48.8931946753649,2.28891416005662,1.50589468978768
"1072",23009,"23009 - FRANCE (LEVALLOIS)","18 RUE ANATOLE FRANCE - 92300 LEVALLOIS-PERRET",48.8887627777124,2.28813601437951,1.50538274160566
"1073",23010,"23010 - VOLTAIRE (LEVALLOIS)","47 RUE VOLTAIRE - 92300 LEVALLOIS-PERRET",48.8919623289648,2.28420499011361,1.50279648971787
"1074",23011,"23011 - BINEAU (LEVALLOIS)","16 BOULEVARD BINEAU - 92300 LEVALLOIS-PERRET",48.8866813724989,2.28402369121817,1.50267721174376
"1075",28001,"28001 - WALLACE (PUTEAUX)","FACE AU 4 BOULEVARD RICHARD WALLACE - 92800 PUTEAUX",48.8787068534676,2.24197549369391,1.47501337075229
"1076",28002,"28002 - SOLJENITSYNE (PUTEAUX)","BOULEVARD ALEXANDRE SOLJENITSYNE - 92800 PUTEAUX",48.884478,2.24772065,1.47879315442628
"1077",28003,"28003 - JAURES (PUTEAUX)","152 RUE JEAN JAURES - 92800 PUTEAUX",48.8804708721965,2.23736244630457,1.47197841046913
"1078",31001,"31001 - LAGNY (MONTREUIL)","96 RUE DE LAGNY - 93100 MONTREUIL",48.8492303008648,2.42142994000703,1.59307786721862
"1079",31002,"31002 - REPUBLIQUE (MONTREUIL)","38 RUE DE LA REPUBLIQUE - 93100 MONTREUIL",48.8528141913458,2.41930708875366,1.59168122662569
"1080",31003,"31003 - PARIS (MONTREUIL)","237-241 RUE DE PARIS - 93100 MONTREUIL",48.8549113323991,2.41877242975671,1.59132947025212
"1081",31004,"31004 - PARIS 2 (MONTREUIL)","175/179 RUE DE PARIS - 93100 MONTREUIL",48.8555013128647,2.42205573361323,1.59348958177084
"1082",31005,"31005 - PARIS 2  (MONTREUIL)","127/129 RUE DE PARIS - 93100 MONTREUIL",48.8562845161864,2.42643449060982,1.59637040055562
"1083",31006,"31006 - REPUBLIQUE 2 (MONTREUIL)","2/4 PLACE DE LA REPUBLIQUE - 93100 MONTREUIL",48.8537596163359,2.42444580801107,1.59506203057941
"1084",31007,"31007 - PARIS 1 (MONTREUIL)","56 RUE DE PARIS - 93100 MONTREUIL",48.857364,2.4321581,1.60013600834358
"1085",31008,"31008 - VINCENNES (MONTREUIL)","7 BIS RUE DE VINCENNES - 93100 MONTREUIL",48.857702134021,2.43736866129498,1.60356407774079
"1086",31009,"31009 - DE GAULLE (MONTREUIL)","13/15 PLACE DU GENERAL DE GAULLE - 93100 MONTREUIL",48.8688123638694,2.43297479522392,1.60067331857667
"1087",31010,"31010 - STALINGRAD (MONTREUIL)","67-69 RUE DE STALINGRAD - 93100 MONTREUIL",48.856811123071,2.44498742533926,1.60857652273206
"1088",31011,"31011 - STALINGRAD 2 (MONTREUIL)","27 RUE DE STALINGRAD - 93100 MONTREUIL",48.8589230268289,2.44314211823533,1.6073624806254
"1089",31012,"31012 - CARNOT (MONTREUIL)","35/37 RUE CARNOT - 93100 MONTREUIL",48.8558103110105,2.44152044244532,1.60629556732505
"1090",31013,"31013 - CENTENAIRE (MONTREUIL)","8 RUE DU CENTENAIRE - 93100 MONTREUIL",48.8584596543173,2.4273903107203,1.59699924214954
"1091",31701,"31701 - BERTON (BAGNOLET)","3 RUE RAOUL BERTON - 93170 BAGNOLET",48.868453299036,2.41781693473698,1.59070084253796
"1092",31702,"31702 - CURIE (BAGNOLET)","40 PIERRE ET MARIE CURIE - 93170 BAGNOLET",48.870658012859,2.42404643753622,1.59479928159221
"1093",31703,"31703 - CARNOT (BAGNOLET)","177 RUE SADI CARNOT - 93170 BAGNOLET",48.8752669984009,2.4236494905184,1.59453812701652
"1094",31704,"31704 - HORNET (BAGNOLET)","FACE AU 1 RUE JEANNE HORNET - 93170 BAGNOLET",48.8739292000335,2.42793357977893,1.59735666315064
"1095",31705,"31705 - CHAMPEAUX (BAGNOLET)","RUE DES CHAMPEAUX (PRES DE LA GARE ROUTIERE) - 93170 BAGNOLET",48.8645278209514,2.4161707244259,1.58961778778258
"1096",31706,"31706 - CHATEAU (BAGNOLET)","RUE DU CHATEAU - 93170 BAGNOLET",48.863025492266,2.41562220417951,1.58925691198361
"1097",31707,"31707 - VAILLANT (BAGNOLET)","FACE 70 RUE EDOUARD VAILLANT - 93170 BAGNOLET",48.8583956785465,2.41486062800384,1.58875586500735
"1098",31708,"31708 - NOISY (BAGNOLET)","116-118 RUE DE NOISY LE SEC - 93170 BAGNOLET",48.8744577172414,2.41513809225074,1.58893841092511
"1099",31709,"31709 - MARCEL (BAGNOLET)","FACE AU 184 RUE ETIENNE MARCEL - 93170 BAGNOLET",48.8570503947438,2.42254995670978,1.59381473504642
"1100",32001,"32001 - PROUDHON (SAINT DENIS)","AVENUE PRESIDENT WILSON / RUE PROUDHON - 93200 SAINT DENIS",48.9064693732438,2.35844205395494,1.55163763989072
"1101",32003,"32003 - METALLURGIE (SAINT DENIS)","AVENUE DU PRESIDENT WILSON / RUE DE LA METALLURGIE - 93200 SAINT DENIS",48.9093300218896,2.35805056573641,1.55138007670216
"1102",32004,"32004 - BAILLY (SAINT DENIS)","AVENUE DU PRESIDENT WILSON/ RUE DE BAILLY - 93200 SAINT DENIS",48.915198642437,2.35750068368611,1.55101830496165
"1103",32006,"32006 - EGLISE SAINT JUSTE (SAINT DENIS)","AVENUE DU PRESIDENT WILSON / PARKING DE L'EGLISE SAINT JUSTE - 93210 SAINT DENIS",48.9085867169525,2.35848245779223,1.55166422189413
"1104",32601,"32601 - PARIS (LES LILAS)","46 RUE DE PARIS - 93260 LES LILAS",48.8785903488281,2.41189997788677,1.58680802993017
"1105",32602,"32602 - POULMARCH (LES LILAS)","7 RUE JEAN POULMARCH - 93260 LES LILAS",48.8794000532367,2.41616066183218,1.58961116752275
"1106",32603,"32603 - CALMETTE (LES LILAS)","1 ALLEE DOCTEUR CALMETTE - 93260 LES LILAS",48.8811410156977,2.4249742430662,1.59540969217254
"1107",32604,"32604 - KOCK (LES LILAS)","FACE 3 AVENUE PAUL DE KOCK - 93260 LES LILAS",48.8812154273023,2.42020915533382,1.5922747033478
"1108",32605,"32605 - HORTENSIAS (LES LILAS)","1 ALLEE DES HORTENSIAS - 93260 LES LILAS",48.8821730942046,2.42327263606036,1.59429019149448
"1109",32606,"32606 - GARDE CHASSE (LES LILAS)","49 RUE DU GARDE CHASSE - 93260 LES LILAS",48.8832402516454,2.41891236964504,1.59142153780904
"1110",33001,"33001 - EMGP (AUBERVILLIERS)","45 Avenue Victor Hugo - 93300 AUBERVILLIERS",48.9031834065108,2.3680256126088,1.5579427387616
"1111",33003,"33003 - FAURE (AUBERVILLIERS)","ANGLE RUE BORDIER ET BOULEVARD FELIX FAURE  - 93300 AUBERVILLIERS",48.9039640245585,2.3831254909144,1.56787706786561
"1112",33005,"33005 - REPUBLIQUE 2 (AUBERVILLIERS)","FACE AU 106 AVENUE DE LA REPUBLIQUE - 93300 AUBERVILLIERS",48.9063833980958,2.3895475019254,1.57210215959163
"1113",33006,"33006 - KARMAN (AUBERVILLIERS)","FACE 143 RUE ANDRE KARMAN - 93300 AUBERVILLIERS",48.9101436710038,2.38505201824411,1.56914454539979
"1114",33009,"33009 - FELIX (AUBERVILLIERS)","120 BOULEVARD FELIX FAURE - 93300 AUBERVILLIERS",48.9078857572667,2.37883847406415,1.56505660564712
"1115",33010,"33010 - HUGO (AUBERVILLIERS)","161 AVENUE VICTOR HUGO - 93300 AUBERVILLIERS",48.9111048097348,2.3791437423026,1.56525744403034
"1116",33011,"33011 - FAURE (AUBERVILLIERS)","FACE 172-174 BOULEVARD FELIX FAURE - 93300 AUBERVILLIERS",48.9113936890419,2.37528131997492,1.5627163258991
"1117",33012,"33012 - LANDY (AUBERVILLIERS)","FACE 2 RUE DU LANDY - 93300 AUBERVILLIERS",48.9151561828132,2.37642400951409,1.56346811036491
"1118",33013,"33013 - RECHAUSSIERE (AUBERVILLIERS)","52 RUE LEOPOLD RECHOSSIERE - 93300 AUBERVILLIERS",48.9145061128239,2.39105149687865,1.57309164974076
"1119",33102,"33102 - JAURES 1 (PRE SAINT GERVAIS)","RUE GABRIEL PERI ANGLE AVENUE JAURES - 93310 LE PRE SAINT GERVAIS",48.8865269832675,2.40746868938648,1.58389265025453
"1120",33103,"33103 - JAURES 2 (PRE SAINT GERVAIS)","34 AVENUE JEAN JAURES - 93310 LE PRE SAINT GERVAIS",48.8840012644345,2.40798991938787,1.58423557158594
"1121",33104,"33104 - JOINEAU (PRE SAINT GERVAIS)","RUE ANDRE JOINEAU / PLACE ANATOLE FRANCE - 93310 LE PRE SAINT GERVAIS",48.8836202338437,2.40324031836662,1.58111077159067
"1122",34002,"34002 - PERI (SAINT OUEN)","128 AVENUE GABRIEL PERI / AVENUE DU CAPITAINE GLAMER - 93400 SAINT OUEN",48.9025922416309,2.33051356484027,1.53326326649328
"1123",34004,"34004 - VOLTAIRE (SAINT OUEN)","1 RUE VOLTAIRE - 93400 SAINT OUEN",48.902499760458,2.34224814466128,1.54098353916567
"1124",34005,"34005 - LESENNE (SAINT OUEN)","44 RUE ADRIEN LESENNE - 93400 SAINT OUEN",48.9025532782227,2.34827493630495,1.54494861295089
"1125",34006,"34006 - MICHELET (SAINT OUEN)","42 AVENUE MICHELET - 93400 SAINT OUEN",48.91016,2.34428,1.54232031282822
"1126",34007,"34007 - ROSIERS (SAINT OUEN)","43-45 RUE BLANQUI / RUE DES ROSIERS - 93400 SAINT OUEN",48.9053622514168,2.33738964850196,1.53778709619968
"1127",34008,"34008 - GARIBALDI (SAINT OUEN)","FACE AU 4 AVENUE GARIBALDI / AVENUE GABRIEL PERI - 93400 SAINT OUEN",48.9057350760539,2.33149745979217,1.53391057874693
"1128",34009,"34009 - MAAR (SAINT OUEN)","RUE DORA MAAR / GARE RER - 93400 SAINT OUEN",48.9052696293797,2.32217124868867,1.52777479086039
"1129",34010,"34010 - DIDEROT 2 (SAINT OUEN)","FACE 61-63 RUE DIDEROT- 93400 SAINT OUEN",48.9115704593083,2.33391012712922,1.53549789162851
"1130",34011,"34011 - DHALENNE (SAINT OUEN)","FACE AU 61 RUE ALBERT DHALENNE - 93400 SAINT OUEN",48.914188312399,2.33208283587176,1.53429570228942
"1131",35001,"35001 - JAURES 1 (PANTIN)","168 AVENUE JEAN JAURES - 93500 PANTIN",48.9101370950539,2.39932563330523,1.57853526939447
"1132",35002,"35002 - JAURES 2 (PANTIN)","130 RUE JEAN JAURES - 93500 PANTIN",48.9072260126641,2.39612920044567,1.57643231099024
"1133",35003,"35003 - VAILLANT (PANTIN)","ANGLE RUE GENERAL GOSSERAND ET AVENUE EDOUARD VAILLANT - 93500 PANTIN",48.9026916179814,2.39325582933415,1.5745418974596
"1134",35004,"35004 - ALLENDE (PANTIN)","AVENUE DE LA GARE - 93500 PANTIN",48.8973289368289,2.40057659385414,1.57935828621206
"1135",35005,"35005 - GENERAL LECLERC (PANTIN)","QUAI DE L'AISNE/AVENUE DU GENERAL LECLERC 93500 PANTIN",48.8957139498245,2.40057189442727,1.57935519442204
"1136",35006,"35006 - DELIZY (PANTIN)","FACE AU 23 RUE DELIZY - 93500 PANTIN",48.896331931661,2.40908765272598,1.58495777901229
"1137",35007,"35007 - DELESSERT (PANTIN)","1 RUE  BENJAMIN DELESSERT - 93500 PANTIN",48.8939437131899,2.41802965968678,1.59084079596124
"1138",35008,"35008 - LOLIVE 2 (PANTIN)","132 RUE JEAN LOLIVE - 93500 PANTIN",48.8927196663313,2.41252957147218,1.5872222445187
"1139",35009,"35009 - LOLIVE 1 (PANTIN)","104 AVENUE LOLIVE - 93500 PANTIN",48.8921394093072,2.40910773770119,1.58497099307599
"1140",35010,"35010 - GERVAIS (PANTIN)","1-3 RUE DU PRE SAINT GERVAIS - 93500 PANTIN",48.8910789762746,2.40277551968633,1.58080497687077
"1141",35011,"35011 - D'ORVES (PANTIN)","12 RUE HONORE D'ESTIENNE D'ORVES - 93500 PANTIN",48.8904846162374,2.40649821383289,1.58325416672893
"1142",35012,"35012 - CANDALE (PANTIN)","FACE AU 12 RUE CANDALE - 93500 PANTIN",48.8894858401957,2.41430751511129,1.58839196767023
"1143",35013,"35013 - TELL (PANTIN)","1 RUE GUILLAUME TELL / FACE AU 64 BENJAMIN DELESSERT- 93500 PANTIN",48.8894884200148,2.41984896873455,1.59203773374158
"1144",35014,"35014 - DE GAULLE (PANTIN)","139 AVENUE JEAN LOLIVE / MAIL CHARLES DE GAULLE - 93500 PANTIN",48.8932686646974,2.41271573338868,1.58734472191274
"1145",41101,"41101 - DOUMER (ARCUEIL)","FACE AU 11 AVENUE PAUL DOUMER - 94110 ARCUEIL",48.8063800102974,2.33671040254529,1.53734021492424
"1146",41102,"41102 - RENAN (ARCUEIL)","rue Ernest Renan / angle rue Vaucouleurs (A la sortie du RER B) - 94110 ARCUEIL",48.8088003949934,2.33468965466247,1.53601074894459
"1147",41103,"41103 - BRIAND (ARCUEIL)","AVENUE ARISTIDE BRIAND (CARREFOUR VACHE NOIRE) - 94110 ARCUEIL",48.8104231700653,2.32696976462064,1.53093177236146
"1148",41201,"41201 - DE RICARD (FONTENAY SOUS BOIS)","RUE LOUIS-XAVIER DE RICARD - 94120 FONTENAY SOUS BOIS",48.8463028606941,2.47240877487039,1.62661724499519
"1149",41202,"41202 - CHARMES (FONTENAY SOUS BOIS)","ANGLE AVENUE DES CHARMES / AVENUE FOCH - 94120 FONTENAY SOUS BOIS",48.8436743414425,2.46308263962204,1.62048150701436
"1150",41203,"41203 - STALINGRAD (FONTENAY SOUS BOIS)","14 AVENUE STALINGRAD - 94120 FONTENAY SOUS BOIS",48.8501252320561,2.45552917211114,1.61551202112771
"1151",41301,"41301 - CLEMENCEAU (NOGENT)","2 AVENUE GEORGES CLEMENCEAU - 94130 NOGENT",48.8361258429824,2.47037545126883,1.62527950535094
"1152",41302,"41302 - CHARLES DE GAULLE (NOGENT)","FACE AU 60 AVENUE CHARLES DE GAULLES - 94130 NOGENT SUR MARNE",48.8364811291818,2.47946426870908,1.63125911007293
"1153",41601,"41601 - GENERAL DE GAULLE (SAINT MANDE)","86 AVENUE DU GENERAL DE GAULLE - 94160 SAINT MANDE",48.8390304317692,2.41741043540351,1.59043340341842
"1154",41602,"41602 - DIGEON (SAINT MANDE)","PLACE CHARLES DIGEON - 94160 SAINT MANDE",48.8435469599157,2.41831747656715,1.59103015295826
"1155",41603,"41603 - PASTEUR (SAINT MANDE)","AVENUE PASTEUR/AVENUE DE PARIS - 94160 SAINT MANDE",48.8457792191646,2.42377059524055,1.59461780276897
"1156",41604,"41604 - LAGNY (SAINT MANDE)","126 RUE LAGNY / ANGLE AVENUE JOFFRE - 94160 SAINT MANDE",48.8493118268378,2.41790976904234,1.5907619189601
"1157",41605,"41605 - GENERAL DE GAULLE 2 (SAINT MANDE)","120 AVENUE GENERAL DE GAULLE - 94160 SAINT MANDE",48.8360886795229,2.41890759472368,1.5914183963506
"1158",42002,"42002 - GARE (IVRY)","VIS-A-VIS DU 17 RUE DE LA GARE - 94200 IVRY SUR SEINE",48.8149264672463,2.39200163582493,1.57371675365191
"1159",42006,"42006 - BROSSOLETTE (IVRY)","23 RUE PIERRE BROSSOLETTE - 94200 IVRY",48.8169297205612,2.38146031918422,1.56678153824296
"1160",42007,"42007 - PIERRE ET MARIE CURIE (IVRY)","Angle Avenue de Verdun et rue Pierre et Marie Curie - 94200 IVRY",48.8128905614968,2.37065026341858,1.55966951724284
"1161",42008,"42008 - CASANOVA (IVRY)","128 AVENUE DANIEL CASANOVA - 94200 IVRY",48.8142062847559,2.38420701355798,1.5685886101481
"1162",42009,"42009 - VERDUN (IVRY)","157-165 AVENUE DE VERDUN - 94200 IVRY",48.8072592805979,2.37513019905317,1.56261690225205
"1163",42010,"42010 - ROBESPIERRE (IVRY)","1 RUE ROBESPIERRE - 94200 IVRY",48.8108458645646,2.38395086342048,1.56842008695112
"1164",42012,"42012 - BARBUSSE (IVRY)","1 RUE HENRY BARBUSSE - 94200 IVRY",48.8102003479661,2.37967058911516,1.56560406070615
"1165",42013,"42013 - BARBES (IVRY)","RUE BARBES / AVENUE DE VERDUN - 94200 IVRY SUR SEINE",48.8159110964669,2.3682297292435,1.55807702870644
"1166",42014,"42014 - CACHIN (IVRY)","PLACE MARCEL CACHIN - 94200 IVRY SUR SEINE",48.8141405375024,2.39090936806714,1.572998142074
"1167",42015,"42015 - JEAN FERRAT (IVRY)","PLACE JEAN FERRAT - 94200 IVRY",48.8185,2.37427,1.56205097050636
"1168",42016,"42016 - CURIE (IVRY)","1 BIS RUE PIERRE ET MARIE CURIE - 94200 IVRY",48.8158473928145,2.37694379547211,1.56381008164879
"1169",42201,"42201 - NECKER (CHARENTON)","RUE NECKER/ RUE DU PORT AUX LIONS - 94220 CHARENTON",48.8239632522869,2.39999842013299,1.57897790115803
"1170",42202,"42202 - RONSARD (CHARENTON)","1 RUE  KENNEDY / ALLEE RONSARD - 94220 CHARENTON",48.8227360120977,2.40565920320751,1.5827021750171
"1171",42203,"42203 - ELUARD (CHARENTON)","FACE AU 7 RUE PAUL ELUARD - 94220 CHARENTON",48.8204038940088,2.40840547215674,1.58450896703209
"1172",42205,"42205 - PARIS 1 (CHARENTON)","89 RUE DE PARIS - 94220 CHARENTON",48.8221431258046,2.4126027864677,1.58727041324206
"1173",42206,"42206 - PARIS 2 (CHARENTON)","111 RUE DE PARIS - 94220 CHARENTON",48.8237840896708,2.41001354040084,1.5855669278206
"1174",42207,"42207 - PARIS 3 (CHARENTON)","136 RUE DE PARIS - 94220 CHARENTON",48.8266572063246,2.40587672301108,1.58284528301252
"1175",42208,"42208 - PARIS 4 (CHARENTON)","178 RUE DE PARIS - 94220 CHARENTON",48.8294214716652,2.40164810555835,1.58006324221853
"1176",42501,"42501 - RASPAIL 1 - FRAYSSE","80 AVENUE RASPAIL - 94250 GENTILLY",48.81031545,2.34395871,1.54210893360163
"1177",42502,"42502 - RASPAIL 2 (GENTILLY)","FACE AU 79 AVENUE RASPAIL- 94250 GENTILLY",48.8131276479162,2.34679437435222,1.54397453955774
"1178",42504,"42504 - MALON (GENTILLY)","FACE 59 RUE BENOIT MALON - 94250 GENTILLY",48.8144401796238,2.34107065417259,1.54020885888052
"1179",42505,"42505 - FREROT (GENTILLY)","37 RUE CHARLES FREROT - 94250 GENTILLY",48.8157687919839,2.35047619893454,1.54639684100705
"1180",42701,"42701 - GIDE (LE KREMLIN BICETRE)","FACE 50 AVENUE CHARLES GIDE - 94270 LE KREMELIN BICETRE",48.80721112325,2.35385267286824,1.54861824985483
"1181",42702,"42702 - LECLERC (KREMLIN BICETRE)","73 RUE DU GENERAL LECLERC - 94270 LE KREMELIN BICETRE",48.8104774996005,2.35817289646248,1.55146055905226
"1182",42703,"42703 - FONTAINEBLEAU (KREMLIN BICETRE)","93 AVENUE DE FONTAINEBLEAU - 94270 LE KREMLIN BICETRE",48.8095823380351,2.36268350990116,1.55442812723089
"1183",42704,"42704 - ROSSEL (LE KREMLIN BICETRE)","RUE ROSSEL / AVENUE DE LA CONVENTION - 94270 LE KREMLIN BICETRE",48.812012814287,2.35697189328747,1.55067040958522
"1184",42705,"42705 - CONVENTION (LE KREMLIN BICETRE)","1 RUE DE LA CONVENTION - 94270 LE KREMLIN BICETRE",48.8128002963747,2.3610411664423,1.55334761650809
"1185",42706,"42706 - SALENGRO (KREMLIN BICETRE)","3 RUE ROGER SALENGRO -  94270 LE KREMLIN BICETRE",48.8146624956089,2.36134550272134,1.55354784174786
"1186",42707,"42707 - OKABE (LE KREMLIN-BICETRE)","51 avenue de Fontainebleau - 94270 Le Kremlin-Bicetre",48.8123678293798,2.36180984825322,1.55385333833786
"1187",43001,"43001 - PARIS 1 (VINCENNES)","168 AVENUE DE PARIS - 94300 VINCENNES",48.8463380538888,2.42024734047464,1.59229982565329
"1188",43002,"43002 - LAGNY (VINCENNES)","1 BIS RUE DE LAGNY - 94300 VINCENNES",48.8488790190043,2.42619842213181,1.5962150892409
"1189",43003,"43003 - PARIS 2 (VINCENNES)","104 AVENUE DE PARIS - 94300 VINCENNES",48.845719900926,2.42740630276139,1.59700976343958
"1190",43004,"43004 - MONTREUIL (VINCENNES)","43 RUE DE MONTREUIL - 94300 VINCENNES",48.8504183667604,2.43451378622076,1.60168583289906
"1191",43005,"43005 - AUBERT (VINCENNES)","18 AVENUE AUBERT - 94300 VINCENNES",48.8475504363108,2.43343260792337,1.60097451716465
"1192",43006,"43006 - MINIMES (VINCENNES)","30 AVENUE DES MINIMES - 94300 VINCENNES",48.8414868563002,2.43079345113368,1.59923819508475
"1193",43007,"43007 - VORGES (VINCENNES)","4 AVENUE VORGES - 94300 VINCENNES",48.8482577527293,2.43989289938624,1.60522479390206
"1194",43008,"43008 - FONTENAY (VINCENNES)","12 RUE DE FONTENAY - 94300 VINCENNES",48.8477906644826,2.44469088782798,1.60838142836314
"1195",43009,"43009 - MURS DU PARC (VINCENNES)","AVENUE DES MURS DU PARC - 94300 VINCENNES",48.846961260175,2.45223739659609,1.61334633603799
"1196",43010,"43010 - JARRY (VINCENNES)","139 RUE DE LA JARRY - 94300 VINCENNES",48.8497449569769,2.45196030630883,1.61316403615123
"1197",43401,"43401 - GARE RER (JOINVILLE)","PARC DU STATIONNEMENT / GARE RER - 94340 JOINVILLE-LE-PONT",48.819954101228,2.46402550470253,1.62110182539181
"1198",44101,"44101 - PLACE MONGOLFIER (SAINT MAURICE)","PLACE MONTGOLFIER - 94410 SAINT MAURICE",48.8150500061974,2.45923941480648,1.61795301907785
"1199",44102,"44102 - VERDUN (SAINT MAURICE)","14 avenue de Verdun - 94410 SAINT MAURICE",48.8221758049375,2.42150447606237,1.59312690507765
